(Generated by EBAM G-code Studio v4.2.9.1)
(Machine: Bormash EBAM)
(Units: mm, absolute coordinates)
(Model size X=80.000 Y=80.000 Z=60.000; source=STL)
(WARNING: calculated process only; verify with dry run and short test)
G21 (mm)
G90 (absolute XYZ)
G94 (feed per minute)
G64 P0.080
M429 (identity kinematics, if available)
M68 E0 Q0.000 (beam current OFF)
M68 E2 Q0.000 (wire feed OFF)
M68 E1 Q1030.000 (focus)
G0 Z7.000
(STL_SPECIAL_PATH: stl_rotary_c_rings; radial_step=4.000 mm; B=0.000 deg; C-axis table rings from STL sections)
(STL_C_TABLE_NOTE: STL sections are approximated as circular radii around the model XY center; use only for near-axisymmetric STL)
(STL_GEOMETRY_CENTER_FOR_RADIUS: X=40.000 Y=40.000)
G0 B0.000
G0 C0.000
(--- LAYER 1/3 Z=0.000 STL_ROTARY_C rings=10 outerR=40.000 innerR=0.000 ---)
(ROTARY_C_RING L1 RING=1/10 R=40.000 X=140.000 Z=0.000 Cfeed=931.1deg/min linearF=650.0mm/min)
G0 Z7.000
G0 X140.000 Y50.000
G1 Z0.000 F240.0
M68 E0 Q28.528
G4 P0.030
M68 E2 Q157.092
G4 P0.020
M68 E2 Q191.575
G91 (relative C turn)
G1 C360.000 F931.1
G90 (absolute XYZBC)
M68 E2 Q157.092
M68 E2 Q0.000
G4 P0.030
M68 E0 Q0.000
G0 Z7.000
(ROTARY_C_RING L1 RING=2/10 R=36.000 X=136.000 Z=0.000 Cfeed=1034.5deg/min linearF=650.0mm/min)
G0 Z7.000
G0 X136.000 Y50.000
G1 Z0.000 F240.0
M68 E0 Q28.528
G4 P0.030
M68 E2 Q157.092
G4 P0.020
M68 E2 Q191.575
G91 (relative C turn)
G1 C360.000 F1034.5
G90 (absolute XYZBC)
M68 E2 Q157.092
M68 E2 Q0.000
G4 P0.030
M68 E0 Q0.000
G0 Z7.000
(ROTARY_C_RING L1 RING=3/10 R=32.000 X=132.000 Z=0.000 Cfeed=1163.8deg/min linearF=650.0mm/min)
G0 Z7.000
G0 X132.000 Y50.000
G1 Z0.000 F240.0
M68 E0 Q28.528
G4 P0.030
M68 E2 Q157.092
G4 P0.020
M68 E2 Q191.575
G91 (relative C turn)
G1 C360.000 F1163.8
G90 (absolute XYZBC)
M68 E2 Q157.092
M68 E2 Q0.000
G4 P0.030
M68 E0 Q0.000
G0 Z7.000
(ROTARY_C_RING L1 RING=4/10 R=28.000 X=128.000 Z=0.000 Cfeed=1330.1deg/min linearF=650.0mm/min)
G0 Z7.000
G0 X128.000 Y50.000
G1 Z0.000 F240.0
M68 E0 Q28.528
G4 P0.030
M68 E2 Q157.092
G4 P0.020
M68 E2 Q191.575
G91 (relative C turn)
G1 C360.000 F1330.1
G90 (absolute XYZBC)
M68 E2 Q157.092
M68 E2 Q0.000
G4 P0.030
M68 E0 Q0.000
G0 Z7.000
(ROTARY_C_RING L1 RING=5/10 R=24.000 X=124.000 Z=0.000 Cfeed=1551.8deg/min linearF=650.0mm/min)
G0 Z7.000
G0 X124.000 Y50.000
G1 Z0.000 F240.0
M68 E0 Q28.528
G4 P0.030
M68 E2 Q157.092
G4 P0.020
M68 E2 Q191.575
G91 (relative C turn)
G1 C360.000 F1551.8
G90 (absolute XYZBC)
M68 E2 Q157.092
M68 E2 Q0.000
G4 P0.030
M68 E0 Q0.000
G0 Z7.000
(ROTARY_C_RING L1 RING=6/10 R=20.000 X=120.000 Z=0.000 Cfeed=1862.1deg/min linearF=650.0mm/min)
G0 Z7.000
G0 X120.000 Y50.000
G1 Z0.000 F240.0
M68 E0 Q28.528
G4 P0.030
M68 E2 Q157.092
G4 P0.020
M68 E2 Q191.575
G91 (relative C turn)
G1 C360.000 F1862.1
G90 (absolute XYZBC)
M68 E2 Q157.092
M68 E2 Q0.000
G4 P0.030
M68 E0 Q0.000
G0 Z7.000
(ROTARY_C_RING L1 RING=7/10 R=16.000 X=116.000 Z=0.000 Cfeed=2100.0deg/min linearF=586.4mm/min)
G0 Z7.000
G0 X116.000 Y50.000
G1 Z0.000 F240.0
M68 E0 Q25.738
G4 P0.030
M68 E2 Q141.728
G4 P0.020
M68 E2 Q172.840
G91 (relative C turn)
G1 C360.000 F2100.0
G90 (absolute XYZBC)
M68 E2 Q141.728
M68 E2 Q0.000
G4 P0.030
M68 E0 Q0.000
G0 Z7.000
(ROTARY_C_RING L1 RING=8/10 R=12.000 X=112.000 Z=0.000 Cfeed=2100.0deg/min linearF=439.8mm/min)
G0 Z7.000
G0 X112.000 Y50.000
G1 Z0.000 F240.0
M68 E0 Q19.303
G4 P0.030
M68 E2 Q106.296
G4 P0.020
M68 E2 Q129.630
G91 (relative C turn)
G1 C360.000 F2100.0
G90 (absolute XYZBC)
M68 E2 Q106.296
M68 E2 Q0.000
G4 P0.030
M68 E0 Q0.000
G0 Z7.000
(ROTARY_C_RING L1 RING=9/10 R=8.000 X=108.000 Z=0.000 Cfeed=2100.0deg/min linearF=293.2mm/min)
G0 Z7.000
G0 X108.000 Y50.000
G1 Z0.000 F240.0
M68 E0 Q12.869
G4 P0.030
M68 E2 Q70.864
G4 P0.020
M68 E2 Q86.420
G91 (relative C turn)
G1 C360.000 F2100.0
G90 (absolute XYZBC)
M68 E2 Q70.864
M68 E2 Q0.000
G4 P0.030
M68 E0 Q0.000
G0 Z7.000
(ROTARY_C_RING L1 RING=10/10 R=4.000 X=104.000 Z=0.000 Cfeed=2100.0deg/min linearF=146.6mm/min)
G0 Z7.000
G0 X104.000 Y50.000
G1 Z0.000 F240.0
M68 E0 Q6.434
G4 P0.030
M68 E2 Q35.432
G4 P0.020
M68 E2 Q43.210
G91 (relative C turn)
G1 C360.000 F2100.0
G90 (absolute XYZBC)
M68 E2 Q35.432
M68 E2 Q0.000
G4 P0.030
M68 E0 Q0.000
G0 Z7.000
G4 P0.100 (layer thermal stabilization)
(--- LAYER 2/3 Z=5.000 STL_ROTARY_C rings=10 outerR=40.000 innerR=0.000 ---)
(ROTARY_C_RING L2 RING=1/10 R=40.000 X=140.000 Z=5.000 Cfeed=938.2deg/min linearF=655.0mm/min)
G0 Z12.000
G0 X140.000 Y50.000
G1 Z5.000 F240.0
M68 E0 Q28.444
G4 P0.030
M68 E2 Q158.300
G4 P0.020
M68 E2 Q193.049
G91 (relative C turn)
G1 C360.000 F938.2
G90 (absolute XYZBC)
M68 E2 Q158.300
M68 E2 Q0.000
G4 P0.030
M68 E0 Q0.000
G0 Z12.000
(ROTARY_C_RING L2 RING=2/10 R=36.000 X=136.000 Z=5.000 Cfeed=1042.5deg/min linearF=655.0mm/min)
G0 Z12.000
G0 X136.000 Y50.000
G1 Z5.000 F240.0
M68 E0 Q28.444
G4 P0.030
M68 E2 Q158.300
G4 P0.020
M68 E2 Q193.049
G91 (relative C turn)
G1 C360.000 F1042.5
G90 (absolute XYZBC)
M68 E2 Q158.300
M68 E2 Q0.000
G4 P0.030
M68 E0 Q0.000
G0 Z12.000
(ROTARY_C_RING L2 RING=3/10 R=32.000 X=132.000 Z=5.000 Cfeed=1172.8deg/min linearF=655.0mm/min)
G0 Z12.000
G0 X132.000 Y50.000
G1 Z5.000 F240.0
M68 E0 Q28.444
G4 P0.030
M68 E2 Q158.300
G4 P0.020
M68 E2 Q193.049
G91 (relative C turn)
G1 C360.000 F1172.8
G90 (absolute XYZBC)
M68 E2 Q158.300
M68 E2 Q0.000
G4 P0.030
M68 E0 Q0.000
G0 Z12.000
(ROTARY_C_RING L2 RING=4/10 R=28.000 X=128.000 Z=5.000 Cfeed=1340.3deg/min linearF=655.0mm/min)
G0 Z12.000
G0 X128.000 Y50.000
G1 Z5.000 F240.0
M68 E0 Q28.444
G4 P0.030
M68 E2 Q158.300
G4 P0.020
M68 E2 Q193.049
G91 (relative C turn)
G1 C360.000 F1340.3
G90 (absolute XYZBC)
M68 E2 Q158.300
M68 E2 Q0.000
G4 P0.030
M68 E0 Q0.000
G0 Z12.000
(ROTARY_C_RING L2 RING=5/10 R=24.000 X=124.000 Z=5.000 Cfeed=1563.7deg/min linearF=655.0mm/min)
G0 Z12.000
G0 X124.000 Y50.000
G1 Z5.000 F240.0
M68 E0 Q28.444
G4 P0.030
M68 E2 Q158.300
G4 P0.020
M68 E2 Q193.049
G91 (relative C turn)
G1 C360.000 F1563.7
G90 (absolute XYZBC)
M68 E2 Q158.300
M68 E2 Q0.000
G4 P0.030
M68 E0 Q0.000
G0 Z12.000
(ROTARY_C_RING L2 RING=6/10 R=20.000 X=120.000 Z=5.000 Cfeed=1876.4deg/min linearF=655.0mm/min)
G0 Z12.000
G0 X120.000 Y50.000
G1 Z5.000 F240.0
M68 E0 Q28.444
G4 P0.030
M68 E2 Q158.300
G4 P0.020
M68 E2 Q193.049
G91 (relative C turn)
G1 C360.000 F1876.4
G90 (absolute XYZBC)
M68 E2 Q158.300
M68 E2 Q0.000
G4 P0.030
M68 E0 Q0.000
G0 Z12.000
(ROTARY_C_RING L2 RING=7/10 R=16.000 X=116.000 Z=5.000 Cfeed=2100.0deg/min linearF=586.4mm/min)
G0 Z12.000
G0 X116.000 Y50.000
G1 Z5.000 F240.0
M68 E0 Q25.466
G4 P0.030
M68 E2 Q141.728
G4 P0.020
M68 E2 Q172.840
G91 (relative C turn)
G1 C360.000 F2100.0
G90 (absolute XYZBC)
M68 E2 Q141.728
M68 E2 Q0.000
G4 P0.030
M68 E0 Q0.000
G0 Z12.000
(ROTARY_C_RING L2 RING=8/10 R=12.000 X=112.000 Z=5.000 Cfeed=2100.0deg/min linearF=439.8mm/min)
G0 Z12.000
G0 X112.000 Y50.000
G1 Z5.000 F240.0
M68 E0 Q19.100
G4 P0.030
M68 E2 Q106.296
G4 P0.020
M68 E2 Q129.630
G91 (relative C turn)
G1 C360.000 F2100.0
G90 (absolute XYZBC)
M68 E2 Q106.296
M68 E2 Q0.000
G4 P0.030
M68 E0 Q0.000
G0 Z12.000
(ROTARY_C_RING L2 RING=9/10 R=8.000 X=108.000 Z=5.000 Cfeed=2100.0deg/min linearF=293.2mm/min)
G0 Z12.000
G0 X108.000 Y50.000
G1 Z5.000 F240.0
M68 E0 Q12.733
G4 P0.030
M68 E2 Q70.864
G4 P0.020
M68 E2 Q86.420
G91 (relative C turn)
G1 C360.000 F2100.0
G90 (absolute XYZBC)
M68 E2 Q70.864
M68 E2 Q0.000
G4 P0.030
M68 E0 Q0.000
G0 Z12.000
(ROTARY_C_RING L2 RING=10/10 R=4.000 X=104.000 Z=5.000 Cfeed=2100.0deg/min linearF=146.6mm/min)
G0 Z12.000
G0 X104.000 Y50.000
G1 Z5.000 F240.0
M68 E0 Q6.367
G4 P0.030
M68 E2 Q35.432
G4 P0.020
M68 E2 Q43.210
G91 (relative C turn)
G1 C360.000 F2100.0
G90 (absolute XYZBC)
M68 E2 Q35.432
M68 E2 Q0.000
G4 P0.030
M68 E0 Q0.000
G0 Z12.000
G4 P0.129 (layer thermal stabilization)
(--- LAYER 3/3 Z=10.000 STL_ROTARY_C rings=10 outerR=40.000 innerR=0.000 ---)
(ROTARY_C_RING L3 RING=1/10 R=40.000 X=140.000 Z=10.000 Cfeed=945.4deg/min linearF=660.0mm/min)
G0 Z17.000
G0 X140.000 Y50.000
G1 Z10.000 F240.0
M68 E0 Q28.356
G4 P0.030
M68 E2 Q159.509
G4 P0.020
M68 E2 Q194.523
G91 (relative C turn)
G1 C360.000 F945.4
G90 (absolute XYZBC)
M68 E2 Q159.509
M68 E2 Q0.000
G4 P0.030
M68 E0 Q0.000
G0 Z17.000
(ROTARY_C_RING L3 RING=2/10 R=36.000 X=136.000 Z=10.000 Cfeed=1050.4deg/min linearF=660.0mm/min)
G0 Z17.000
G0 X136.000 Y50.000
G1 Z10.000 F240.0
M68 E0 Q28.356
G4 P0.030
M68 E2 Q159.509
G4 P0.020
M68 E2 Q194.523
G91 (relative C turn)
G1 C360.000 F1050.4
G90 (absolute XYZBC)
M68 E2 Q159.509
M68 E2 Q0.000
G4 P0.030
M68 E0 Q0.000
G0 Z17.000
(ROTARY_C_RING L3 RING=3/10 R=32.000 X=132.000 Z=10.000 Cfeed=1181.7deg/min linearF=660.0mm/min)
G0 Z17.000
G0 X132.000 Y50.000
G1 Z10.000 F240.0
M68 E0 Q28.356
G4 P0.030
M68 E2 Q159.509
G4 P0.020
M68 E2 Q194.523
G91 (relative C turn)
G1 C360.000 F1181.7
G90 (absolute XYZBC)
M68 E2 Q159.509
M68 E2 Q0.000
G4 P0.030
M68 E0 Q0.000
G0 Z17.000
(ROTARY_C_RING L3 RING=4/10 R=28.000 X=128.000 Z=10.000 Cfeed=1350.5deg/min linearF=660.0mm/min)
G0 Z17.000
G0 X128.000 Y50.000
G1 Z10.000 F240.0
M68 E0 Q28.356
G4 P0.030
M68 E2 Q159.509
G4 P0.020
M68 E2 Q194.523
G91 (relative C turn)
G1 C360.000 F1350.5
G90 (absolute XYZBC)
M68 E2 Q159.509
M68 E2 Q0.000
G4 P0.030
M68 E0 Q0.000
G0 Z17.000
(ROTARY_C_RING L3 RING=5/10 R=24.000 X=124.000 Z=10.000 Cfeed=1575.6deg/min linearF=660.0mm/min)
G0 Z17.000
G0 X124.000 Y50.000
G1 Z10.000 F240.0
M68 E0 Q28.356
G4 P0.030
M68 E2 Q159.509
G4 P0.020
M68 E2 Q194.523
G91 (relative C turn)
G1 C360.000 F1575.6
G90 (absolute XYZBC)
M68 E2 Q159.509
M68 E2 Q0.000
G4 P0.030
M68 E0 Q0.000
G0 Z17.000
(ROTARY_C_RING L3 RING=6/10 R=20.000 X=120.000 Z=10.000 Cfeed=1890.8deg/min linearF=660.0mm/min)
G0 Z17.000
G0 X120.000 Y50.000
G1 Z10.000 F240.0
M68 E0 Q28.356
G4 P0.030
M68 E2 Q159.509
G4 P0.020
M68 E2 Q194.523
G91 (relative C turn)
G1 C360.000 F1890.8
G90 (absolute XYZBC)
M68 E2 Q159.509
M68 E2 Q0.000
G4 P0.030
M68 E0 Q0.000
G0 Z17.000
(ROTARY_C_RING L3 RING=7/10 R=16.000 X=116.000 Z=10.000 Cfeed=2100.0deg/min linearF=586.4mm/min)
G0 Z17.000
G0 X116.000 Y50.000
G1 Z10.000 F240.0
M68 E0 Q25.195
G4 P0.030
M68 E2 Q141.728
G4 P0.020
M68 E2 Q172.840
G91 (relative C turn)
G1 C360.000 F2100.0
G90 (absolute XYZBC)
M68 E2 Q141.728
M68 E2 Q0.000
G4 P0.030
M68 E0 Q0.000
G0 Z17.000
(ROTARY_C_RING L3 RING=8/10 R=12.000 X=112.000 Z=10.000 Cfeed=2100.0deg/min linearF=439.8mm/min)
G0 Z17.000
G0 X112.000 Y50.000
G1 Z10.000 F240.0
M68 E0 Q18.896
G4 P0.030
M68 E2 Q106.296
G4 P0.020
M68 E2 Q129.630
G91 (relative C turn)
G1 C360.000 F2100.0
G90 (absolute XYZBC)
M68 E2 Q106.296
M68 E2 Q0.000
G4 P0.030
M68 E0 Q0.000
G0 Z17.000
(ROTARY_C_RING L3 RING=9/10 R=8.000 X=108.000 Z=10.000 Cfeed=2100.0deg/min linearF=293.2mm/min)
G0 Z17.000
G0 X108.000 Y50.000
G1 Z10.000 F240.0
M68 E0 Q12.597
G4 P0.030
M68 E2 Q70.864
G4 P0.020
M68 E2 Q86.420
G91 (relative C turn)
G1 C360.000 F2100.0
G90 (absolute XYZBC)
M68 E2 Q70.864
M68 E2 Q0.000
G4 P0.030
M68 E0 Q0.000
G0 Z17.000
(ROTARY_C_RING L3 RING=10/10 R=4.000 X=104.000 Z=10.000 Cfeed=2100.0deg/min linearF=146.6mm/min)
G0 Z17.000
G0 X104.000 Y50.000
G1 Z10.000 F240.0
M68 E0 Q6.299
G4 P0.030
M68 E2 Q35.432
G4 P0.020
M68 E2 Q43.210
G91 (relative C turn)
G1 C360.000 F2100.0
G90 (absolute XYZBC)
M68 E2 Q35.432
M68 E2 Q0.000
G4 P0.030
M68 E0 Q0.000
G0 Z17.000
G4 P0.158 (layer thermal stabilization)
(--- FINISH ---)
M68 E2 Q0.000
M68 E0 Q0.000
G0 Z110.000
M30
