(Generated by EBAM G-code Studio v4.2.9.1)
(Machine: Bormash EBAM)
(Units: mm, absolute coordinates)
(Model size X=20.000 Y=100.000 Z=2.000; source=2D contour)
(WARNING: calculated process only; verify with dry run and short test)
G21 (mm)
G90 (absolute XYZ)
G94 (feed per minute)
G64 P0.080
M429 (identity kinematics, if available)
M68 E0 Q0.000 (beam current OFF)
M68 E2 Q0.000 (wire feed OFF)
M68 E1 Q1030.000 (focus)
G0 Z7.000
(--- LAYER 1/2 Z=0.000 I=28.528 F=650.0mm/min WIRE=23.947mm/s HATCH=3 CONTOUR=0 ---)
(--- CONTINUOUS HATCH PASS L1: 3 lines, beam stays ON ---)
G0 Z7.000
G0 X4.950 Y99.200
G1 Z0.000 F240.0
M68 E0 Q28.528
G4 P0.030
(HATCH CONT L1 X4.950 Y99.200 -> X4.950 Y0.800)
M68 E2 Q18.458
G4 P0.020
G1 X4.950 Y97.200 F650.0
M68 E2 Q22.510
G1 X4.950 Y2.600 F650.0
M68 E2 Q18.458
G1 X4.950 Y0.800 F650.0
M68 E2 Q0.000
G1 X9.950 Y0.800 F845.0
(HATCH CONT L1 X9.950 Y0.800 -> X9.950 Y99.200)
M68 E2 Q19.636
G4 P0.020
G1 X9.950 Y2.800 F650.0
M68 E2 Q23.947
G1 X9.950 Y97.400 F650.0
M68 E2 Q19.636
G1 X9.950 Y99.200 F650.0
M68 E2 Q0.000
G1 X14.950 Y99.200 F845.0
(HATCH CONT L1 X14.950 Y99.200 -> X14.950 Y0.800)
M68 E2 Q18.458
G4 P0.020
G1 X14.950 Y97.200 F650.0
M68 E2 Q22.510
G1 X14.950 Y2.600 F650.0
M68 E2 Q18.458
G1 X14.950 Y0.800 F650.0
M68 E2 Q0.000
G4 P0.030
M68 E0 Q0.000
G0 Z7.000
G4 P0.100 (layer thermal stabilization)
(--- LAYER 2/2 Z=0.500 I=28.262 F=665.0mm/min WIRE=24.500mm/s HATCH=4 CONTOUR=0 ---)
(--- CONTINUOUS HATCH PASS L2: 4 lines, beam stays ON ---)
G0 Z7.500
G0 X1.650 Y99.200
G1 Z0.500 F240.0
M68 E0 Q28.262
G4 P0.030
(HATCH CONT L2 X1.650 Y99.200 -> X1.650 Y0.800)
M68 E2 Q18.533
G4 P0.020
G1 X1.650 Y97.200 F665.0
M68 E2 Q22.601
G1 X1.650 Y2.600 F665.0
M68 E2 Q18.533
G1 X1.650 Y0.800 F665.0
M68 E2 Q0.000
G1 X6.650 Y0.800 F864.5
(HATCH CONT L2 X6.650 Y0.800 -> X6.650 Y99.200)
M68 E2 Q20.090
G4 P0.020
G1 X6.650 Y2.800 F665.0
M68 E2 Q24.500
G1 X6.650 Y97.400 F665.0
M68 E2 Q20.090
G1 X6.650 Y99.200 F665.0
M68 E2 Q0.000
G1 X11.650 Y99.200 F864.5
(HATCH CONT L2 X11.650 Y99.200 -> X11.650 Y0.800)
M68 E2 Q19.286
G4 P0.020
G1 X11.650 Y97.200 F665.0
M68 E2 Q23.520
G1 X11.650 Y2.600 F665.0
M68 E2 Q19.286
G1 X11.650 Y0.800 F665.0
M68 E2 Q0.000
G1 X16.650 Y0.800 F864.5
(HATCH CONT L2 X16.650 Y0.800 -> X16.650 Y99.200)
M68 E2 Q20.090
G4 P0.020
G1 X16.650 Y2.800 F665.0
M68 E2 Q24.500
G1 X16.650 Y97.400 F665.0
M68 E2 Q20.090
G1 X16.650 Y99.200 F665.0
M68 E2 Q0.000
G4 P0.030
M68 E0 Q0.000
G0 Z7.500
G4 P0.188 (layer thermal stabilization)
(--- FINISH ---)
M68 E2 Q0.000
M68 E0 Q0.000
G0 Z110.000
M30
