(Generated by EBAM G-code Studio v4.2.9.10)
(Machine: Bormash EBAM)
(Units: mm, absolute coordinates)
(Model size X=83.000 Y=83.000 Z=8.000; source=rotational_vessel)
(WARNING: calculated process only; verify with dry run and short test)
G21 (mm)
G90 (absolute XYZ)
G94 (feed per minute)
G64 P0.080 Q0.000 (path blending; Q0 disables naive-CAM collapse)
M429 (identity kinematics, if available)
M68 E0 Q0.000 (beam current OFF; immediate safe state)
M68 E2 Q0.000 (wire feed OFF; immediate safe state)
M68 E1 Q1030.000 (focus)
(EXTERNAL_OVERRIDES: this program does not enable, disable or reset operator overrides)
(OPERATOR_NOTE: for calibrated comparison keep external WIRE override at 100%; adjustment remains available and machine-specific)
G0 Z0.000
(ROTATIONAL_SPECIAL_PATH: rotary_c_fixed_z_no_pause; radial_step=1.000 mm; one C ring per layer; continuous E0/E2)
(NO_PAUSE_MODE: C360 at fixed Z, then C17.000 with Z+0.500; no E0/E2 off inside process)
(ROTARY_C_LIMITS: max_C_feed=10000.0 deg/min; min_radius_warning=18.000 mm)
(WIRE_FEED_MODE: auto; manual=0.000 bottom/top=0.000/0.000 mm/s)
G0 B0.000
G0 C0.000
G0 X39.000 Y0.000
G1 Z0.000 F240.0
(ANALOG_OUTPUT_MODE: requested=m67_synchronized; effective=M67; HAL_M67_confirmed=True)
M67 E0 Q22.000 (beam current ON once; representative profile value)
M67 E2 Q4.145 (wire feed ON once; no off between rings)
G91 (continuous relative C/Z block sequence)
(START_RADIUS R=39.000 X=39.000 Z=0.000)
(FIXED_Z_NO_PAUSE_RING L1/16 Z=0.000 R=39.000 linearF=450.0mm/min Cfeed=661.1deg/min E0cmd=22.000mA E2cmd=4.145mm/s)
G1 C360.000 F661.1
G1 C17.000 Z0.500 F661.1 (no-pause C/Z transition to next layer)
(FIXED_Z_NO_PAUSE_RING L2/16 Z=0.500 R=39.000 linearF=450.0mm/min Cfeed=661.1deg/min E0cmd=22.000mA E2cmd=4.145mm/s)
G1 C360.000 F661.1
G1 C17.000 Z0.500 F661.1 (no-pause C/Z transition to next layer)
(FIXED_Z_NO_PAUSE_RING L3/16 Z=1.000 R=39.000 linearF=450.0mm/min Cfeed=661.1deg/min E0cmd=22.000mA E2cmd=4.145mm/s)
G1 C360.000 F661.1
G1 C17.000 Z0.500 F661.1 (no-pause C/Z transition to next layer)
(FIXED_Z_NO_PAUSE_RING L4/16 Z=1.500 R=39.000 linearF=450.0mm/min Cfeed=661.1deg/min E0cmd=22.000mA E2cmd=4.145mm/s)
G1 C360.000 F661.1
G1 C17.000 Z0.500 F661.1 (no-pause C/Z transition to next layer)
(FIXED_Z_NO_PAUSE_RING L5/16 Z=2.000 R=39.000 linearF=450.0mm/min Cfeed=661.1deg/min E0cmd=22.000mA E2cmd=4.145mm/s)
G1 C360.000 F661.1
G1 C17.000 Z0.500 F661.1 (no-pause C/Z transition to next layer)
(FIXED_Z_NO_PAUSE_RING L6/16 Z=2.500 R=39.000 linearF=450.0mm/min Cfeed=661.1deg/min E0cmd=22.000mA E2cmd=4.145mm/s)
G1 C360.000 F661.1
G1 C17.000 Z0.500 F661.1 (no-pause C/Z transition to next layer)
(FIXED_Z_NO_PAUSE_RING L7/16 Z=3.000 R=39.000 linearF=450.0mm/min Cfeed=661.1deg/min E0cmd=22.000mA E2cmd=4.145mm/s)
G1 C360.000 F661.1
G1 C17.000 Z0.500 F661.1 (no-pause C/Z transition to next layer)
(FIXED_Z_NO_PAUSE_RING L8/16 Z=3.500 R=39.000 linearF=450.0mm/min Cfeed=661.1deg/min E0cmd=22.000mA E2cmd=4.145mm/s)
G1 C360.000 F661.1
G1 C17.000 Z0.500 F661.1 (no-pause C/Z transition to next layer)
(FIXED_Z_NO_PAUSE_RING L9/16 Z=4.000 R=39.000 linearF=450.0mm/min Cfeed=661.1deg/min E0cmd=22.000mA E2cmd=4.145mm/s)
G1 C360.000 F661.1
G1 C17.000 Z0.500 F661.1 (no-pause C/Z transition to next layer)
(FIXED_Z_NO_PAUSE_RING L10/16 Z=4.500 R=39.000 linearF=450.0mm/min Cfeed=661.1deg/min E0cmd=22.000mA E2cmd=4.145mm/s)
G1 C360.000 F661.1
G1 C17.000 Z0.500 F661.1 (no-pause C/Z transition to next layer)
(FIXED_Z_NO_PAUSE_RING L11/16 Z=5.000 R=39.000 linearF=450.0mm/min Cfeed=661.1deg/min E0cmd=22.000mA E2cmd=4.145mm/s)
G1 C360.000 F661.1
G1 C17.000 Z0.500 F661.1 (no-pause C/Z transition to next layer)
(FIXED_Z_NO_PAUSE_RING L12/16 Z=5.500 R=39.000 linearF=450.0mm/min Cfeed=661.1deg/min E0cmd=22.000mA E2cmd=4.145mm/s)
G1 C360.000 F661.1
G1 C17.000 Z0.500 F661.1 (no-pause C/Z transition to next layer)
(FIXED_Z_NO_PAUSE_RING L13/16 Z=6.000 R=39.000 linearF=450.0mm/min Cfeed=661.1deg/min E0cmd=22.000mA E2cmd=4.145mm/s)
G1 C360.000 F661.1
G1 C17.000 Z0.500 F661.1 (no-pause C/Z transition to next layer)
(FIXED_Z_NO_PAUSE_RING L14/16 Z=6.500 R=39.000 linearF=450.0mm/min Cfeed=661.1deg/min E0cmd=22.000mA E2cmd=4.145mm/s)
G1 C360.000 F661.1
G1 C17.000 Z0.500 F661.1 (no-pause C/Z transition to next layer)
(FIXED_Z_NO_PAUSE_RING L15/16 Z=7.000 R=39.000 linearF=450.0mm/min Cfeed=661.1deg/min E0cmd=22.000mA E2cmd=4.145mm/s)
G1 C360.000 F661.1
G1 C17.000 Z0.500 F661.1 (no-pause C/Z transition to next layer)
(FIXED_Z_NO_PAUSE_RING L16/16 Z=7.500 R=39.000 linearF=450.0mm/min Cfeed=661.1deg/min E0cmd=22.000mA E2cmd=4.145mm/s)
G1 C360.000 F661.1
G90 (absolute XYZBC)
M68 E2 Q0.000 (wire feed OFF at final end only)
M68 E0 Q0.000 (beam current OFF at final end only)
(--- FINISH ---)
M68 E2 Q0.000
M68 E0 Q0.000
G0 Z110.000
M30
