(Generated by EBAM G-code Studio v4.2.9.1)
(Machine: Bormash EBAM)
(Units: mm, absolute coordinates)
(Model size X=124.000 Y=124.000 Z=20.000; source=rotational_vessel)
(WARNING: calculated process only; verify with dry run and short test)
G21 (mm)
G90 (absolute XYZ)
G94 (feed per minute)
G64 P0.080
M429 (identity kinematics, if available)
M68 E0 Q0.000 (beam current OFF)
M68 E2 Q0.000 (wire feed OFF)
M68 E1 Q1030.000 (focus)
G0 Z7.000
(ROTATIONAL_SPECIAL_PATH: rotary_c_rings; radial_step=2.500 mm; B=0.000 deg; C-axis table rings)
(STRATEGY_TIME_CURRENT_MODE: M429 identity; X = C_center_X + radius; Z = layer height; C uses relative 360 degree turns)
(ROTARY_C_LIMITS: max_C_feed=2100.0 deg/min; min_radius_warning=18.000 mm)
G0 B0.000
G0 C0.000
(--- LAYER 1/3 Z=0.000 ROTARY_C rings=9 ---)
(ROTARY_C_RING L1 RING=1/9 R=20.932 X=120.932 Z=0.000 Cfeed=1779.2deg/min linearF=650.0mm/min)
G0 Z7.000
G0 X120.932 Y50.000
G1 Z0.000 F240.0
M68 E0 Q28.528
G4 P0.030
M68 E2 Q39.273
G4 P0.020
M68 E2 Q47.894
G91 (relative C turn)
G1 C360.000 F1779.2
G90 (absolute XYZBC)
M68 E2 Q39.273
M68 E2 Q0.000
G4 P0.030
M68 E0 Q0.000
G0 Z7.000
(ROTARY_C_RING L1 RING=2/9 R=18.432 X=118.432 Z=0.000 Cfeed=2020.6deg/min linearF=650.0mm/min)
G0 Z7.000
G0 X118.432 Y50.000
G1 Z0.000 F240.0
M68 E0 Q28.528
G4 P0.030
M68 E2 Q39.273
G4 P0.020
M68 E2 Q47.894
G91 (relative C turn)
G1 C360.000 F2020.6
G90 (absolute XYZBC)
M68 E2 Q39.273
M68 E2 Q0.000
G4 P0.030
M68 E0 Q0.000
G0 Z7.000
(ROTARY_C_RING L1 RING=3/9 R=15.932 X=115.932 Z=0.000 Cfeed=2100.0deg/min linearF=583.9mm/min)
G0 Z7.000
G0 X115.932 Y50.000
G1 Z0.000 F240.0
M68 E0 Q25.628
G4 P0.030
M68 E2 Q35.281
G4 P0.020
M68 E2 Q43.025
G91 (relative C turn)
G1 C360.000 F2100.0
G90 (absolute XYZBC)
M68 E2 Q35.281
M68 E2 Q0.000
G4 P0.030
M68 E0 Q0.000
G0 Z7.000
(ROTARY_C_RING L1 RING=4/9 R=13.432 X=113.432 Z=0.000 Cfeed=2100.0deg/min linearF=492.3mm/min)
G0 Z7.000
G0 X113.432 Y50.000
G1 Z0.000 F240.0
M68 E0 Q21.606
G4 P0.030
M68 E2 Q29.744
G4 P0.020
M68 E2 Q36.274
G91 (relative C turn)
G1 C360.000 F2100.0
G90 (absolute XYZBC)
M68 E2 Q29.744
M68 E2 Q0.000
G4 P0.030
M68 E0 Q0.000
G0 Z7.000
(ROTARY_C_RING L1 RING=5/9 R=10.932 X=110.932 Z=0.000 Cfeed=2100.0deg/min linearF=400.7mm/min)
G0 Z7.000
G0 X110.932 Y50.000
G1 Z0.000 F240.0
M68 E0 Q17.585
G4 P0.030
M68 E2 Q24.208
G4 P0.020
M68 E2 Q29.522
G91 (relative C turn)
G1 C360.000 F2100.0
G90 (absolute XYZBC)
M68 E2 Q24.208
M68 E2 Q0.000
G4 P0.030
M68 E0 Q0.000
G0 Z7.000
(ROTARY_C_RING L1 RING=6/9 R=8.432 X=108.432 Z=0.000 Cfeed=2100.0deg/min linearF=309.0mm/min)
G0 Z7.000
G0 X108.432 Y50.000
G1 Z0.000 F240.0
M68 E0 Q13.563
G4 P0.030
M68 E2 Q18.672
G4 P0.020
M68 E2 Q22.771
G91 (relative C turn)
G1 C360.000 F2100.0
G90 (absolute XYZBC)
M68 E2 Q18.672
M68 E2 Q0.000
G4 P0.030
M68 E0 Q0.000
G0 Z7.000
(ROTARY_C_RING L1 RING=7/9 R=5.932 X=105.932 Z=0.000 Cfeed=2100.0deg/min linearF=217.4mm/min)
G0 Z7.000
G0 X105.932 Y50.000
G1 Z0.000 F240.0
M68 E0 Q9.542
G4 P0.030
M68 E2 Q13.136
G4 P0.020
M68 E2 Q16.019
G91 (relative C turn)
G1 C360.000 F2100.0
G90 (absolute XYZBC)
M68 E2 Q13.136
M68 E2 Q0.000
G4 P0.030
M68 E0 Q0.000
G0 Z7.000
(ROTARY_C_RING L1 RING=8/9 R=3.432 X=103.432 Z=0.000 Cfeed=2100.0deg/min linearF=125.8mm/min)
G0 Z7.000
G0 X103.432 Y50.000
G1 Z0.000 F240.0
M68 E0 Q5.520
G4 P0.030
M68 E2 Q7.599
G4 P0.020
M68 E2 Q9.268
G91 (relative C turn)
G1 C360.000 F2100.0
G90 (absolute XYZBC)
M68 E2 Q7.599
M68 E2 Q0.000
G4 P0.030
M68 E0 Q0.000
G0 Z7.000
(ROTARY_C_RING L1 RING=9/9 R=0.932 X=100.932 Z=0.000 Cfeed=2100.0deg/min linearF=34.1mm/min)
G0 Z7.000
G0 X100.932 Y50.000
G1 Z0.000 F240.0
M68 E0 Q1.499
G4 P0.030
M68 E2 Q2.063
G4 P0.020
M68 E2 Q2.516
G91 (relative C turn)
G1 C360.000 F2100.0
G90 (absolute XYZBC)
M68 E2 Q2.063
M68 E2 Q0.000
G4 P0.030
M68 E0 Q0.000
G0 Z7.000
G4 P0.100 (layer thermal stabilization)
(--- LAYER 2/3 Z=2.000 ROTARY_C rings=11 ---)
(ROTARY_C_RING L2 RING=1/11 R=27.303 X=127.303 Z=2.000 Cfeed=1376.6deg/min linearF=656.0mm/min)
G0 Z9.000
G0 X127.303 Y50.000
G1 Z2.000 F240.0
M68 E0 Q28.427
G4 P0.030
M68 E2 Q39.635
G4 P0.020
M68 E2 Q48.336
G91 (relative C turn)
G1 C360.000 F1376.6
G90 (absolute XYZBC)
M68 E2 Q39.635
M68 E2 Q0.000
G4 P0.030
M68 E0 Q0.000
G0 Z9.000
(ROTARY_C_RING L2 RING=2/11 R=24.803 X=124.803 Z=2.000 Cfeed=1515.4deg/min linearF=656.0mm/min)
G0 Z9.000
G0 X124.803 Y50.000
G1 Z2.000 F240.0
M68 E0 Q28.427
G4 P0.030
M68 E2 Q39.635
G4 P0.020
M68 E2 Q48.336
G91 (relative C turn)
G1 C360.000 F1515.4
G90 (absolute XYZBC)
M68 E2 Q39.635
M68 E2 Q0.000
G4 P0.030
M68 E0 Q0.000
G0 Z9.000
(ROTARY_C_RING L2 RING=3/11 R=22.303 X=122.303 Z=2.000 Cfeed=1685.3deg/min linearF=656.0mm/min)
G0 Z9.000
G0 X122.303 Y50.000
G1 Z2.000 F240.0
M68 E0 Q28.427
G4 P0.030
M68 E2 Q39.635
G4 P0.020
M68 E2 Q48.336
G91 (relative C turn)
G1 C360.000 F1685.3
G90 (absolute XYZBC)
M68 E2 Q39.635
M68 E2 Q0.000
G4 P0.030
M68 E0 Q0.000
G0 Z9.000
(ROTARY_C_RING L2 RING=4/11 R=19.803 X=119.803 Z=2.000 Cfeed=1898.0deg/min linearF=656.0mm/min)
G0 Z9.000
G0 X119.803 Y50.000
G1 Z2.000 F240.0
M68 E0 Q28.427
G4 P0.030
M68 E2 Q39.635
G4 P0.020
M68 E2 Q48.336
G91 (relative C turn)
G1 C360.000 F1898.0
G90 (absolute XYZBC)
M68 E2 Q39.635
M68 E2 Q0.000
G4 P0.030
M68 E0 Q0.000
G0 Z9.000
(ROTARY_C_RING L2 RING=5/11 R=17.303 X=117.303 Z=2.000 Cfeed=2100.0deg/min linearF=634.2mm/min)
G0 Z9.000
G0 X117.303 Y50.000
G1 Z2.000 F240.0
M68 E0 Q27.481
G4 P0.030
M68 E2 Q38.317
G4 P0.020
M68 E2 Q46.728
G91 (relative C turn)
G1 C360.000 F2100.0
G90 (absolute XYZBC)
M68 E2 Q38.317
M68 E2 Q0.000
G4 P0.030
M68 E0 Q0.000
G0 Z9.000
(ROTARY_C_RING L2 RING=6/11 R=14.803 X=114.803 Z=2.000 Cfeed=2100.0deg/min linearF=542.6mm/min)
G0 Z9.000
G0 X114.803 Y50.000
G1 Z2.000 F240.0
M68 E0 Q23.511
G4 P0.030
M68 E2 Q32.781
G4 P0.020
M68 E2 Q39.977
G91 (relative C turn)
G1 C360.000 F2100.0
G90 (absolute XYZBC)
M68 E2 Q32.781
M68 E2 Q0.000
G4 P0.030
M68 E0 Q0.000
G0 Z9.000
(ROTARY_C_RING L2 RING=7/11 R=12.303 X=112.303 Z=2.000 Cfeed=2100.0deg/min linearF=450.9mm/min)
G0 Z9.000
G0 X112.303 Y50.000
G1 Z2.000 F240.0
M68 E0 Q19.540
G4 P0.030
M68 E2 Q27.245
G4 P0.020
M68 E2 Q33.225
G91 (relative C turn)
G1 C360.000 F2100.0
G90 (absolute XYZBC)
M68 E2 Q27.245
M68 E2 Q0.000
G4 P0.030
M68 E0 Q0.000
G0 Z9.000
(ROTARY_C_RING L2 RING=8/11 R=9.803 X=109.803 Z=2.000 Cfeed=2100.0deg/min linearF=359.3mm/min)
G0 Z9.000
G0 X109.803 Y50.000
G1 Z2.000 F240.0
M68 E0 Q15.569
G4 P0.030
M68 E2 Q21.708
G4 P0.020
M68 E2 Q26.474
G91 (relative C turn)
G1 C360.000 F2100.0
G90 (absolute XYZBC)
M68 E2 Q21.708
M68 E2 Q0.000
G4 P0.030
M68 E0 Q0.000
G0 Z9.000
(ROTARY_C_RING L2 RING=9/11 R=7.303 X=107.303 Z=2.000 Cfeed=2100.0deg/min linearF=267.7mm/min)
G0 Z9.000
G0 X107.303 Y50.000
G1 Z2.000 F240.0
M68 E0 Q11.599
G4 P0.030
M68 E2 Q16.172
G4 P0.020
M68 E2 Q19.722
G91 (relative C turn)
G1 C360.000 F2100.0
G90 (absolute XYZBC)
M68 E2 Q16.172
M68 E2 Q0.000
G4 P0.030
M68 E0 Q0.000
G0 Z9.000
(ROTARY_C_RING L2 RING=10/11 R=4.803 X=104.803 Z=2.000 Cfeed=2100.0deg/min linearF=176.0mm/min)
G0 Z9.000
G0 X104.803 Y50.000
G1 Z2.000 F240.0
M68 E0 Q7.628
G4 P0.030
M68 E2 Q10.636
G4 P0.020
M68 E2 Q12.970
G91 (relative C turn)
G1 C360.000 F2100.0
G90 (absolute XYZBC)
M68 E2 Q10.636
M68 E2 Q0.000
G4 P0.030
M68 E0 Q0.000
G0 Z9.000
(ROTARY_C_RING L2 RING=11/11 R=2.303 X=102.303 Z=2.000 Cfeed=2100.0deg/min linearF=84.4mm/min)
G0 Z9.000
G0 X102.303 Y50.000
G1 Z2.000 F240.0
M68 E0 Q3.657
G4 P0.030
M68 E2 Q5.100
G4 P0.020
M68 E2 Q6.219
G91 (relative C turn)
G1 C360.000 F2100.0
G90 (absolute XYZBC)
M68 E2 Q5.100
M68 E2 Q0.000
G4 P0.030
M68 E0 Q0.000
G0 Z9.000
G4 P0.135 (layer thermal stabilization)
(--- LAYER 3/3 Z=4.000 ROTARY_C rings=15 ---)
(ROTARY_C_RING L3 RING=1/15 R=37.280 X=137.280 Z=4.000 Cfeed=1017.4deg/min linearF=662.0mm/min)
G0 Z11.000
G0 X137.280 Y50.000
G1 Z4.000 F240.0
M68 E0 Q28.319
G4 P0.030
M68 E2 Q39.998
G4 P0.020
M68 E2 Q48.778
G91 (relative C turn)
G1 C360.000 F1017.4
G90 (absolute XYZBC)
M68 E2 Q39.998
M68 E2 Q0.000
G4 P0.030
M68 E0 Q0.000
G0 Z11.000
(ROTARY_C_RING L3 RING=2/15 R=34.780 X=134.780 Z=4.000 Cfeed=1090.6deg/min linearF=662.0mm/min)
G0 Z11.000
G0 X134.780 Y50.000
G1 Z4.000 F240.0
M68 E0 Q28.319
G4 P0.030
M68 E2 Q39.998
G4 P0.020
M68 E2 Q48.778
G91 (relative C turn)
G1 C360.000 F1090.6
G90 (absolute XYZBC)
M68 E2 Q39.998
M68 E2 Q0.000
G4 P0.030
M68 E0 Q0.000
G0 Z11.000
(ROTARY_C_RING L3 RING=3/15 R=32.280 X=132.280 Z=4.000 Cfeed=1175.0deg/min linearF=662.0mm/min)
G0 Z11.000
G0 X132.280 Y50.000
G1 Z4.000 F240.0
M68 E0 Q28.319
G4 P0.030
M68 E2 Q39.998
G4 P0.020
M68 E2 Q48.778
G91 (relative C turn)
G1 C360.000 F1175.0
G90 (absolute XYZBC)
M68 E2 Q39.998
M68 E2 Q0.000
G4 P0.030
M68 E0 Q0.000
G0 Z11.000
(ROTARY_C_RING L3 RING=4/15 R=29.780 X=129.780 Z=4.000 Cfeed=1273.7deg/min linearF=662.0mm/min)
G0 Z11.000
G0 X129.780 Y50.000
G1 Z4.000 F240.0
M68 E0 Q28.319
G4 P0.030
M68 E2 Q39.998
G4 P0.020
M68 E2 Q48.778
G91 (relative C turn)
G1 C360.000 F1273.7
G90 (absolute XYZBC)
M68 E2 Q39.998
M68 E2 Q0.000
G4 P0.030
M68 E0 Q0.000
G0 Z11.000
(ROTARY_C_RING L3 RING=5/15 R=27.280 X=127.280 Z=4.000 Cfeed=1390.4deg/min linearF=662.0mm/min)
G0 Z11.000
G0 X127.280 Y50.000
G1 Z4.000 F240.0
M68 E0 Q28.319
G4 P0.030
M68 E2 Q39.998
G4 P0.020
M68 E2 Q48.778
G91 (relative C turn)
G1 C360.000 F1390.4
G90 (absolute XYZBC)
M68 E2 Q39.998
M68 E2 Q0.000
G4 P0.030
M68 E0 Q0.000
G0 Z11.000
(ROTARY_C_RING L3 RING=6/15 R=24.780 X=124.780 Z=4.000 Cfeed=1530.6deg/min linearF=662.0mm/min)
G0 Z11.000
G0 X124.780 Y50.000
G1 Z4.000 F240.0
M68 E0 Q28.319
G4 P0.030
M68 E2 Q39.998
G4 P0.020
M68 E2 Q48.778
G91 (relative C turn)
G1 C360.000 F1530.6
G90 (absolute XYZBC)
M68 E2 Q39.998
M68 E2 Q0.000
G4 P0.030
M68 E0 Q0.000
G0 Z11.000
(ROTARY_C_RING L3 RING=7/15 R=22.280 X=122.280 Z=4.000 Cfeed=1702.4deg/min linearF=662.0mm/min)
G0 Z11.000
G0 X122.280 Y50.000
G1 Z4.000 F240.0
M68 E0 Q28.319
G4 P0.030
M68 E2 Q39.998
G4 P0.020
M68 E2 Q48.778
G91 (relative C turn)
G1 C360.000 F1702.4
G90 (absolute XYZBC)
M68 E2 Q39.998
M68 E2 Q0.000
G4 P0.030
M68 E0 Q0.000
G0 Z11.000
(ROTARY_C_RING L3 RING=8/15 R=19.780 X=119.780 Z=4.000 Cfeed=1917.6deg/min linearF=662.0mm/min)
G0 Z11.000
G0 X119.780 Y50.000
G1 Z4.000 F240.0
M68 E0 Q28.319
G4 P0.030
M68 E2 Q39.998
G4 P0.020
M68 E2 Q48.778
G91 (relative C turn)
G1 C360.000 F1917.6
G90 (absolute XYZBC)
M68 E2 Q39.998
M68 E2 Q0.000
G4 P0.030
M68 E0 Q0.000
G0 Z11.000
(ROTARY_C_RING L3 RING=9/15 R=17.280 X=117.280 Z=4.000 Cfeed=2100.0deg/min linearF=633.4mm/min)
G0 Z11.000
G0 X117.280 Y50.000
G1 Z4.000 F240.0
M68 E0 Q27.093
G4 P0.030
M68 E2 Q38.267
G4 P0.020
M68 E2 Q46.667
G91 (relative C turn)
G1 C360.000 F2100.0
G90 (absolute XYZBC)
M68 E2 Q38.267
M68 E2 Q0.000
G4 P0.030
M68 E0 Q0.000
G0 Z11.000
(ROTARY_C_RING L3 RING=10/15 R=14.780 X=114.780 Z=4.000 Cfeed=2100.0deg/min linearF=541.7mm/min)
G0 Z11.000
G0 X114.780 Y50.000
G1 Z4.000 F240.0
M68 E0 Q23.174
G4 P0.030
M68 E2 Q32.731
G4 P0.020
M68 E2 Q39.916
G91 (relative C turn)
G1 C360.000 F2100.0
G90 (absolute XYZBC)
M68 E2 Q32.731
M68 E2 Q0.000
G4 P0.030
M68 E0 Q0.000
G0 Z11.000
(ROTARY_C_RING L3 RING=11/15 R=12.280 X=112.280 Z=4.000 Cfeed=2100.0deg/min linearF=450.1mm/min)
G0 Z11.000
G0 X112.280 Y50.000
G1 Z4.000 F240.0
M68 E0 Q19.254
G4 P0.030
M68 E2 Q27.195
G4 P0.020
M68 E2 Q33.164
G91 (relative C turn)
G1 C360.000 F2100.0
G90 (absolute XYZBC)
M68 E2 Q27.195
M68 E2 Q0.000
G4 P0.030
M68 E0 Q0.000
G0 Z11.000
(ROTARY_C_RING L3 RING=12/15 R=9.780 X=109.780 Z=4.000 Cfeed=2100.0deg/min linearF=358.5mm/min)
G0 Z11.000
G0 X109.780 Y50.000
G1 Z4.000 F240.0
M68 E0 Q15.334
G4 P0.030
M68 E2 Q21.658
G4 P0.020
M68 E2 Q26.413
G91 (relative C turn)
G1 C360.000 F2100.0
G90 (absolute XYZBC)
M68 E2 Q21.658
M68 E2 Q0.000
G4 P0.030
M68 E0 Q0.000
G0 Z11.000
(ROTARY_C_RING L3 RING=13/15 R=7.280 X=107.280 Z=4.000 Cfeed=2100.0deg/min linearF=266.8mm/min)
G0 Z11.000
G0 X107.280 Y50.000
G1 Z4.000 F240.0
M68 E0 Q11.415
G4 P0.030
M68 E2 Q16.122
G4 P0.020
M68 E2 Q19.661
G91 (relative C turn)
G1 C360.000 F2100.0
G90 (absolute XYZBC)
M68 E2 Q16.122
M68 E2 Q0.000
G4 P0.030
M68 E0 Q0.000
G0 Z11.000
(ROTARY_C_RING L3 RING=14/15 R=4.780 X=104.780 Z=4.000 Cfeed=2100.0deg/min linearF=175.2mm/min)
G0 Z11.000
G0 X104.780 Y50.000
G1 Z4.000 F240.0
M68 E0 Q7.495
G4 P0.030
M68 E2 Q10.586
G4 P0.020
M68 E2 Q12.910
G91 (relative C turn)
G1 C360.000 F2100.0
G90 (absolute XYZBC)
M68 E2 Q10.586
M68 E2 Q0.000
G4 P0.030
M68 E0 Q0.000
G0 Z11.000
(ROTARY_C_RING L3 RING=15/15 R=2.280 X=102.280 Z=4.000 Cfeed=2100.0deg/min linearF=83.6mm/min)
G0 Z11.000
G0 X102.280 Y50.000
G1 Z4.000 F240.0
M68 E0 Q3.575
G4 P0.030
M68 E2 Q5.050
G4 P0.020
M68 E2 Q6.158
G91 (relative C turn)
G1 C360.000 F2100.0
G90 (absolute XYZBC)
M68 E2 Q5.050
M68 E2 Q0.000
G4 P0.030
M68 E0 Q0.000
G0 Z11.000
G4 P0.170 (layer thermal stabilization)
(--- FINISH ---)
M68 E2 Q0.000
M68 E0 Q0.000
G0 Z110.000
M30
