(Generated by EBAM G-code Studio v4.2.7)
(Machine: Bormash EBAM)
(Units: mm, absolute coordinates)
(Model size X=20.000 Y=100.000 Z=5.000; source=2D contour)
(WARNING: calculated process only; verify with dry run and short test)
G21 (mm)
G90 (absolute XYZ)
G94 (feed per minute)
G64 P0.080
M429 (identity kinematics, if available)
M68 E0 Q0.000 (beam current OFF)
M68 E2 Q0.000 (wire feed OFF)
M68 E1 Q1030.000 (focus)
G0 Z7.000
(Initial W retract calibration)
G10 L20 P0 W0
G91 (relative for W)
G1 W-0.800 F720.0
G90 (absolute XYZ)
(--- LAYER 1/2 Z=0.000 I=28.528 F=650.0mm/min WIRE=28.736mm/s HATCH=6 CONTOUR=4 ---)
G0 Z7.000
G0 X2.790 Y99.700
G1 Z0.000 F240.0
M68 E0 Q28.528
G4 P0.030
G1 X2.790 Y99.100 F650.0
G91 (relative for W)
G1 W0.800 F720.0
G90 (absolute XYZ)
M68 E2 Q22.150
G4 P0.020
G1 X2.790 Y97.100 F650.0
M68 E2 Q27.012
G1 X2.790 Y2.900 F650.0
M68 E2 Q22.150
G1 X2.790 Y1.100 F650.0
M68 E2 Q0.000
G1 X2.790 Y0.300 F650.0
M68 E0 Q0.000
G4 P0.030
G91 (relative for W)
G1 W-0.800 F720.0
G90 (absolute XYZ)
G0 Z7.000
G0 Z7.000
G0 X8.790 Y99.700
G1 Z0.000 F240.0
M68 E0 Q28.528
G4 P0.030
G1 X8.790 Y99.100 F650.0
G91 (relative for W)
G1 W0.800 F720.0
G90 (absolute XYZ)
M68 E2 Q23.564
G4 P0.020
G1 X8.790 Y97.100 F650.0
M68 E2 Q28.736
G1 X8.790 Y2.900 F650.0
M68 E2 Q23.564
G1 X8.790 Y1.100 F650.0
M68 E2 Q0.000
G1 X8.790 Y0.300 F650.0
M68 E0 Q0.000
G4 P0.030
G91 (relative for W)
G1 W-0.800 F720.0
G90 (absolute XYZ)
G0 Z7.000
G0 Z7.000
G0 X14.790 Y99.700
G1 Z0.000 F240.0
M68 E0 Q28.528
G4 P0.030
G1 X14.790 Y99.100 F650.0
G91 (relative for W)
G1 W0.800 F720.0
G90 (absolute XYZ)
M68 E2 Q22.857
G4 P0.020
G1 X14.790 Y97.100 F650.0
M68 E2 Q27.874
G1 X14.790 Y2.900 F650.0
M68 E2 Q22.857
G1 X14.790 Y1.100 F650.0
M68 E2 Q0.000
G1 X14.790 Y0.300 F650.0
M68 E0 Q0.000
G4 P0.030
G91 (relative for W)
G1 W-0.800 F720.0
G90 (absolute XYZ)
G0 Z7.000
G0 Z7.000
G0 X17.790 Y99.700
G1 Z0.000 F240.0
M68 E0 Q28.528
G4 P0.030
G1 X17.790 Y99.100 F650.0
G91 (relative for W)
G1 W0.800 F720.0
G90 (absolute XYZ)
M68 E2 Q22.150
G4 P0.020
G1 X17.790 Y97.100 F650.0
M68 E2 Q27.012
G1 X17.790 Y2.900 F650.0
M68 E2 Q22.150
G1 X17.790 Y1.100 F650.0
M68 E2 Q0.000
G1 X17.790 Y0.300 F650.0
M68 E0 Q0.000
G4 P0.030
G91 (relative for W)
G1 W-0.800 F720.0
G90 (absolute XYZ)
G0 Z7.000
G0 Z7.000
G0 X11.790 Y99.700
G1 Z0.000 F240.0
M68 E0 Q28.528
G4 P0.030
G1 X11.790 Y99.100 F650.0
G91 (relative for W)
G1 W0.800 F720.0
G90 (absolute XYZ)
M68 E2 Q23.564
G4 P0.020
G1 X11.790 Y97.100 F650.0
M68 E2 Q28.736
G1 X11.790 Y2.900 F650.0
M68 E2 Q23.564
G1 X11.790 Y1.100 F650.0
M68 E2 Q0.000
G1 X11.790 Y0.300 F650.0
M68 E0 Q0.000
G4 P0.030
G91 (relative for W)
G1 W-0.800 F720.0
G90 (absolute XYZ)
G0 Z7.000
G0 Z7.000
G0 X5.790 Y99.700
G1 Z0.000 F240.0
M68 E0 Q28.528
G4 P0.030
G1 X5.790 Y99.100 F650.0
G91 (relative for W)
G1 W0.800 F720.0
G90 (absolute XYZ)
M68 E2 Q22.857
G4 P0.020
G1 X5.790 Y97.100 F650.0
M68 E2 Q27.874
G1 X5.790 Y2.900 F650.0
M68 E2 Q22.857
G1 X5.790 Y1.100 F650.0
M68 E2 Q0.000
G1 X5.790 Y0.300 F650.0
M68 E0 Q0.000
G4 P0.030
G91 (relative for W)
G1 W-0.800 F720.0
G90 (absolute XYZ)
G0 Z7.000
G0 Z7.000
G0 X0.300 Y99.700
G1 Z0.000 F240.0
M68 E0 Q28.528
G4 P0.030
G1 X0.900 Y99.700 F572.0
G91 (relative for W)
G1 W0.800 F720.0
G90 (absolute XYZ)
M68 E2 Q16.966
G4 P0.020
G1 X2.900 Y99.700 F572.0
M68 E2 Q20.690
G1 X17.100 Y99.700 F572.0
M68 E2 Q16.966
G1 X18.900 Y99.700 F572.0
M68 E2 Q0.000
G1 X19.700 Y99.700 F572.0
M68 E0 Q0.000
G4 P0.030
G91 (relative for W)
G1 W-0.800 F720.0
G90 (absolute XYZ)
G0 Z7.000
G0 Z7.000
G0 X19.700 Y99.700
G1 Z0.000 F240.0
M68 E0 Q28.528
G4 P0.030
G1 X19.700 Y99.100 F572.0
G91 (relative for W)
G1 W0.800 F720.0
G90 (absolute XYZ)
M68 E2 Q16.966
G4 P0.020
G1 X19.700 Y97.100 F572.0
M68 E2 Q20.690
G1 X19.700 Y2.900 F572.0
M68 E2 Q16.966
G1 X19.700 Y1.100 F572.0
M68 E2 Q0.000
G1 X19.700 Y0.300 F572.0
M68 E0 Q0.000
G4 P0.030
G91 (relative for W)
G1 W-0.800 F720.0
G90 (absolute XYZ)
G0 Z7.000
G0 Z7.000
G0 X19.700 Y0.300
G1 Z0.000 F240.0
M68 E0 Q28.528
G4 P0.030
G1 X19.100 Y0.300 F572.0
G91 (relative for W)
G1 W0.800 F720.0
G90 (absolute XYZ)
M68 E2 Q16.966
G4 P0.020
G1 X17.100 Y0.300 F572.0
M68 E2 Q20.690
G1 X2.900 Y0.300 F572.0
M68 E2 Q16.966
G1 X1.100 Y0.300 F572.0
M68 E2 Q0.000
G1 X0.300 Y0.300 F572.0
M68 E0 Q0.000
G4 P0.030
G91 (relative for W)
G1 W-0.800 F720.0
G90 (absolute XYZ)
G0 Z7.000
G0 Z7.000
G0 X0.300 Y0.300
G1 Z0.000 F240.0
M68 E0 Q28.528
G4 P0.030
G1 X0.300 Y0.900 F572.0
G91 (relative for W)
G1 W0.800 F720.0
G90 (absolute XYZ)
M68 E2 Q16.966
G4 P0.020
G1 X0.300 Y2.900 F572.0
M68 E2 Q20.690
G1 X0.300 Y97.100 F572.0
M68 E2 Q16.966
G1 X0.300 Y98.900 F572.0
M68 E2 Q0.000
G1 X0.300 Y99.700 F572.0
M68 E0 Q0.000
G4 P0.030
G91 (relative for W)
G1 W-0.800 F720.0
G90 (absolute XYZ)
G0 Z7.000
G4 P0.100 (layer thermal stabilization)
(--- LAYER 2/2 Z=1.000 I=28.319 F=662.0mm/min WIRE=29.267mm/s HATCH=7 CONTOUR=4 ---)
G0 Z8.000
G0 X0.810 Y99.700
G1 Z1.000 F240.0
M68 E0 Q28.319
G4 P0.030
G1 X0.810 Y99.100 F662.0
G91 (relative for W)
G1 W0.800 F720.0
G90 (absolute XYZ)
M68 E2 Q22.223
G4 P0.020
G1 X0.810 Y97.100 F662.0
M68 E2 Q27.101
G1 X0.810 Y2.900 F662.0
M68 E2 Q22.223
G1 X0.810 Y1.100 F662.0
M68 E2 Q0.000
G1 X0.810 Y0.300 F662.0
M68 E0 Q0.000
G4 P0.030
G91 (relative for W)
G1 W-0.800 F720.0
G90 (absolute XYZ)
G0 Z8.000
G0 Z8.000
G0 X6.810 Y99.700
G1 Z1.000 F240.0
M68 E0 Q28.319
G4 P0.030
G1 X6.810 Y99.100 F662.0
G91 (relative for W)
G1 W0.800 F720.0
G90 (absolute XYZ)
M68 E2 Q23.999
G4 P0.020
G1 X6.810 Y97.100 F662.0
M68 E2 Q29.267
G1 X6.810 Y2.900 F662.0
M68 E2 Q23.999
G1 X6.810 Y1.100 F662.0
M68 E2 Q0.000
G1 X6.810 Y0.300 F662.0
M68 E0 Q0.000
G4 P0.030
G91 (relative for W)
G1 W-0.800 F720.0
G90 (absolute XYZ)
G0 Z8.000
G0 Z8.000
G0 X12.810 Y99.700
G1 Z1.000 F240.0
M68 E0 Q28.319
G4 P0.030
G1 X12.810 Y99.100 F662.0
G91 (relative for W)
G1 W0.800 F720.0
G90 (absolute XYZ)
M68 E2 Q23.999
G4 P0.020
G1 X12.810 Y97.100 F662.0
M68 E2 Q29.267
G1 X12.810 Y2.900 F662.0
M68 E2 Q23.999
G1 X12.810 Y1.100 F662.0
M68 E2 Q0.000
G1 X12.810 Y0.300 F662.0
M68 E0 Q0.000
G4 P0.030
G91 (relative for W)
G1 W-0.800 F720.0
G90 (absolute XYZ)
G0 Z8.000
G0 Z8.000
G0 X18.810 Y99.700
G1 Z1.000 F240.0
M68 E0 Q28.319
G4 P0.030
G1 X18.810 Y99.100 F662.0
G91 (relative for W)
G1 W0.800 F720.0
G90 (absolute XYZ)
M68 E2 Q22.223
G4 P0.020
G1 X18.810 Y97.100 F662.0
M68 E2 Q27.101
G1 X18.810 Y2.900 F662.0
M68 E2 Q22.223
G1 X18.810 Y1.100 F662.0
M68 E2 Q0.000
G1 X18.810 Y0.300 F662.0
M68 E0 Q0.000
G4 P0.030
G91 (relative for W)
G1 W-0.800 F720.0
G90 (absolute XYZ)
G0 Z8.000
G0 Z8.000
G0 X15.810 Y99.700
G1 Z1.000 F240.0
M68 E0 Q28.319
G4 P0.030
G1 X15.810 Y99.100 F662.0
G91 (relative for W)
G1 W0.800 F720.0
G90 (absolute XYZ)
M68 E2 Q23.087
G4 P0.020
G1 X15.810 Y97.100 F662.0
M68 E2 Q28.155
G1 X15.810 Y2.900 F662.0
M68 E2 Q23.087
G1 X15.810 Y1.100 F662.0
M68 E2 Q0.000
G1 X15.810 Y0.300 F662.0
M68 E0 Q0.000
G4 P0.030
G91 (relative for W)
G1 W-0.800 F720.0
G90 (absolute XYZ)
G0 Z8.000
G0 Z8.000
G0 X9.810 Y99.700
G1 Z1.000 F240.0
M68 E0 Q28.319
G4 P0.030
G1 X9.810 Y99.100 F662.0
G91 (relative for W)
G1 W0.800 F720.0
G90 (absolute XYZ)
M68 E2 Q23.999
G4 P0.020
G1 X9.810 Y97.100 F662.0
M68 E2 Q29.267
G1 X9.810 Y2.900 F662.0
M68 E2 Q23.999
G1 X9.810 Y1.100 F662.0
M68 E2 Q0.000
G1 X9.810 Y0.300 F662.0
M68 E0 Q0.000
G4 P0.030
G91 (relative for W)
G1 W-0.800 F720.0
G90 (absolute XYZ)
G0 Z8.000
G0 Z8.000
G0 X3.810 Y99.700
G1 Z1.000 F240.0
M68 E0 Q28.319
G4 P0.030
G1 X3.810 Y99.100 F662.0
G91 (relative for W)
G1 W0.800 F720.0
G90 (absolute XYZ)
M68 E2 Q23.087
G4 P0.020
G1 X3.810 Y97.100 F662.0
M68 E2 Q28.155
G1 X3.810 Y2.900 F662.0
M68 E2 Q23.087
G1 X3.810 Y1.100 F662.0
M68 E2 Q0.000
G1 X3.810 Y0.300 F662.0
M68 E0 Q0.000
G4 P0.030
G91 (relative for W)
G1 W-0.800 F720.0
G90 (absolute XYZ)
G0 Z8.000
G0 Z8.000
G0 X0.300 Y99.700
G1 Z1.000 F240.0
M68 E0 Q28.319
G4 P0.030
G1 X0.900 Y99.700 F582.6
G91 (relative for W)
G1 W0.800 F720.0
G90 (absolute XYZ)
M68 E2 Q17.279
G4 P0.020
G1 X2.900 Y99.700 F582.6
M68 E2 Q21.072
G1 X17.100 Y99.700 F582.6
M68 E2 Q17.279
G1 X18.900 Y99.700 F582.6
M68 E2 Q0.000
G1 X19.700 Y99.700 F582.6
M68 E0 Q0.000
G4 P0.030
G91 (relative for W)
G1 W-0.800 F720.0
G90 (absolute XYZ)
G0 Z8.000
G0 Z8.000
G0 X19.700 Y99.700
G1 Z1.000 F240.0
M68 E0 Q28.319
G4 P0.030
G1 X19.700 Y99.100 F582.6
G91 (relative for W)
G1 W0.800 F720.0
G90 (absolute XYZ)
M68 E2 Q17.279
G4 P0.020
G1 X19.700 Y97.100 F582.6
M68 E2 Q21.072
G1 X19.700 Y2.900 F582.6
M68 E2 Q17.279
G1 X19.700 Y1.100 F582.6
M68 E2 Q0.000
G1 X19.700 Y0.300 F582.6
M68 E0 Q0.000
G4 P0.030
G91 (relative for W)
G1 W-0.800 F720.0
G90 (absolute XYZ)
G0 Z8.000
G0 Z8.000
G0 X19.700 Y0.300
G1 Z1.000 F240.0
M68 E0 Q28.319
G4 P0.030
G1 X19.100 Y0.300 F582.6
G91 (relative for W)
G1 W0.800 F720.0
G90 (absolute XYZ)
M68 E2 Q17.279
G4 P0.020
G1 X17.100 Y0.300 F582.6
M68 E2 Q21.072
G1 X2.900 Y0.300 F582.6
M68 E2 Q17.279
G1 X1.100 Y0.300 F582.6
M68 E2 Q0.000
G1 X0.300 Y0.300 F582.6
M68 E0 Q0.000
G4 P0.030
G91 (relative for W)
G1 W-0.800 F720.0
G90 (absolute XYZ)
G0 Z8.000
G0 Z8.000
G0 X0.300 Y0.300
G1 Z1.000 F240.0
M68 E0 Q28.319
G4 P0.030
G1 X0.300 Y0.900 F582.6
G91 (relative for W)
G1 W0.800 F720.0
G90 (absolute XYZ)
M68 E2 Q17.279
G4 P0.020
G1 X0.300 Y2.900 F582.6
M68 E2 Q21.072
G1 X0.300 Y97.100 F582.6
M68 E2 Q17.279
G1 X0.300 Y98.900 F582.6
M68 E2 Q0.000
G1 X0.300 Y99.700 F582.6
M68 E0 Q0.000
G4 P0.030
G91 (relative for W)
G1 W-0.800 F720.0
G90 (absolute XYZ)
G0 Z8.000
G4 P0.170 (layer thermal stabilization)
(--- FINISH ---)
M68 E2 Q0.000
M68 E0 Q0.000
G0 Z110.000
M30
