(EBAM G-CODE STUDIO v4.2.9.19 - FULL DRY RUN)
(SOURCE: Flange1[2].STL)
(STL_SHA256: 2542088a0e631f64211e171e609b31e517e3453e3fa37f186665b649118e8bed)
(GEOMETRY: OD_BOTTOM=164.000 ID_BOTTOM=40.000 H=47.500)
(BUILD AXIS IN SOURCE STL: Y)
(HARD LIMITS: HOT E0=25.0 THROUGH 40.0mA; E2=0 THROUGH 50.0mm/s; C=450 THROUGH 600deg/min)
(COMMAND MARGINS: E0 LE 39.5mA; E2 LE 49.5mm/s; C LE 599.5deg/min)
(HMI SCAN REQUIRED: CONCENTRIC_CIRCLES; 300Hz; SCALE_X=10.0percent; SCALE_Y=10.0percent)
(SCAN CURRENT MODEL: BASE 20.0 THROUGH 34.5mA; FACTOR 1.100; FINAL 25.0 THROUGH 39.5mA)
(SCAN FACTOR IS AN EXPERIMENTAL COMMISSIONING ASSUMPTION, NOT A CALIBRATED POWER LAW)
(REQUIRED: CURR WIRE FEED OVERRIDES AT 100 PERCENT; VERIFY HMI SCAN BEFORE START)
(FULL DRY RUN AND SHORT COUPON TEST REQUIRED BEFORE FULL HOT BUILD)
(G93 F IS INVERSE MOVE TIME; G4 P IS SECONDS)
(C ALWAYS POSITIVE; EVERY LAYER RUNS INNER TO OUTER)
(HOT OUTPUTS: FORCED ZERO DRY RUN)
G21 (mm)
G90 (absolute coordinates)
G94 (feed per minute)
G64 P0.080 Q0.000
M429 (identity kinematics if available)
M68 E0 Q0.000 (beam OFF safe state)
M68 E2 Q0.000 (wire OFF safe state)
M68 E1 Q1030.000 (focus verify on machine)
G0 Z3.000 (initial clearance above substrate)
G0 B0.000
G0 X21.2917 Y0.000
G1 Z0.000 F240.0
M0 (MANDATORY HMI CHECK SCAN 300HZ X10 Y10 CURR WIRE OVERRIDES 100 PERCENT)
G93
G91
(LAYER 1/32 Z=0.0000..1.5333 ZONE=FLANGE_NARROW DIR=inner_to_outer TRACKS=24 PITCH=2.5833 ADEP=3.9004 ACTIVE=14.6112min DWELL=0.0s)
M67 E0 Q0.000 (synchronized layer hot state)
M67 E2 Q0.000
G1 C360.000 F1.665278 (RING 1/24 R=21.2917 CSPD=599.50 E0=0.000 E2=0.000 QV=103.58)
M67 E0 Q0.000
M67 E2 Q0.000
G1 X2.5833 C5.000 F119.900000 (HOT LINK 1 CSPD=599.50 E0=0.000 E2=0.000)
M67 E0 Q0.000
M67 E2 Q0.000
G1 C360.000 F1.665278 (RING 2/24 R=23.8750 CSPD=599.50 E0=0.000 E2=0.000 QV=92.37)
M67 E0 Q0.000
M67 E2 Q0.000
G1 X2.5833 C5.000 F119.900000 (HOT LINK 2 CSPD=599.50 E0=0.000 E2=0.000)
M67 E0 Q0.000
M67 E2 Q0.000
G1 C360.000 F1.665278 (RING 3/24 R=26.4583 CSPD=599.50 E0=0.000 E2=0.000 QV=83.35)
M67 E0 Q0.000
M67 E2 Q0.000
G1 X2.5833 C5.000 F119.900000 (HOT LINK 3 CSPD=599.50 E0=0.000 E2=0.000)
M67 E0 Q0.000
M67 E2 Q0.000
G1 C360.000 F1.665278 (RING 4/24 R=29.0417 CSPD=599.50 E0=0.000 E2=0.000 QV=75.94)
M67 E0 Q0.000
M67 E2 Q0.000
G1 X2.5833 C5.000 F119.900000 (HOT LINK 4 CSPD=599.50 E0=0.000 E2=0.000)
M67 E0 Q0.000
M67 E2 Q0.000
G1 C360.000 F1.665278 (RING 5/24 R=31.6250 CSPD=599.50 E0=0.000 E2=0.000 QV=69.73)
M67 E0 Q0.000
M67 E2 Q0.000
G1 X2.5833 C5.000 F119.900000 (HOT LINK 5 CSPD=599.50 E0=0.000 E2=0.000)
M67 E0 Q0.000
M67 E2 Q0.000
G1 C360.000 F1.665278 (RING 6/24 R=34.2083 CSPD=599.50 E0=0.000 E2=0.000 QV=64.47)
M67 E0 Q0.000
M67 E2 Q0.000
G1 X2.5833 C5.000 F119.900000 (HOT LINK 6 CSPD=599.50 E0=0.000 E2=0.000)
M67 E0 Q0.000
M67 E2 Q0.000
G1 C360.000 F1.665278 (RING 7/24 R=36.7917 CSPD=599.50 E0=0.000 E2=0.000 QV=59.94)
M67 E0 Q0.000
M67 E2 Q0.000
G1 X2.5833 C5.000 F119.900000 (HOT LINK 7 CSPD=599.50 E0=0.000 E2=0.000)
M67 E0 Q0.000
M67 E2 Q0.000
G1 C360.000 F1.665278 (RING 8/24 R=39.3750 CSPD=599.50 E0=0.000 E2=0.000 QV=56.01)
M67 E0 Q0.000
M67 E2 Q0.000
G1 X2.5833 C5.000 F119.900000 (HOT LINK 8 CSPD=599.50 E0=0.000 E2=0.000)
M67 E0 Q0.000
M67 E2 Q0.000
G1 C360.000 F1.665278 (RING 9/24 R=41.9583 CSPD=599.50 E0=0.000 E2=0.000 QV=52.56)
M67 E0 Q0.000
M67 E2 Q0.000
G1 X2.5833 C5.000 F119.900000 (HOT LINK 9 CSPD=599.50 E0=0.000 E2=0.000)
M67 E0 Q0.000
M67 E2 Q0.000
G1 C360.000 F1.665278 (RING 10/24 R=44.5417 CSPD=599.50 E0=0.000 E2=0.000 QV=49.51)
M67 E0 Q0.000
M67 E2 Q0.000
G1 X2.5833 C5.000 F119.900000 (HOT LINK 10 CSPD=599.50 E0=0.000 E2=0.000)
M67 E0 Q0.000
M67 E2 Q0.000
G1 C360.000 F1.665278 (RING 11/24 R=47.1250 CSPD=599.50 E0=0.000 E2=0.000 QV=46.80)
M67 E0 Q0.000
M67 E2 Q0.000
G1 X2.5833 C5.000 F119.900000 (HOT LINK 11 CSPD=599.50 E0=0.000 E2=0.000)
M67 E0 Q0.000
M67 E2 Q0.000
G1 C360.000 F1.665278 (RING 12/24 R=49.7083 CSPD=599.50 E0=0.000 E2=0.000 QV=46.20)
M67 E0 Q0.000
M67 E2 Q0.000
G1 X2.5833 C5.000 F119.900000 (HOT LINK 12 CSPD=599.50 E0=0.000 E2=0.000)
M67 E0 Q0.000
M67 E2 Q0.000
G1 C360.000 F1.665278 (RING 13/24 R=52.2917 CSPD=599.50 E0=0.000 E2=0.000 QV=46.20)
M67 E0 Q0.000
M67 E2 Q0.000
G1 X2.5833 C5.000 F119.900000 (HOT LINK 13 CSPD=599.50 E0=0.000 E2=0.000)
M67 E0 Q0.000
M67 E2 Q0.000
G1 C360.000 F1.665278 (RING 14/24 R=54.8750 CSPD=599.50 E0=0.000 E2=0.000 QV=46.20)
M67 E0 Q0.000
M67 E2 Q0.000
G1 X2.5833 C5.000 F119.900000 (HOT LINK 14 CSPD=599.50 E0=0.000 E2=0.000)
M67 E0 Q0.000
M67 E2 Q0.000
G1 C360.000 F1.665278 (RING 15/24 R=57.4583 CSPD=599.50 E0=0.000 E2=0.000 QV=46.20)
M67 E0 Q0.000
M67 E2 Q0.000
G1 X2.5833 C5.000 F119.900000 (HOT LINK 15 CSPD=599.50 E0=0.000 E2=0.000)
M67 E0 Q0.000
M67 E2 Q0.000
G1 C360.000 F1.665278 (RING 16/24 R=60.0417 CSPD=599.50 E0=0.000 E2=0.000 QV=46.20)
M67 E0 Q0.000
M67 E2 Q0.000
G1 X2.5833 C5.000 F119.900000 (HOT LINK 16 CSPD=599.50 E0=0.000 E2=0.000)
M67 E0 Q0.000
M67 E2 Q0.000
G1 C360.000 F1.665278 (RING 17/24 R=62.6250 CSPD=599.50 E0=0.000 E2=0.000 QV=46.20)
M67 E0 Q0.000
M67 E2 Q0.000
G1 X2.5833 C5.000 F119.900000 (HOT LINK 17 CSPD=599.50 E0=0.000 E2=0.000)
M67 E0 Q0.000
M67 E2 Q0.000
G1 C360.000 F1.665278 (RING 18/24 R=65.2083 CSPD=599.50 E0=0.000 E2=0.000 QV=46.20)
M67 E0 Q0.000
M67 E2 Q0.000
G1 X2.5833 C5.000 F119.900000 (HOT LINK 18 CSPD=599.50 E0=0.000 E2=0.000)
M67 E0 Q0.000
M67 E2 Q0.000
G1 C360.000 F1.665278 (RING 19/24 R=67.7917 CSPD=599.50 E0=0.000 E2=0.000 QV=46.20)
M67 E0 Q0.000
M67 E2 Q0.000
G1 X2.5833 C5.000 F119.900000 (HOT LINK 19 CSPD=599.50 E0=0.000 E2=0.000)
M67 E0 Q0.000
M67 E2 Q0.000
G1 C360.000 F1.665278 (RING 20/24 R=70.3750 CSPD=599.50 E0=0.000 E2=0.000 QV=46.20)
M67 E0 Q0.000
M67 E2 Q0.000
G1 X2.5833 C5.000 F119.900000 (HOT LINK 20 CSPD=599.50 E0=0.000 E2=0.000)
M67 E0 Q0.000
M67 E2 Q0.000
G1 C360.000 F1.665278 (RING 21/24 R=72.9583 CSPD=599.50 E0=0.000 E2=0.000 QV=45.88)
M67 E0 Q0.000
M67 E2 Q0.000
G1 X2.5833 C5.000 F119.755299 (HOT LINK 21 CSPD=598.78 E0=0.000 E2=0.000)
M67 E0 Q0.000
M67 E2 Q0.000
G1 C360.000 F1.665278 (RING 22/24 R=75.5417 CSPD=599.50 E0=0.000 E2=0.000 QV=44.32)
M67 E0 Q0.000
M67 E2 Q0.000
G1 X2.5833 C5.000 F116.257198 (HOT LINK 22 CSPD=581.29 E0=0.000 E2=0.000)
M67 E0 Q0.000
M67 E2 Q0.000
G1 C360.000 F1.665278 (RING 23/24 R=78.1250 CSPD=599.50 E0=0.000 E2=0.000 QV=42.85)
M67 E0 Q0.000
M67 E2 Q0.000
G1 X2.5833 C5.000 F112.943680 (HOT LINK 23 CSPD=564.72 E0=0.000 E2=0.000)
M67 E0 Q0.000
M67 E2 Q0.000
G1 C360.000 F1.647313 (RING 24/24 R=80.7083 CSPD=593.03 E0=0.000 E2=0.000 QV=41.93)
(LAYER 2/32 Z=1.5333..3.0667 ZONE=FLANGE_NARROW DIR=inner_to_outer TRACKS=24 PITCH=2.5833 ADEP=3.9004 ACTIVE=14.6112min DWELL=0.0s)
M68 E2 Q0.000 (cold interlayer transition)
M68 E0 Q0.000
G1 X-59.4167 Z1.5333 C17.000 F35.264706
M67 E0 Q0.000 (synchronized layer hot state)
M67 E2 Q0.000
G1 C360.000 F1.665278 (RING 1/24 R=21.2917 CSPD=599.50 E0=0.000 E2=0.000 QV=103.58)
M67 E0 Q0.000
M67 E2 Q0.000
G1 X2.5833 C5.000 F119.900000 (HOT LINK 1 CSPD=599.50 E0=0.000 E2=0.000)
M67 E0 Q0.000
M67 E2 Q0.000
G1 C360.000 F1.665278 (RING 2/24 R=23.8750 CSPD=599.50 E0=0.000 E2=0.000 QV=92.37)
M67 E0 Q0.000
M67 E2 Q0.000
G1 X2.5833 C5.000 F119.900000 (HOT LINK 2 CSPD=599.50 E0=0.000 E2=0.000)
M67 E0 Q0.000
M67 E2 Q0.000
G1 C360.000 F1.665278 (RING 3/24 R=26.4583 CSPD=599.50 E0=0.000 E2=0.000 QV=83.35)
M67 E0 Q0.000
M67 E2 Q0.000
G1 X2.5833 C5.000 F119.900000 (HOT LINK 3 CSPD=599.50 E0=0.000 E2=0.000)
M67 E0 Q0.000
M67 E2 Q0.000
G1 C360.000 F1.665278 (RING 4/24 R=29.0417 CSPD=599.50 E0=0.000 E2=0.000 QV=75.94)
M67 E0 Q0.000
M67 E2 Q0.000
G1 X2.5833 C5.000 F119.900000 (HOT LINK 4 CSPD=599.50 E0=0.000 E2=0.000)
M67 E0 Q0.000
M67 E2 Q0.000
G1 C360.000 F1.665278 (RING 5/24 R=31.6250 CSPD=599.50 E0=0.000 E2=0.000 QV=69.73)
M67 E0 Q0.000
M67 E2 Q0.000
G1 X2.5833 C5.000 F119.900000 (HOT LINK 5 CSPD=599.50 E0=0.000 E2=0.000)
M67 E0 Q0.000
M67 E2 Q0.000
G1 C360.000 F1.665278 (RING 6/24 R=34.2083 CSPD=599.50 E0=0.000 E2=0.000 QV=64.47)
M67 E0 Q0.000
M67 E2 Q0.000
G1 X2.5833 C5.000 F119.900000 (HOT LINK 6 CSPD=599.50 E0=0.000 E2=0.000)
M67 E0 Q0.000
M67 E2 Q0.000
G1 C360.000 F1.665278 (RING 7/24 R=36.7917 CSPD=599.50 E0=0.000 E2=0.000 QV=59.94)
M67 E0 Q0.000
M67 E2 Q0.000
G1 X2.5833 C5.000 F119.900000 (HOT LINK 7 CSPD=599.50 E0=0.000 E2=0.000)
M67 E0 Q0.000
M67 E2 Q0.000
G1 C360.000 F1.665278 (RING 8/24 R=39.3750 CSPD=599.50 E0=0.000 E2=0.000 QV=56.01)
M67 E0 Q0.000
M67 E2 Q0.000
G1 X2.5833 C5.000 F119.900000 (HOT LINK 8 CSPD=599.50 E0=0.000 E2=0.000)
M67 E0 Q0.000
M67 E2 Q0.000
G1 C360.000 F1.665278 (RING 9/24 R=41.9583 CSPD=599.50 E0=0.000 E2=0.000 QV=52.56)
M67 E0 Q0.000
M67 E2 Q0.000
G1 X2.5833 C5.000 F119.900000 (HOT LINK 9 CSPD=599.50 E0=0.000 E2=0.000)
M67 E0 Q0.000
M67 E2 Q0.000
G1 C360.000 F1.665278 (RING 10/24 R=44.5417 CSPD=599.50 E0=0.000 E2=0.000 QV=49.51)
M67 E0 Q0.000
M67 E2 Q0.000
G1 X2.5833 C5.000 F119.900000 (HOT LINK 10 CSPD=599.50 E0=0.000 E2=0.000)
M67 E0 Q0.000
M67 E2 Q0.000
G1 C360.000 F1.665278 (RING 11/24 R=47.1250 CSPD=599.50 E0=0.000 E2=0.000 QV=46.80)
M67 E0 Q0.000
M67 E2 Q0.000
G1 X2.5833 C5.000 F119.900000 (HOT LINK 11 CSPD=599.50 E0=0.000 E2=0.000)
M67 E0 Q0.000
M67 E2 Q0.000
G1 C360.000 F1.665278 (RING 12/24 R=49.7083 CSPD=599.50 E0=0.000 E2=0.000 QV=44.37)
M67 E0 Q0.000
M67 E2 Q0.000
G1 X2.5833 C5.000 F119.900000 (HOT LINK 12 CSPD=599.50 E0=0.000 E2=0.000)
M67 E0 Q0.000
M67 E2 Q0.000
G1 C360.000 F1.665278 (RING 13/24 R=52.2917 CSPD=599.50 E0=0.000 E2=0.000 QV=44.00)
M67 E0 Q0.000
M67 E2 Q0.000
G1 X2.5833 C5.000 F119.900000 (HOT LINK 13 CSPD=599.50 E0=0.000 E2=0.000)
M67 E0 Q0.000
M67 E2 Q0.000
G1 C360.000 F1.665278 (RING 14/24 R=54.8750 CSPD=599.50 E0=0.000 E2=0.000 QV=44.00)
M67 E0 Q0.000
M67 E2 Q0.000
G1 X2.5833 C5.000 F119.900000 (HOT LINK 14 CSPD=599.50 E0=0.000 E2=0.000)
M67 E0 Q0.000
M67 E2 Q0.000
G1 C360.000 F1.665278 (RING 15/24 R=57.4583 CSPD=599.50 E0=0.000 E2=0.000 QV=44.00)
M67 E0 Q0.000
M67 E2 Q0.000
G1 X2.5833 C5.000 F119.900000 (HOT LINK 15 CSPD=599.50 E0=0.000 E2=0.000)
M67 E0 Q0.000
M67 E2 Q0.000
G1 C360.000 F1.665278 (RING 16/24 R=60.0417 CSPD=599.50 E0=0.000 E2=0.000 QV=44.00)
M67 E0 Q0.000
M67 E2 Q0.000
G1 X2.5833 C5.000 F119.900000 (HOT LINK 16 CSPD=599.50 E0=0.000 E2=0.000)
M67 E0 Q0.000
M67 E2 Q0.000
G1 C360.000 F1.665278 (RING 17/24 R=62.6250 CSPD=599.50 E0=0.000 E2=0.000 QV=44.00)
M67 E0 Q0.000
M67 E2 Q0.000
G1 X2.5833 C5.000 F119.900000 (HOT LINK 17 CSPD=599.50 E0=0.000 E2=0.000)
M67 E0 Q0.000
M67 E2 Q0.000
G1 C360.000 F1.665278 (RING 18/24 R=65.2083 CSPD=599.50 E0=0.000 E2=0.000 QV=44.00)
M67 E0 Q0.000
M67 E2 Q0.000
G1 X2.5833 C5.000 F119.900000 (HOT LINK 18 CSPD=599.50 E0=0.000 E2=0.000)
M67 E0 Q0.000
M67 E2 Q0.000
G1 C360.000 F1.665278 (RING 19/24 R=67.7917 CSPD=599.50 E0=0.000 E2=0.000 QV=44.00)
M67 E0 Q0.000
M67 E2 Q0.000
G1 X2.5833 C5.000 F119.900000 (HOT LINK 19 CSPD=599.50 E0=0.000 E2=0.000)
M67 E0 Q0.000
M67 E2 Q0.000
G1 C360.000 F1.665278 (RING 20/24 R=70.3750 CSPD=599.50 E0=0.000 E2=0.000 QV=44.00)
M67 E0 Q0.000
M67 E2 Q0.000
G1 X2.5833 C5.000 F119.900000 (HOT LINK 20 CSPD=599.50 E0=0.000 E2=0.000)
M67 E0 Q0.000
M67 E2 Q0.000
G1 C360.000 F1.665278 (RING 21/24 R=72.9583 CSPD=599.50 E0=0.000 E2=0.000 QV=44.00)
M67 E0 Q0.000
M67 E2 Q0.000
G1 X2.5833 C5.000 F119.755299 (HOT LINK 21 CSPD=598.78 E0=0.000 E2=0.000)
M67 E0 Q0.000
M67 E2 Q0.000
G1 C360.000 F1.665278 (RING 22/24 R=75.5417 CSPD=599.50 E0=0.000 E2=0.000 QV=44.00)
M67 E0 Q0.000
M67 E2 Q0.000
G1 X2.5833 C5.000 F116.257198 (HOT LINK 22 CSPD=581.29 E0=0.000 E2=0.000)
M67 E0 Q0.000
M67 E2 Q0.000
G1 C360.000 F1.665278 (RING 23/24 R=78.1250 CSPD=599.50 E0=0.000 E2=0.000 QV=42.85)
M67 E0 Q0.000
M67 E2 Q0.000
G1 X2.5833 C5.000 F112.943680 (HOT LINK 23 CSPD=564.72 E0=0.000 E2=0.000)
M67 E0 Q0.000
M67 E2 Q0.000
G1 C360.000 F1.647313 (RING 24/24 R=80.7083 CSPD=593.03 E0=0.000 E2=0.000 QV=40.48)
(LAYER 3/32 Z=3.0667..4.6000 ZONE=FLANGE_NARROW DIR=inner_to_outer TRACKS=24 PITCH=2.5833 ADEP=3.9004 ACTIVE=14.6112min DWELL=0.0s)
M68 E2 Q0.000 (cold interlayer transition)
M68 E0 Q0.000
G1 X-59.4167 Z1.5333 C17.000 F35.264706
M67 E0 Q0.000 (synchronized layer hot state)
M67 E2 Q0.000
G1 C360.000 F1.665278 (RING 1/24 R=21.2917 CSPD=599.50 E0=0.000 E2=0.000 QV=103.58)
M67 E0 Q0.000
M67 E2 Q0.000
G1 X2.5833 C5.000 F119.900000 (HOT LINK 1 CSPD=599.50 E0=0.000 E2=0.000)
M67 E0 Q0.000
M67 E2 Q0.000
G1 C360.000 F1.665278 (RING 2/24 R=23.8750 CSPD=599.50 E0=0.000 E2=0.000 QV=92.37)
M67 E0 Q0.000
M67 E2 Q0.000
G1 X2.5833 C5.000 F119.900000 (HOT LINK 2 CSPD=599.50 E0=0.000 E2=0.000)
M67 E0 Q0.000
M67 E2 Q0.000
G1 C360.000 F1.665278 (RING 3/24 R=26.4583 CSPD=599.50 E0=0.000 E2=0.000 QV=83.35)
M67 E0 Q0.000
M67 E2 Q0.000
G1 X2.5833 C5.000 F119.900000 (HOT LINK 3 CSPD=599.50 E0=0.000 E2=0.000)
M67 E0 Q0.000
M67 E2 Q0.000
G1 C360.000 F1.665278 (RING 4/24 R=29.0417 CSPD=599.50 E0=0.000 E2=0.000 QV=75.94)
M67 E0 Q0.000
M67 E2 Q0.000
G1 X2.5833 C5.000 F119.900000 (HOT LINK 4 CSPD=599.50 E0=0.000 E2=0.000)
M67 E0 Q0.000
M67 E2 Q0.000
G1 C360.000 F1.665278 (RING 5/24 R=31.6250 CSPD=599.50 E0=0.000 E2=0.000 QV=69.73)
M67 E0 Q0.000
M67 E2 Q0.000
G1 X2.5833 C5.000 F119.900000 (HOT LINK 5 CSPD=599.50 E0=0.000 E2=0.000)
M67 E0 Q0.000
M67 E2 Q0.000
G1 C360.000 F1.665278 (RING 6/24 R=34.2083 CSPD=599.50 E0=0.000 E2=0.000 QV=64.47)
M67 E0 Q0.000
M67 E2 Q0.000
G1 X2.5833 C5.000 F119.900000 (HOT LINK 6 CSPD=599.50 E0=0.000 E2=0.000)
M67 E0 Q0.000
M67 E2 Q0.000
G1 C360.000 F1.665278 (RING 7/24 R=36.7917 CSPD=599.50 E0=0.000 E2=0.000 QV=59.94)
M67 E0 Q0.000
M67 E2 Q0.000
G1 X2.5833 C5.000 F119.900000 (HOT LINK 7 CSPD=599.50 E0=0.000 E2=0.000)
M67 E0 Q0.000
M67 E2 Q0.000
G1 C360.000 F1.665278 (RING 8/24 R=39.3750 CSPD=599.50 E0=0.000 E2=0.000 QV=56.01)
M67 E0 Q0.000
M67 E2 Q0.000
G1 X2.5833 C5.000 F119.900000 (HOT LINK 8 CSPD=599.50 E0=0.000 E2=0.000)
M67 E0 Q0.000
M67 E2 Q0.000
G1 C360.000 F1.665278 (RING 9/24 R=41.9583 CSPD=599.50 E0=0.000 E2=0.000 QV=52.56)
M67 E0 Q0.000
M67 E2 Q0.000
G1 X2.5833 C5.000 F119.900000 (HOT LINK 9 CSPD=599.50 E0=0.000 E2=0.000)
M67 E0 Q0.000
M67 E2 Q0.000
G1 C360.000 F1.665278 (RING 10/24 R=44.5417 CSPD=599.50 E0=0.000 E2=0.000 QV=49.51)
M67 E0 Q0.000
M67 E2 Q0.000
G1 X2.5833 C5.000 F119.900000 (HOT LINK 10 CSPD=599.50 E0=0.000 E2=0.000)
M67 E0 Q0.000
M67 E2 Q0.000
G1 C360.000 F1.665278 (RING 11/24 R=47.1250 CSPD=599.50 E0=0.000 E2=0.000 QV=46.80)
M67 E0 Q0.000
M67 E2 Q0.000
G1 X2.5833 C5.000 F119.900000 (HOT LINK 11 CSPD=599.50 E0=0.000 E2=0.000)
M67 E0 Q0.000
M67 E2 Q0.000
G1 C360.000 F1.665278 (RING 12/24 R=49.7083 CSPD=599.50 E0=0.000 E2=0.000 QV=44.37)
M67 E0 Q0.000
M67 E2 Q0.000
G1 X2.5833 C5.000 F119.900000 (HOT LINK 12 CSPD=599.50 E0=0.000 E2=0.000)
M67 E0 Q0.000
M67 E2 Q0.000
G1 C360.000 F1.665278 (RING 13/24 R=52.2917 CSPD=599.50 E0=0.000 E2=0.000 QV=42.17)
M67 E0 Q0.000
M67 E2 Q0.000
G1 X2.5833 C5.000 F119.900000 (HOT LINK 13 CSPD=599.50 E0=0.000 E2=0.000)
M67 E0 Q0.000
M67 E2 Q0.000
G1 C360.000 F1.665278 (RING 14/24 R=54.8750 CSPD=599.50 E0=0.000 E2=0.000 QV=41.80)
M67 E0 Q0.000
M67 E2 Q0.000
G1 X2.5833 C5.000 F119.900000 (HOT LINK 14 CSPD=599.50 E0=0.000 E2=0.000)
M67 E0 Q0.000
M67 E2 Q0.000
G1 C360.000 F1.665278 (RING 15/24 R=57.4583 CSPD=599.50 E0=0.000 E2=0.000 QV=41.80)
M67 E0 Q0.000
M67 E2 Q0.000
G1 X2.5833 C5.000 F119.900000 (HOT LINK 15 CSPD=599.50 E0=0.000 E2=0.000)
M67 E0 Q0.000
M67 E2 Q0.000
G1 C360.000 F1.665278 (RING 16/24 R=60.0417 CSPD=599.50 E0=0.000 E2=0.000 QV=41.80)
M67 E0 Q0.000
M67 E2 Q0.000
G1 X2.5833 C5.000 F119.900000 (HOT LINK 16 CSPD=599.50 E0=0.000 E2=0.000)
M67 E0 Q0.000
M67 E2 Q0.000
G1 C360.000 F1.665278 (RING 17/24 R=62.6250 CSPD=599.50 E0=0.000 E2=0.000 QV=41.80)
M67 E0 Q0.000
M67 E2 Q0.000
G1 X2.5833 C5.000 F119.900000 (HOT LINK 17 CSPD=599.50 E0=0.000 E2=0.000)
M67 E0 Q0.000
M67 E2 Q0.000
G1 C360.000 F1.665278 (RING 18/24 R=65.2083 CSPD=599.50 E0=0.000 E2=0.000 QV=41.80)
M67 E0 Q0.000
M67 E2 Q0.000
G1 X2.5833 C5.000 F119.900000 (HOT LINK 18 CSPD=599.50 E0=0.000 E2=0.000)
M67 E0 Q0.000
M67 E2 Q0.000
G1 C360.000 F1.665278 (RING 19/24 R=67.7917 CSPD=599.50 E0=0.000 E2=0.000 QV=41.80)
M67 E0 Q0.000
M67 E2 Q0.000
G1 X2.5833 C5.000 F119.900000 (HOT LINK 19 CSPD=599.50 E0=0.000 E2=0.000)
M67 E0 Q0.000
M67 E2 Q0.000
G1 C360.000 F1.665278 (RING 20/24 R=70.3750 CSPD=599.50 E0=0.000 E2=0.000 QV=41.80)
M67 E0 Q0.000
M67 E2 Q0.000
G1 X2.5833 C5.000 F119.900000 (HOT LINK 20 CSPD=599.50 E0=0.000 E2=0.000)
M67 E0 Q0.000
M67 E2 Q0.000
G1 C360.000 F1.665278 (RING 21/24 R=72.9583 CSPD=599.50 E0=0.000 E2=0.000 QV=41.80)
M67 E0 Q0.000
M67 E2 Q0.000
G1 X2.5833 C5.000 F119.755299 (HOT LINK 21 CSPD=598.78 E0=0.000 E2=0.000)
M67 E0 Q0.000
M67 E2 Q0.000
G1 C360.000 F1.665278 (RING 22/24 R=75.5417 CSPD=599.50 E0=0.000 E2=0.000 QV=41.80)
M67 E0 Q0.000
M67 E2 Q0.000
G1 X2.5833 C5.000 F116.257198 (HOT LINK 22 CSPD=581.29 E0=0.000 E2=0.000)
M67 E0 Q0.000
M67 E2 Q0.000
G1 C360.000 F1.665278 (RING 23/24 R=78.1250 CSPD=599.50 E0=0.000 E2=0.000 QV=41.80)
M67 E0 Q0.000
M67 E2 Q0.000
G1 X2.5833 C5.000 F112.943680 (HOT LINK 23 CSPD=564.72 E0=0.000 E2=0.000)
M67 E0 Q0.000
M67 E2 Q0.000
G1 C360.000 F1.647313 (RING 24/24 R=80.7083 CSPD=593.03 E0=0.000 E2=0.000 QV=38.46)
(LAYER 4/32 Z=4.6000..6.1333 ZONE=FLANGE_NARROW DIR=inner_to_outer TRACKS=24 PITCH=2.5833 ADEP=3.9004 ACTIVE=14.6112min DWELL=0.0s)
M68 E2 Q0.000 (cold interlayer transition)
M68 E0 Q0.000
G1 X-59.4167 Z1.5333 C17.000 F35.264706
M67 E0 Q0.000 (synchronized layer hot state)
M67 E2 Q0.000
G1 C360.000 F1.665278 (RING 1/24 R=21.2917 CSPD=599.50 E0=0.000 E2=0.000 QV=103.58)
M67 E0 Q0.000
M67 E2 Q0.000
G1 X2.5833 C5.000 F119.900000 (HOT LINK 1 CSPD=599.50 E0=0.000 E2=0.000)
M67 E0 Q0.000
M67 E2 Q0.000
G1 C360.000 F1.665278 (RING 2/24 R=23.8750 CSPD=599.50 E0=0.000 E2=0.000 QV=92.37)
M67 E0 Q0.000
M67 E2 Q0.000
G1 X2.5833 C5.000 F119.900000 (HOT LINK 2 CSPD=599.50 E0=0.000 E2=0.000)
M67 E0 Q0.000
M67 E2 Q0.000
G1 C360.000 F1.665278 (RING 3/24 R=26.4583 CSPD=599.50 E0=0.000 E2=0.000 QV=83.35)
M67 E0 Q0.000
M67 E2 Q0.000
G1 X2.5833 C5.000 F119.900000 (HOT LINK 3 CSPD=599.50 E0=0.000 E2=0.000)
M67 E0 Q0.000
M67 E2 Q0.000
G1 C360.000 F1.665278 (RING 4/24 R=29.0417 CSPD=599.50 E0=0.000 E2=0.000 QV=75.94)
M67 E0 Q0.000
M67 E2 Q0.000
G1 X2.5833 C5.000 F119.900000 (HOT LINK 4 CSPD=599.50 E0=0.000 E2=0.000)
M67 E0 Q0.000
M67 E2 Q0.000
G1 C360.000 F1.665278 (RING 5/24 R=31.6250 CSPD=599.50 E0=0.000 E2=0.000 QV=69.73)
M67 E0 Q0.000
M67 E2 Q0.000
G1 X2.5833 C5.000 F119.900000 (HOT LINK 5 CSPD=599.50 E0=0.000 E2=0.000)
M67 E0 Q0.000
M67 E2 Q0.000
G1 C360.000 F1.665278 (RING 6/24 R=34.2083 CSPD=599.50 E0=0.000 E2=0.000 QV=64.47)
M67 E0 Q0.000
M67 E2 Q0.000
G1 X2.5833 C5.000 F119.900000 (HOT LINK 6 CSPD=599.50 E0=0.000 E2=0.000)
M67 E0 Q0.000
M67 E2 Q0.000
G1 C360.000 F1.665278 (RING 7/24 R=36.7917 CSPD=599.50 E0=0.000 E2=0.000 QV=59.94)
M67 E0 Q0.000
M67 E2 Q0.000
G1 X2.5833 C5.000 F119.900000 (HOT LINK 7 CSPD=599.50 E0=0.000 E2=0.000)
M67 E0 Q0.000
M67 E2 Q0.000
G1 C360.000 F1.665278 (RING 8/24 R=39.3750 CSPD=599.50 E0=0.000 E2=0.000 QV=56.01)
M67 E0 Q0.000
M67 E2 Q0.000
G1 X2.5833 C5.000 F119.900000 (HOT LINK 8 CSPD=599.50 E0=0.000 E2=0.000)
M67 E0 Q0.000
M67 E2 Q0.000
G1 C360.000 F1.665278 (RING 9/24 R=41.9583 CSPD=599.50 E0=0.000 E2=0.000 QV=52.56)
M67 E0 Q0.000
M67 E2 Q0.000
G1 X2.5833 C5.000 F119.900000 (HOT LINK 9 CSPD=599.50 E0=0.000 E2=0.000)
M67 E0 Q0.000
M67 E2 Q0.000
G1 C360.000 F1.665278 (RING 10/24 R=44.5417 CSPD=599.50 E0=0.000 E2=0.000 QV=49.51)
M67 E0 Q0.000
M67 E2 Q0.000
G1 X2.5833 C5.000 F119.900000 (HOT LINK 10 CSPD=599.50 E0=0.000 E2=0.000)
M67 E0 Q0.000
M67 E2 Q0.000
G1 C360.000 F1.665278 (RING 11/24 R=47.1250 CSPD=599.50 E0=0.000 E2=0.000 QV=46.80)
M67 E0 Q0.000
M67 E2 Q0.000
G1 X2.5833 C5.000 F119.900000 (HOT LINK 11 CSPD=599.50 E0=0.000 E2=0.000)
M67 E0 Q0.000
M67 E2 Q0.000
G1 C360.000 F1.665278 (RING 12/24 R=49.7083 CSPD=599.50 E0=0.000 E2=0.000 QV=44.37)
M67 E0 Q0.000
M67 E2 Q0.000
G1 X2.5833 C5.000 F119.900000 (HOT LINK 12 CSPD=599.50 E0=0.000 E2=0.000)
M67 E0 Q0.000
M67 E2 Q0.000
G1 C360.000 F1.665278 (RING 13/24 R=52.2917 CSPD=599.50 E0=0.000 E2=0.000 QV=42.17)
M67 E0 Q0.000
M67 E2 Q0.000
G1 X2.5833 C5.000 F119.900000 (HOT LINK 13 CSPD=599.50 E0=0.000 E2=0.000)
M67 E0 Q0.000
M67 E2 Q0.000
G1 C360.000 F1.665278 (RING 14/24 R=54.8750 CSPD=599.50 E0=0.000 E2=0.000 QV=40.19)
M67 E0 Q0.000
M67 E2 Q0.000
G1 X2.5833 C5.000 F119.900000 (HOT LINK 14 CSPD=599.50 E0=0.000 E2=0.000)
M67 E0 Q0.000
M67 E2 Q0.000
G1 C360.000 F1.665278 (RING 15/24 R=57.4583 CSPD=599.50 E0=0.000 E2=0.000 QV=40.15)
M67 E0 Q0.000
M67 E2 Q0.000
G1 X2.5833 C5.000 F119.900000 (HOT LINK 15 CSPD=599.50 E0=0.000 E2=0.000)
M67 E0 Q0.000
M67 E2 Q0.000
G1 C360.000 F1.665278 (RING 16/24 R=60.0417 CSPD=599.50 E0=0.000 E2=0.000 QV=40.15)
M67 E0 Q0.000
M67 E2 Q0.000
G1 X2.5833 C5.000 F119.900000 (HOT LINK 16 CSPD=599.50 E0=0.000 E2=0.000)
M67 E0 Q0.000
M67 E2 Q0.000
G1 C360.000 F1.665278 (RING 17/24 R=62.6250 CSPD=599.50 E0=0.000 E2=0.000 QV=40.15)
M67 E0 Q0.000
M67 E2 Q0.000
G1 X2.5833 C5.000 F119.900000 (HOT LINK 17 CSPD=599.50 E0=0.000 E2=0.000)
M67 E0 Q0.000
M67 E2 Q0.000
G1 C360.000 F1.665278 (RING 18/24 R=65.2083 CSPD=599.50 E0=0.000 E2=0.000 QV=40.15)
M67 E0 Q0.000
M67 E2 Q0.000
G1 X2.5833 C5.000 F119.900000 (HOT LINK 18 CSPD=599.50 E0=0.000 E2=0.000)
M67 E0 Q0.000
M67 E2 Q0.000
G1 C360.000 F1.665278 (RING 19/24 R=67.7917 CSPD=599.50 E0=0.000 E2=0.000 QV=40.15)
M67 E0 Q0.000
M67 E2 Q0.000
G1 X2.5833 C5.000 F119.900000 (HOT LINK 19 CSPD=599.50 E0=0.000 E2=0.000)
M67 E0 Q0.000
M67 E2 Q0.000
G1 C360.000 F1.665278 (RING 20/24 R=70.3750 CSPD=599.50 E0=0.000 E2=0.000 QV=40.15)
M67 E0 Q0.000
M67 E2 Q0.000
G1 X2.5833 C5.000 F119.900000 (HOT LINK 20 CSPD=599.50 E0=0.000 E2=0.000)
M67 E0 Q0.000
M67 E2 Q0.000
G1 C360.000 F1.665278 (RING 21/24 R=72.9583 CSPD=599.50 E0=0.000 E2=0.000 QV=40.15)
M67 E0 Q0.000
M67 E2 Q0.000
G1 X2.5833 C5.000 F119.755299 (HOT LINK 21 CSPD=598.78 E0=0.000 E2=0.000)
M67 E0 Q0.000
M67 E2 Q0.000
G1 C360.000 F1.665278 (RING 22/24 R=75.5417 CSPD=599.50 E0=0.000 E2=0.000 QV=40.15)
M67 E0 Q0.000
M67 E2 Q0.000
G1 X2.5833 C5.000 F116.257198 (HOT LINK 22 CSPD=581.29 E0=0.000 E2=0.000)
M67 E0 Q0.000
M67 E2 Q0.000
G1 C360.000 F1.665278 (RING 23/24 R=78.1250 CSPD=599.50 E0=0.000 E2=0.000 QV=40.15)
M67 E0 Q0.000
M67 E2 Q0.000
G1 X2.5833 C5.000 F112.943680 (HOT LINK 23 CSPD=564.72 E0=0.000 E2=0.000)
M67 E0 Q0.000
M67 E2 Q0.000
G1 C360.000 F1.647313 (RING 24/24 R=80.7083 CSPD=593.03 E0=0.000 E2=0.000 QV=36.94)
(LAYER 5/32 Z=6.1333..7.6667 ZONE=FLANGE_NARROW DIR=inner_to_outer TRACKS=24 PITCH=2.5833 ADEP=3.9004 ACTIVE=14.6112min DWELL=0.0s)
M68 E2 Q0.000 (cold interlayer transition)
M68 E0 Q0.000
G1 X-59.4167 Z1.5333 C17.000 F35.264706
M67 E0 Q0.000 (synchronized layer hot state)
M67 E2 Q0.000
G1 C360.000 F1.665278 (RING 1/24 R=21.2917 CSPD=599.50 E0=0.000 E2=0.000 QV=103.58)
M67 E0 Q0.000
M67 E2 Q0.000
G1 X2.5833 C5.000 F119.900000 (HOT LINK 1 CSPD=599.50 E0=0.000 E2=0.000)
M67 E0 Q0.000
M67 E2 Q0.000
G1 C360.000 F1.665278 (RING 2/24 R=23.8750 CSPD=599.50 E0=0.000 E2=0.000 QV=92.37)
M67 E0 Q0.000
M67 E2 Q0.000
G1 X2.5833 C5.000 F119.900000 (HOT LINK 2 CSPD=599.50 E0=0.000 E2=0.000)
M67 E0 Q0.000
M67 E2 Q0.000
G1 C360.000 F1.665278 (RING 3/24 R=26.4583 CSPD=599.50 E0=0.000 E2=0.000 QV=83.35)
M67 E0 Q0.000
M67 E2 Q0.000
G1 X2.5833 C5.000 F119.900000 (HOT LINK 3 CSPD=599.50 E0=0.000 E2=0.000)
M67 E0 Q0.000
M67 E2 Q0.000
G1 C360.000 F1.665278 (RING 4/24 R=29.0417 CSPD=599.50 E0=0.000 E2=0.000 QV=75.94)
M67 E0 Q0.000
M67 E2 Q0.000
G1 X2.5833 C5.000 F119.900000 (HOT LINK 4 CSPD=599.50 E0=0.000 E2=0.000)
M67 E0 Q0.000
M67 E2 Q0.000
G1 C360.000 F1.665278 (RING 5/24 R=31.6250 CSPD=599.50 E0=0.000 E2=0.000 QV=69.73)
M67 E0 Q0.000
M67 E2 Q0.000
G1 X2.5833 C5.000 F119.900000 (HOT LINK 5 CSPD=599.50 E0=0.000 E2=0.000)
M67 E0 Q0.000
M67 E2 Q0.000
G1 C360.000 F1.665278 (RING 6/24 R=34.2083 CSPD=599.50 E0=0.000 E2=0.000 QV=64.47)
M67 E0 Q0.000
M67 E2 Q0.000
G1 X2.5833 C5.000 F119.900000 (HOT LINK 6 CSPD=599.50 E0=0.000 E2=0.000)
M67 E0 Q0.000
M67 E2 Q0.000
G1 C360.000 F1.665278 (RING 7/24 R=36.7917 CSPD=599.50 E0=0.000 E2=0.000 QV=59.94)
M67 E0 Q0.000
M67 E2 Q0.000
G1 X2.5833 C5.000 F119.900000 (HOT LINK 7 CSPD=599.50 E0=0.000 E2=0.000)
M67 E0 Q0.000
M67 E2 Q0.000
G1 C360.000 F1.665278 (RING 8/24 R=39.3750 CSPD=599.50 E0=0.000 E2=0.000 QV=56.01)
M67 E0 Q0.000
M67 E2 Q0.000
G1 X2.5833 C5.000 F119.900000 (HOT LINK 8 CSPD=599.50 E0=0.000 E2=0.000)
M67 E0 Q0.000
M67 E2 Q0.000
G1 C360.000 F1.665278 (RING 9/24 R=41.9583 CSPD=599.50 E0=0.000 E2=0.000 QV=52.56)
M67 E0 Q0.000
M67 E2 Q0.000
G1 X2.5833 C5.000 F119.900000 (HOT LINK 9 CSPD=599.50 E0=0.000 E2=0.000)
M67 E0 Q0.000
M67 E2 Q0.000
G1 C360.000 F1.665278 (RING 10/24 R=44.5417 CSPD=599.50 E0=0.000 E2=0.000 QV=49.51)
M67 E0 Q0.000
M67 E2 Q0.000
G1 X2.5833 C5.000 F119.900000 (HOT LINK 10 CSPD=599.50 E0=0.000 E2=0.000)
M67 E0 Q0.000
M67 E2 Q0.000
G1 C360.000 F1.665278 (RING 11/24 R=47.1250 CSPD=599.50 E0=0.000 E2=0.000 QV=46.80)
M67 E0 Q0.000
M67 E2 Q0.000
G1 X2.5833 C5.000 F119.900000 (HOT LINK 11 CSPD=599.50 E0=0.000 E2=0.000)
M67 E0 Q0.000
M67 E2 Q0.000
G1 C360.000 F1.665278 (RING 12/24 R=49.7083 CSPD=599.50 E0=0.000 E2=0.000 QV=44.37)
M67 E0 Q0.000
M67 E2 Q0.000
G1 X2.5833 C5.000 F119.900000 (HOT LINK 12 CSPD=599.50 E0=0.000 E2=0.000)
M67 E0 Q0.000
M67 E2 Q0.000
G1 C360.000 F1.665278 (RING 13/24 R=52.2917 CSPD=599.50 E0=0.000 E2=0.000 QV=42.17)
M67 E0 Q0.000
M67 E2 Q0.000
G1 X2.5833 C5.000 F119.900000 (HOT LINK 13 CSPD=599.50 E0=0.000 E2=0.000)
M67 E0 Q0.000
M67 E2 Q0.000
G1 C360.000 F1.665278 (RING 14/24 R=54.8750 CSPD=599.50 E0=0.000 E2=0.000 QV=40.19)
M67 E0 Q0.000
M67 E2 Q0.000
G1 X2.5833 C5.000 F119.900000 (HOT LINK 14 CSPD=599.50 E0=0.000 E2=0.000)
M67 E0 Q0.000
M67 E2 Q0.000
G1 C360.000 F1.665278 (RING 15/24 R=57.4583 CSPD=599.50 E0=0.000 E2=0.000 QV=38.50)
M67 E0 Q0.000
M67 E2 Q0.000
G1 X2.5833 C5.000 F119.900000 (HOT LINK 15 CSPD=599.50 E0=0.000 E2=0.000)
M67 E0 Q0.000
M67 E2 Q0.000
G1 C360.000 F1.665278 (RING 16/24 R=60.0417 CSPD=599.50 E0=0.000 E2=0.000 QV=38.50)
M67 E0 Q0.000
M67 E2 Q0.000
G1 X2.5833 C5.000 F119.900000 (HOT LINK 16 CSPD=599.50 E0=0.000 E2=0.000)
M67 E0 Q0.000
M67 E2 Q0.000
G1 C360.000 F1.665278 (RING 17/24 R=62.6250 CSPD=599.50 E0=0.000 E2=0.000 QV=38.50)
M67 E0 Q0.000
M67 E2 Q0.000
G1 X2.5833 C5.000 F119.900000 (HOT LINK 17 CSPD=599.50 E0=0.000 E2=0.000)
M67 E0 Q0.000
M67 E2 Q0.000
G1 C360.000 F1.665278 (RING 18/24 R=65.2083 CSPD=599.50 E0=0.000 E2=0.000 QV=38.50)
M67 E0 Q0.000
M67 E2 Q0.000
G1 X2.5833 C5.000 F119.900000 (HOT LINK 18 CSPD=599.50 E0=0.000 E2=0.000)
M67 E0 Q0.000
M67 E2 Q0.000
G1 C360.000 F1.665278 (RING 19/24 R=67.7917 CSPD=599.50 E0=0.000 E2=0.000 QV=38.50)
M67 E0 Q0.000
M67 E2 Q0.000
G1 X2.5833 C5.000 F119.900000 (HOT LINK 19 CSPD=599.50 E0=0.000 E2=0.000)
M67 E0 Q0.000
M67 E2 Q0.000
G1 C360.000 F1.665278 (RING 20/24 R=70.3750 CSPD=599.50 E0=0.000 E2=0.000 QV=38.50)
M67 E0 Q0.000
M67 E2 Q0.000
G1 X2.5833 C5.000 F119.900000 (HOT LINK 20 CSPD=599.50 E0=0.000 E2=0.000)
M67 E0 Q0.000
M67 E2 Q0.000
G1 C360.000 F1.665278 (RING 21/24 R=72.9583 CSPD=599.50 E0=0.000 E2=0.000 QV=38.50)
M67 E0 Q0.000
M67 E2 Q0.000
G1 X2.5833 C5.000 F119.755299 (HOT LINK 21 CSPD=598.78 E0=0.000 E2=0.000)
M67 E0 Q0.000
M67 E2 Q0.000
G1 C360.000 F1.665278 (RING 22/24 R=75.5417 CSPD=599.50 E0=0.000 E2=0.000 QV=38.50)
M67 E0 Q0.000
M67 E2 Q0.000
G1 X2.5833 C5.000 F116.257198 (HOT LINK 22 CSPD=581.29 E0=0.000 E2=0.000)
M67 E0 Q0.000
M67 E2 Q0.000
G1 C360.000 F1.665278 (RING 23/24 R=78.1250 CSPD=599.50 E0=0.000 E2=0.000 QV=38.50)
M67 E0 Q0.000
M67 E2 Q0.000
G1 X2.5833 C5.000 F112.943680 (HOT LINK 23 CSPD=564.72 E0=0.000 E2=0.000)
M67 E0 Q0.000
M67 E2 Q0.000
G1 C360.000 F1.647313 (RING 24/24 R=80.7083 CSPD=593.03 E0=0.000 E2=0.000 QV=35.42)
(LAYER 6/32 Z=7.6667..9.2000 ZONE=FLANGE_NARROW DIR=inner_to_outer TRACKS=24 PITCH=2.5833 ADEP=3.9004 ACTIVE=14.6112min DWELL=0.0s)
M68 E2 Q0.000 (cold interlayer transition)
M68 E0 Q0.000
G1 X-59.4167 Z1.5333 C17.000 F35.264706
M67 E0 Q0.000 (synchronized layer hot state)
M67 E2 Q0.000
G1 C360.000 F1.665278 (RING 1/24 R=21.2917 CSPD=599.50 E0=0.000 E2=0.000 QV=103.58)
M67 E0 Q0.000
M67 E2 Q0.000
G1 X2.5833 C5.000 F119.900000 (HOT LINK 1 CSPD=599.50 E0=0.000 E2=0.000)
M67 E0 Q0.000
M67 E2 Q0.000
G1 C360.000 F1.665278 (RING 2/24 R=23.8750 CSPD=599.50 E0=0.000 E2=0.000 QV=92.37)
M67 E0 Q0.000
M67 E2 Q0.000
G1 X2.5833 C5.000 F119.900000 (HOT LINK 2 CSPD=599.50 E0=0.000 E2=0.000)
M67 E0 Q0.000
M67 E2 Q0.000
G1 C360.000 F1.665278 (RING 3/24 R=26.4583 CSPD=599.50 E0=0.000 E2=0.000 QV=83.35)
M67 E0 Q0.000
M67 E2 Q0.000
G1 X2.5833 C5.000 F119.900000 (HOT LINK 3 CSPD=599.50 E0=0.000 E2=0.000)
M67 E0 Q0.000
M67 E2 Q0.000
G1 C360.000 F1.665278 (RING 4/24 R=29.0417 CSPD=599.50 E0=0.000 E2=0.000 QV=75.94)
M67 E0 Q0.000
M67 E2 Q0.000
G1 X2.5833 C5.000 F119.900000 (HOT LINK 4 CSPD=599.50 E0=0.000 E2=0.000)
M67 E0 Q0.000
M67 E2 Q0.000
G1 C360.000 F1.665278 (RING 5/24 R=31.6250 CSPD=599.50 E0=0.000 E2=0.000 QV=69.73)
M67 E0 Q0.000
M67 E2 Q0.000
G1 X2.5833 C5.000 F119.900000 (HOT LINK 5 CSPD=599.50 E0=0.000 E2=0.000)
M67 E0 Q0.000
M67 E2 Q0.000
G1 C360.000 F1.665278 (RING 6/24 R=34.2083 CSPD=599.50 E0=0.000 E2=0.000 QV=64.47)
M67 E0 Q0.000
M67 E2 Q0.000
G1 X2.5833 C5.000 F119.900000 (HOT LINK 6 CSPD=599.50 E0=0.000 E2=0.000)
M67 E0 Q0.000
M67 E2 Q0.000
G1 C360.000 F1.665278 (RING 7/24 R=36.7917 CSPD=599.50 E0=0.000 E2=0.000 QV=59.94)
M67 E0 Q0.000
M67 E2 Q0.000
G1 X2.5833 C5.000 F119.900000 (HOT LINK 7 CSPD=599.50 E0=0.000 E2=0.000)
M67 E0 Q0.000
M67 E2 Q0.000
G1 C360.000 F1.665278 (RING 8/24 R=39.3750 CSPD=599.50 E0=0.000 E2=0.000 QV=56.01)
M67 E0 Q0.000
M67 E2 Q0.000
G1 X2.5833 C5.000 F119.900000 (HOT LINK 8 CSPD=599.50 E0=0.000 E2=0.000)
M67 E0 Q0.000
M67 E2 Q0.000
G1 C360.000 F1.665278 (RING 9/24 R=41.9583 CSPD=599.50 E0=0.000 E2=0.000 QV=52.56)
M67 E0 Q0.000
M67 E2 Q0.000
G1 X2.5833 C5.000 F119.900000 (HOT LINK 9 CSPD=599.50 E0=0.000 E2=0.000)
M67 E0 Q0.000
M67 E2 Q0.000
G1 C360.000 F1.665278 (RING 10/24 R=44.5417 CSPD=599.50 E0=0.000 E2=0.000 QV=49.51)
M67 E0 Q0.000
M67 E2 Q0.000
G1 X2.5833 C5.000 F119.900000 (HOT LINK 10 CSPD=599.50 E0=0.000 E2=0.000)
M67 E0 Q0.000
M67 E2 Q0.000
G1 C360.000 F1.665278 (RING 11/24 R=47.1250 CSPD=599.50 E0=0.000 E2=0.000 QV=46.80)
M67 E0 Q0.000
M67 E2 Q0.000
G1 X2.5833 C5.000 F119.900000 (HOT LINK 11 CSPD=599.50 E0=0.000 E2=0.000)
M67 E0 Q0.000
M67 E2 Q0.000
G1 C360.000 F1.665278 (RING 12/24 R=49.7083 CSPD=599.50 E0=0.000 E2=0.000 QV=44.37)
M67 E0 Q0.000
M67 E2 Q0.000
G1 X2.5833 C5.000 F119.900000 (HOT LINK 12 CSPD=599.50 E0=0.000 E2=0.000)
M67 E0 Q0.000
M67 E2 Q0.000
G1 C360.000 F1.665278 (RING 13/24 R=52.2917 CSPD=599.50 E0=0.000 E2=0.000 QV=42.17)
M67 E0 Q0.000
M67 E2 Q0.000
G1 X2.5833 C5.000 F119.900000 (HOT LINK 13 CSPD=599.50 E0=0.000 E2=0.000)
M67 E0 Q0.000
M67 E2 Q0.000
G1 C360.000 F1.665278 (RING 14/24 R=54.8750 CSPD=599.50 E0=0.000 E2=0.000 QV=40.19)
M67 E0 Q0.000
M67 E2 Q0.000
G1 X2.5833 C5.000 F119.900000 (HOT LINK 14 CSPD=599.50 E0=0.000 E2=0.000)
M67 E0 Q0.000
M67 E2 Q0.000
G1 C360.000 F1.665278 (RING 15/24 R=57.4583 CSPD=599.50 E0=0.000 E2=0.000 QV=38.50)
M67 E0 Q0.000
M67 E2 Q0.000
G1 X2.5833 C5.000 F119.900000 (HOT LINK 15 CSPD=599.50 E0=0.000 E2=0.000)
M67 E0 Q0.000
M67 E2 Q0.000
G1 C360.000 F1.665278 (RING 16/24 R=60.0417 CSPD=599.50 E0=0.000 E2=0.000 QV=38.50)
M67 E0 Q0.000
M67 E2 Q0.000
G1 X2.5833 C5.000 F119.900000 (HOT LINK 16 CSPD=599.50 E0=0.000 E2=0.000)
M67 E0 Q0.000
M67 E2 Q0.000
G1 C360.000 F1.665278 (RING 17/24 R=62.6250 CSPD=599.50 E0=0.000 E2=0.000 QV=38.50)
M67 E0 Q0.000
M67 E2 Q0.000
G1 X2.5833 C5.000 F119.900000 (HOT LINK 17 CSPD=599.50 E0=0.000 E2=0.000)
M67 E0 Q0.000
M67 E2 Q0.000
G1 C360.000 F1.665278 (RING 18/24 R=65.2083 CSPD=599.50 E0=0.000 E2=0.000 QV=38.50)
M67 E0 Q0.000
M67 E2 Q0.000
G1 X2.5833 C5.000 F119.900000 (HOT LINK 18 CSPD=599.50 E0=0.000 E2=0.000)
M67 E0 Q0.000
M67 E2 Q0.000
G1 C360.000 F1.665278 (RING 19/24 R=67.7917 CSPD=599.50 E0=0.000 E2=0.000 QV=38.50)
M67 E0 Q0.000
M67 E2 Q0.000
G1 X2.5833 C5.000 F119.900000 (HOT LINK 19 CSPD=599.50 E0=0.000 E2=0.000)
M67 E0 Q0.000
M67 E2 Q0.000
G1 C360.000 F1.665278 (RING 20/24 R=70.3750 CSPD=599.50 E0=0.000 E2=0.000 QV=38.50)
M67 E0 Q0.000
M67 E2 Q0.000
G1 X2.5833 C5.000 F119.900000 (HOT LINK 20 CSPD=599.50 E0=0.000 E2=0.000)
M67 E0 Q0.000
M67 E2 Q0.000
G1 C360.000 F1.665278 (RING 21/24 R=72.9583 CSPD=599.50 E0=0.000 E2=0.000 QV=38.50)
M67 E0 Q0.000
M67 E2 Q0.000
G1 X2.5833 C5.000 F119.755299 (HOT LINK 21 CSPD=598.78 E0=0.000 E2=0.000)
M67 E0 Q0.000
M67 E2 Q0.000
G1 C360.000 F1.665278 (RING 22/24 R=75.5417 CSPD=599.50 E0=0.000 E2=0.000 QV=38.50)
M67 E0 Q0.000
M67 E2 Q0.000
G1 X2.5833 C5.000 F116.257198 (HOT LINK 22 CSPD=581.29 E0=0.000 E2=0.000)
M67 E0 Q0.000
M67 E2 Q0.000
G1 C360.000 F1.665278 (RING 23/24 R=78.1250 CSPD=599.50 E0=0.000 E2=0.000 QV=38.50)
M67 E0 Q0.000
M67 E2 Q0.000
G1 X2.5833 C5.000 F112.943680 (HOT LINK 23 CSPD=564.72 E0=0.000 E2=0.000)
M67 E0 Q0.000
M67 E2 Q0.000
G1 C360.000 F1.647313 (RING 24/24 R=80.7083 CSPD=593.03 E0=0.000 E2=0.000 QV=35.42)
(LAYER 7/32 Z=9.2000..10.7333 ZONE=FLANGE_NARROW DIR=inner_to_outer TRACKS=24 PITCH=2.5833 ADEP=3.9004 ACTIVE=14.6112min DWELL=0.0s)
M68 E2 Q0.000 (cold interlayer transition)
M68 E0 Q0.000
G1 X-59.4167 Z1.5333 C17.000 F35.264706
M67 E0 Q0.000 (synchronized layer hot state)
M67 E2 Q0.000
G1 C360.000 F1.665278 (RING 1/24 R=21.2917 CSPD=599.50 E0=0.000 E2=0.000 QV=103.58)
M67 E0 Q0.000
M67 E2 Q0.000
G1 X2.5833 C5.000 F119.900000 (HOT LINK 1 CSPD=599.50 E0=0.000 E2=0.000)
M67 E0 Q0.000
M67 E2 Q0.000
G1 C360.000 F1.665278 (RING 2/24 R=23.8750 CSPD=599.50 E0=0.000 E2=0.000 QV=92.37)
M67 E0 Q0.000
M67 E2 Q0.000
G1 X2.5833 C5.000 F119.900000 (HOT LINK 2 CSPD=599.50 E0=0.000 E2=0.000)
M67 E0 Q0.000
M67 E2 Q0.000
G1 C360.000 F1.665278 (RING 3/24 R=26.4583 CSPD=599.50 E0=0.000 E2=0.000 QV=83.35)
M67 E0 Q0.000
M67 E2 Q0.000
G1 X2.5833 C5.000 F119.900000 (HOT LINK 3 CSPD=599.50 E0=0.000 E2=0.000)
M67 E0 Q0.000
M67 E2 Q0.000
G1 C360.000 F1.665278 (RING 4/24 R=29.0417 CSPD=599.50 E0=0.000 E2=0.000 QV=75.94)
M67 E0 Q0.000
M67 E2 Q0.000
G1 X2.5833 C5.000 F119.900000 (HOT LINK 4 CSPD=599.50 E0=0.000 E2=0.000)
M67 E0 Q0.000
M67 E2 Q0.000
G1 C360.000 F1.665278 (RING 5/24 R=31.6250 CSPD=599.50 E0=0.000 E2=0.000 QV=69.73)
M67 E0 Q0.000
M67 E2 Q0.000
G1 X2.5833 C5.000 F119.900000 (HOT LINK 5 CSPD=599.50 E0=0.000 E2=0.000)
M67 E0 Q0.000
M67 E2 Q0.000
G1 C360.000 F1.665278 (RING 6/24 R=34.2083 CSPD=599.50 E0=0.000 E2=0.000 QV=64.47)
M67 E0 Q0.000
M67 E2 Q0.000
G1 X2.5833 C5.000 F119.900000 (HOT LINK 6 CSPD=599.50 E0=0.000 E2=0.000)
M67 E0 Q0.000
M67 E2 Q0.000
G1 C360.000 F1.665278 (RING 7/24 R=36.7917 CSPD=599.50 E0=0.000 E2=0.000 QV=59.94)
M67 E0 Q0.000
M67 E2 Q0.000
G1 X2.5833 C5.000 F119.900000 (HOT LINK 7 CSPD=599.50 E0=0.000 E2=0.000)
M67 E0 Q0.000
M67 E2 Q0.000
G1 C360.000 F1.665278 (RING 8/24 R=39.3750 CSPD=599.50 E0=0.000 E2=0.000 QV=56.01)
M67 E0 Q0.000
M67 E2 Q0.000
G1 X2.5833 C5.000 F119.900000 (HOT LINK 8 CSPD=599.50 E0=0.000 E2=0.000)
M67 E0 Q0.000
M67 E2 Q0.000
G1 C360.000 F1.665278 (RING 9/24 R=41.9583 CSPD=599.50 E0=0.000 E2=0.000 QV=52.56)
M67 E0 Q0.000
M67 E2 Q0.000
G1 X2.5833 C5.000 F119.900000 (HOT LINK 9 CSPD=599.50 E0=0.000 E2=0.000)
M67 E0 Q0.000
M67 E2 Q0.000
G1 C360.000 F1.665278 (RING 10/24 R=44.5417 CSPD=599.50 E0=0.000 E2=0.000 QV=49.51)
M67 E0 Q0.000
M67 E2 Q0.000
G1 X2.5833 C5.000 F119.900000 (HOT LINK 10 CSPD=599.50 E0=0.000 E2=0.000)
M67 E0 Q0.000
M67 E2 Q0.000
G1 C360.000 F1.665278 (RING 11/24 R=47.1250 CSPD=599.50 E0=0.000 E2=0.000 QV=46.80)
M67 E0 Q0.000
M67 E2 Q0.000
G1 X2.5833 C5.000 F119.900000 (HOT LINK 11 CSPD=599.50 E0=0.000 E2=0.000)
M67 E0 Q0.000
M67 E2 Q0.000
G1 C360.000 F1.665278 (RING 12/24 R=49.7083 CSPD=599.50 E0=0.000 E2=0.000 QV=44.37)
M67 E0 Q0.000
M67 E2 Q0.000
G1 X2.5833 C5.000 F119.900000 (HOT LINK 12 CSPD=599.50 E0=0.000 E2=0.000)
M67 E0 Q0.000
M67 E2 Q0.000
G1 C360.000 F1.665278 (RING 13/24 R=52.2917 CSPD=599.50 E0=0.000 E2=0.000 QV=42.17)
M67 E0 Q0.000
M67 E2 Q0.000
G1 X2.5833 C5.000 F119.900000 (HOT LINK 13 CSPD=599.50 E0=0.000 E2=0.000)
M67 E0 Q0.000
M67 E2 Q0.000
G1 C360.000 F1.665278 (RING 14/24 R=54.8750 CSPD=599.50 E0=0.000 E2=0.000 QV=40.19)
M67 E0 Q0.000
M67 E2 Q0.000
G1 X2.5833 C5.000 F119.900000 (HOT LINK 14 CSPD=599.50 E0=0.000 E2=0.000)
M67 E0 Q0.000
M67 E2 Q0.000
G1 C360.000 F1.665278 (RING 15/24 R=57.4583 CSPD=599.50 E0=0.000 E2=0.000 QV=38.50)
M67 E0 Q0.000
M67 E2 Q0.000
G1 X2.5833 C5.000 F119.900000 (HOT LINK 15 CSPD=599.50 E0=0.000 E2=0.000)
M67 E0 Q0.000
M67 E2 Q0.000
G1 C360.000 F1.665278 (RING 16/24 R=60.0417 CSPD=599.50 E0=0.000 E2=0.000 QV=38.50)
M67 E0 Q0.000
M67 E2 Q0.000
G1 X2.5833 C5.000 F119.900000 (HOT LINK 16 CSPD=599.50 E0=0.000 E2=0.000)
M67 E0 Q0.000
M67 E2 Q0.000
G1 C360.000 F1.665278 (RING 17/24 R=62.6250 CSPD=599.50 E0=0.000 E2=0.000 QV=38.50)
M67 E0 Q0.000
M67 E2 Q0.000
G1 X2.5833 C5.000 F119.900000 (HOT LINK 17 CSPD=599.50 E0=0.000 E2=0.000)
M67 E0 Q0.000
M67 E2 Q0.000
G1 C360.000 F1.665278 (RING 18/24 R=65.2083 CSPD=599.50 E0=0.000 E2=0.000 QV=38.50)
M67 E0 Q0.000
M67 E2 Q0.000
G1 X2.5833 C5.000 F119.900000 (HOT LINK 18 CSPD=599.50 E0=0.000 E2=0.000)
M67 E0 Q0.000
M67 E2 Q0.000
G1 C360.000 F1.665278 (RING 19/24 R=67.7917 CSPD=599.50 E0=0.000 E2=0.000 QV=38.50)
M67 E0 Q0.000
M67 E2 Q0.000
G1 X2.5833 C5.000 F119.900000 (HOT LINK 19 CSPD=599.50 E0=0.000 E2=0.000)
M67 E0 Q0.000
M67 E2 Q0.000
G1 C360.000 F1.665278 (RING 20/24 R=70.3750 CSPD=599.50 E0=0.000 E2=0.000 QV=38.50)
M67 E0 Q0.000
M67 E2 Q0.000
G1 X2.5833 C5.000 F119.900000 (HOT LINK 20 CSPD=599.50 E0=0.000 E2=0.000)
M67 E0 Q0.000
M67 E2 Q0.000
G1 C360.000 F1.665278 (RING 21/24 R=72.9583 CSPD=599.50 E0=0.000 E2=0.000 QV=38.50)
M67 E0 Q0.000
M67 E2 Q0.000
G1 X2.5833 C5.000 F119.755299 (HOT LINK 21 CSPD=598.78 E0=0.000 E2=0.000)
M67 E0 Q0.000
M67 E2 Q0.000
G1 C360.000 F1.665278 (RING 22/24 R=75.5417 CSPD=599.50 E0=0.000 E2=0.000 QV=38.50)
M67 E0 Q0.000
M67 E2 Q0.000
G1 X2.5833 C5.000 F116.257198 (HOT LINK 22 CSPD=581.29 E0=0.000 E2=0.000)
M67 E0 Q0.000
M67 E2 Q0.000
G1 C360.000 F1.665278 (RING 23/24 R=78.1250 CSPD=599.50 E0=0.000 E2=0.000 QV=38.50)
M67 E0 Q0.000
M67 E2 Q0.000
G1 X2.5833 C5.000 F112.943680 (HOT LINK 23 CSPD=564.72 E0=0.000 E2=0.000)
M67 E0 Q0.000
M67 E2 Q0.000
G1 C360.000 F1.647313 (RING 24/24 R=80.7083 CSPD=593.03 E0=0.000 E2=0.000 QV=35.42)
(LAYER 8/32 Z=10.7333..12.2667 ZONE=FLANGE_NARROW DIR=inner_to_outer TRACKS=24 PITCH=2.5833 ADEP=3.9004 ACTIVE=14.6112min DWELL=0.0s)
M68 E2 Q0.000 (cold interlayer transition)
M68 E0 Q0.000
G1 X-59.4167 Z1.5333 C17.000 F35.264706
M67 E0 Q0.000 (synchronized layer hot state)
M67 E2 Q0.000
G1 C360.000 F1.665278 (RING 1/24 R=21.2917 CSPD=599.50 E0=0.000 E2=0.000 QV=103.58)
M67 E0 Q0.000
M67 E2 Q0.000
G1 X2.5833 C5.000 F119.900000 (HOT LINK 1 CSPD=599.50 E0=0.000 E2=0.000)
M67 E0 Q0.000
M67 E2 Q0.000
G1 C360.000 F1.665278 (RING 2/24 R=23.8750 CSPD=599.50 E0=0.000 E2=0.000 QV=92.37)
M67 E0 Q0.000
M67 E2 Q0.000
G1 X2.5833 C5.000 F119.900000 (HOT LINK 2 CSPD=599.50 E0=0.000 E2=0.000)
M67 E0 Q0.000
M67 E2 Q0.000
G1 C360.000 F1.665278 (RING 3/24 R=26.4583 CSPD=599.50 E0=0.000 E2=0.000 QV=83.35)
M67 E0 Q0.000
M67 E2 Q0.000
G1 X2.5833 C5.000 F119.900000 (HOT LINK 3 CSPD=599.50 E0=0.000 E2=0.000)
M67 E0 Q0.000
M67 E2 Q0.000
G1 C360.000 F1.665278 (RING 4/24 R=29.0417 CSPD=599.50 E0=0.000 E2=0.000 QV=75.94)
M67 E0 Q0.000
M67 E2 Q0.000
G1 X2.5833 C5.000 F119.900000 (HOT LINK 4 CSPD=599.50 E0=0.000 E2=0.000)
M67 E0 Q0.000
M67 E2 Q0.000
G1 C360.000 F1.665278 (RING 5/24 R=31.6250 CSPD=599.50 E0=0.000 E2=0.000 QV=69.73)
M67 E0 Q0.000
M67 E2 Q0.000
G1 X2.5833 C5.000 F119.900000 (HOT LINK 5 CSPD=599.50 E0=0.000 E2=0.000)
M67 E0 Q0.000
M67 E2 Q0.000
G1 C360.000 F1.665278 (RING 6/24 R=34.2083 CSPD=599.50 E0=0.000 E2=0.000 QV=64.47)
M67 E0 Q0.000
M67 E2 Q0.000
G1 X2.5833 C5.000 F119.900000 (HOT LINK 6 CSPD=599.50 E0=0.000 E2=0.000)
M67 E0 Q0.000
M67 E2 Q0.000
G1 C360.000 F1.665278 (RING 7/24 R=36.7917 CSPD=599.50 E0=0.000 E2=0.000 QV=59.94)
M67 E0 Q0.000
M67 E2 Q0.000
G1 X2.5833 C5.000 F119.900000 (HOT LINK 7 CSPD=599.50 E0=0.000 E2=0.000)
M67 E0 Q0.000
M67 E2 Q0.000
G1 C360.000 F1.665278 (RING 8/24 R=39.3750 CSPD=599.50 E0=0.000 E2=0.000 QV=56.01)
M67 E0 Q0.000
M67 E2 Q0.000
G1 X2.5833 C5.000 F119.900000 (HOT LINK 8 CSPD=599.50 E0=0.000 E2=0.000)
M67 E0 Q0.000
M67 E2 Q0.000
G1 C360.000 F1.665278 (RING 9/24 R=41.9583 CSPD=599.50 E0=0.000 E2=0.000 QV=52.56)
M67 E0 Q0.000
M67 E2 Q0.000
G1 X2.5833 C5.000 F119.900000 (HOT LINK 9 CSPD=599.50 E0=0.000 E2=0.000)
M67 E0 Q0.000
M67 E2 Q0.000
G1 C360.000 F1.665278 (RING 10/24 R=44.5417 CSPD=599.50 E0=0.000 E2=0.000 QV=49.51)
M67 E0 Q0.000
M67 E2 Q0.000
G1 X2.5833 C5.000 F119.900000 (HOT LINK 10 CSPD=599.50 E0=0.000 E2=0.000)
M67 E0 Q0.000
M67 E2 Q0.000
G1 C360.000 F1.665278 (RING 11/24 R=47.1250 CSPD=599.50 E0=0.000 E2=0.000 QV=46.80)
M67 E0 Q0.000
M67 E2 Q0.000
G1 X2.5833 C5.000 F119.900000 (HOT LINK 11 CSPD=599.50 E0=0.000 E2=0.000)
M67 E0 Q0.000
M67 E2 Q0.000
G1 C360.000 F1.665278 (RING 12/24 R=49.7083 CSPD=599.50 E0=0.000 E2=0.000 QV=44.37)
M67 E0 Q0.000
M67 E2 Q0.000
G1 X2.5833 C5.000 F119.900000 (HOT LINK 12 CSPD=599.50 E0=0.000 E2=0.000)
M67 E0 Q0.000
M67 E2 Q0.000
G1 C360.000 F1.665278 (RING 13/24 R=52.2917 CSPD=599.50 E0=0.000 E2=0.000 QV=42.17)
M67 E0 Q0.000
M67 E2 Q0.000
G1 X2.5833 C5.000 F119.900000 (HOT LINK 13 CSPD=599.50 E0=0.000 E2=0.000)
M67 E0 Q0.000
M67 E2 Q0.000
G1 C360.000 F1.665278 (RING 14/24 R=54.8750 CSPD=599.50 E0=0.000 E2=0.000 QV=40.19)
M67 E0 Q0.000
M67 E2 Q0.000
G1 X2.5833 C5.000 F119.900000 (HOT LINK 14 CSPD=599.50 E0=0.000 E2=0.000)
M67 E0 Q0.000
M67 E2 Q0.000
G1 C360.000 F1.665278 (RING 15/24 R=57.4583 CSPD=599.50 E0=0.000 E2=0.000 QV=38.50)
M67 E0 Q0.000
M67 E2 Q0.000
G1 X2.5833 C5.000 F119.900000 (HOT LINK 15 CSPD=599.50 E0=0.000 E2=0.000)
M67 E0 Q0.000
M67 E2 Q0.000
G1 C360.000 F1.665278 (RING 16/24 R=60.0417 CSPD=599.50 E0=0.000 E2=0.000 QV=38.50)
M67 E0 Q0.000
M67 E2 Q0.000
G1 X2.5833 C5.000 F119.900000 (HOT LINK 16 CSPD=599.50 E0=0.000 E2=0.000)
M67 E0 Q0.000
M67 E2 Q0.000
G1 C360.000 F1.665278 (RING 17/24 R=62.6250 CSPD=599.50 E0=0.000 E2=0.000 QV=38.50)
M67 E0 Q0.000
M67 E2 Q0.000
G1 X2.5833 C5.000 F119.900000 (HOT LINK 17 CSPD=599.50 E0=0.000 E2=0.000)
M67 E0 Q0.000
M67 E2 Q0.000
G1 C360.000 F1.665278 (RING 18/24 R=65.2083 CSPD=599.50 E0=0.000 E2=0.000 QV=38.50)
M67 E0 Q0.000
M67 E2 Q0.000
G1 X2.5833 C5.000 F119.900000 (HOT LINK 18 CSPD=599.50 E0=0.000 E2=0.000)
M67 E0 Q0.000
M67 E2 Q0.000
G1 C360.000 F1.665278 (RING 19/24 R=67.7917 CSPD=599.50 E0=0.000 E2=0.000 QV=38.50)
M67 E0 Q0.000
M67 E2 Q0.000
G1 X2.5833 C5.000 F119.900000 (HOT LINK 19 CSPD=599.50 E0=0.000 E2=0.000)
M67 E0 Q0.000
M67 E2 Q0.000
G1 C360.000 F1.665278 (RING 20/24 R=70.3750 CSPD=599.50 E0=0.000 E2=0.000 QV=38.50)
M67 E0 Q0.000
M67 E2 Q0.000
G1 X2.5833 C5.000 F119.900000 (HOT LINK 20 CSPD=599.50 E0=0.000 E2=0.000)
M67 E0 Q0.000
M67 E2 Q0.000
G1 C360.000 F1.665278 (RING 21/24 R=72.9583 CSPD=599.50 E0=0.000 E2=0.000 QV=38.50)
M67 E0 Q0.000
M67 E2 Q0.000
G1 X2.5833 C5.000 F119.755299 (HOT LINK 21 CSPD=598.78 E0=0.000 E2=0.000)
M67 E0 Q0.000
M67 E2 Q0.000
G1 C360.000 F1.665278 (RING 22/24 R=75.5417 CSPD=599.50 E0=0.000 E2=0.000 QV=38.50)
M67 E0 Q0.000
M67 E2 Q0.000
G1 X2.5833 C5.000 F116.257198 (HOT LINK 22 CSPD=581.29 E0=0.000 E2=0.000)
M67 E0 Q0.000
M67 E2 Q0.000
G1 C360.000 F1.665278 (RING 23/24 R=78.1250 CSPD=599.50 E0=0.000 E2=0.000 QV=38.50)
M67 E0 Q0.000
M67 E2 Q0.000
G1 X2.5833 C5.000 F112.943680 (HOT LINK 23 CSPD=564.72 E0=0.000 E2=0.000)
M67 E0 Q0.000
M67 E2 Q0.000
G1 C360.000 F1.647313 (RING 24/24 R=80.7083 CSPD=593.03 E0=0.000 E2=0.000 QV=35.42)
(LAYER 9/32 Z=12.2667..13.8000 ZONE=FLANGE_NARROW DIR=inner_to_outer TRACKS=24 PITCH=2.5833 ADEP=3.9004 ACTIVE=14.6112min DWELL=0.0s)
M68 E2 Q0.000 (cold interlayer transition)
M68 E0 Q0.000
G1 X-59.4167 Z1.5333 C17.000 F35.264706
M67 E0 Q0.000 (synchronized layer hot state)
M67 E2 Q0.000
G1 C360.000 F1.665278 (RING 1/24 R=21.2917 CSPD=599.50 E0=0.000 E2=0.000 QV=103.58)
M67 E0 Q0.000
M67 E2 Q0.000
G1 X2.5833 C5.000 F119.900000 (HOT LINK 1 CSPD=599.50 E0=0.000 E2=0.000)
M67 E0 Q0.000
M67 E2 Q0.000
G1 C360.000 F1.665278 (RING 2/24 R=23.8750 CSPD=599.50 E0=0.000 E2=0.000 QV=92.37)
M67 E0 Q0.000
M67 E2 Q0.000
G1 X2.5833 C5.000 F119.900000 (HOT LINK 2 CSPD=599.50 E0=0.000 E2=0.000)
M67 E0 Q0.000
M67 E2 Q0.000
G1 C360.000 F1.665278 (RING 3/24 R=26.4583 CSPD=599.50 E0=0.000 E2=0.000 QV=83.35)
M67 E0 Q0.000
M67 E2 Q0.000
G1 X2.5833 C5.000 F119.900000 (HOT LINK 3 CSPD=599.50 E0=0.000 E2=0.000)
M67 E0 Q0.000
M67 E2 Q0.000
G1 C360.000 F1.665278 (RING 4/24 R=29.0417 CSPD=599.50 E0=0.000 E2=0.000 QV=75.94)
M67 E0 Q0.000
M67 E2 Q0.000
G1 X2.5833 C5.000 F119.900000 (HOT LINK 4 CSPD=599.50 E0=0.000 E2=0.000)
M67 E0 Q0.000
M67 E2 Q0.000
G1 C360.000 F1.665278 (RING 5/24 R=31.6250 CSPD=599.50 E0=0.000 E2=0.000 QV=69.73)
M67 E0 Q0.000
M67 E2 Q0.000
G1 X2.5833 C5.000 F119.900000 (HOT LINK 5 CSPD=599.50 E0=0.000 E2=0.000)
M67 E0 Q0.000
M67 E2 Q0.000
G1 C360.000 F1.665278 (RING 6/24 R=34.2083 CSPD=599.50 E0=0.000 E2=0.000 QV=64.47)
M67 E0 Q0.000
M67 E2 Q0.000
G1 X2.5833 C5.000 F119.900000 (HOT LINK 6 CSPD=599.50 E0=0.000 E2=0.000)
M67 E0 Q0.000
M67 E2 Q0.000
G1 C360.000 F1.665278 (RING 7/24 R=36.7917 CSPD=599.50 E0=0.000 E2=0.000 QV=59.94)
M67 E0 Q0.000
M67 E2 Q0.000
G1 X2.5833 C5.000 F119.900000 (HOT LINK 7 CSPD=599.50 E0=0.000 E2=0.000)
M67 E0 Q0.000
M67 E2 Q0.000
G1 C360.000 F1.665278 (RING 8/24 R=39.3750 CSPD=599.50 E0=0.000 E2=0.000 QV=56.01)
M67 E0 Q0.000
M67 E2 Q0.000
G1 X2.5833 C5.000 F119.900000 (HOT LINK 8 CSPD=599.50 E0=0.000 E2=0.000)
M67 E0 Q0.000
M67 E2 Q0.000
G1 C360.000 F1.665278 (RING 9/24 R=41.9583 CSPD=599.50 E0=0.000 E2=0.000 QV=52.56)
M67 E0 Q0.000
M67 E2 Q0.000
G1 X2.5833 C5.000 F119.900000 (HOT LINK 9 CSPD=599.50 E0=0.000 E2=0.000)
M67 E0 Q0.000
M67 E2 Q0.000
G1 C360.000 F1.665278 (RING 10/24 R=44.5417 CSPD=599.50 E0=0.000 E2=0.000 QV=49.51)
M67 E0 Q0.000
M67 E2 Q0.000
G1 X2.5833 C5.000 F119.900000 (HOT LINK 10 CSPD=599.50 E0=0.000 E2=0.000)
M67 E0 Q0.000
M67 E2 Q0.000
G1 C360.000 F1.665278 (RING 11/24 R=47.1250 CSPD=599.50 E0=0.000 E2=0.000 QV=46.80)
M67 E0 Q0.000
M67 E2 Q0.000
G1 X2.5833 C5.000 F119.900000 (HOT LINK 11 CSPD=599.50 E0=0.000 E2=0.000)
M67 E0 Q0.000
M67 E2 Q0.000
G1 C360.000 F1.665278 (RING 12/24 R=49.7083 CSPD=599.50 E0=0.000 E2=0.000 QV=44.37)
M67 E0 Q0.000
M67 E2 Q0.000
G1 X2.5833 C5.000 F119.900000 (HOT LINK 12 CSPD=599.50 E0=0.000 E2=0.000)
M67 E0 Q0.000
M67 E2 Q0.000
G1 C360.000 F1.665278 (RING 13/24 R=52.2917 CSPD=599.50 E0=0.000 E2=0.000 QV=42.17)
M67 E0 Q0.000
M67 E2 Q0.000
G1 X2.5833 C5.000 F119.900000 (HOT LINK 13 CSPD=599.50 E0=0.000 E2=0.000)
M67 E0 Q0.000
M67 E2 Q0.000
G1 C360.000 F1.665278 (RING 14/24 R=54.8750 CSPD=599.50 E0=0.000 E2=0.000 QV=40.19)
M67 E0 Q0.000
M67 E2 Q0.000
G1 X2.5833 C5.000 F119.900000 (HOT LINK 14 CSPD=599.50 E0=0.000 E2=0.000)
M67 E0 Q0.000
M67 E2 Q0.000
G1 C360.000 F1.665278 (RING 15/24 R=57.4583 CSPD=599.50 E0=0.000 E2=0.000 QV=38.50)
M67 E0 Q0.000
M67 E2 Q0.000
G1 X2.5833 C5.000 F119.900000 (HOT LINK 15 CSPD=599.50 E0=0.000 E2=0.000)
M67 E0 Q0.000
M67 E2 Q0.000
G1 C360.000 F1.665278 (RING 16/24 R=60.0417 CSPD=599.50 E0=0.000 E2=0.000 QV=38.50)
M67 E0 Q0.000
M67 E2 Q0.000
G1 X2.5833 C5.000 F119.900000 (HOT LINK 16 CSPD=599.50 E0=0.000 E2=0.000)
M67 E0 Q0.000
M67 E2 Q0.000
G1 C360.000 F1.665278 (RING 17/24 R=62.6250 CSPD=599.50 E0=0.000 E2=0.000 QV=38.50)
M67 E0 Q0.000
M67 E2 Q0.000
G1 X2.5833 C5.000 F119.900000 (HOT LINK 17 CSPD=599.50 E0=0.000 E2=0.000)
M67 E0 Q0.000
M67 E2 Q0.000
G1 C360.000 F1.665278 (RING 18/24 R=65.2083 CSPD=599.50 E0=0.000 E2=0.000 QV=38.50)
M67 E0 Q0.000
M67 E2 Q0.000
G1 X2.5833 C5.000 F119.900000 (HOT LINK 18 CSPD=599.50 E0=0.000 E2=0.000)
M67 E0 Q0.000
M67 E2 Q0.000
G1 C360.000 F1.665278 (RING 19/24 R=67.7917 CSPD=599.50 E0=0.000 E2=0.000 QV=38.50)
M67 E0 Q0.000
M67 E2 Q0.000
G1 X2.5833 C5.000 F119.900000 (HOT LINK 19 CSPD=599.50 E0=0.000 E2=0.000)
M67 E0 Q0.000
M67 E2 Q0.000
G1 C360.000 F1.665278 (RING 20/24 R=70.3750 CSPD=599.50 E0=0.000 E2=0.000 QV=38.50)
M67 E0 Q0.000
M67 E2 Q0.000
G1 X2.5833 C5.000 F119.900000 (HOT LINK 20 CSPD=599.50 E0=0.000 E2=0.000)
M67 E0 Q0.000
M67 E2 Q0.000
G1 C360.000 F1.665278 (RING 21/24 R=72.9583 CSPD=599.50 E0=0.000 E2=0.000 QV=38.50)
M67 E0 Q0.000
M67 E2 Q0.000
G1 X2.5833 C5.000 F119.755299 (HOT LINK 21 CSPD=598.78 E0=0.000 E2=0.000)
M67 E0 Q0.000
M67 E2 Q0.000
G1 C360.000 F1.665278 (RING 22/24 R=75.5417 CSPD=599.50 E0=0.000 E2=0.000 QV=38.50)
M67 E0 Q0.000
M67 E2 Q0.000
G1 X2.5833 C5.000 F116.257198 (HOT LINK 22 CSPD=581.29 E0=0.000 E2=0.000)
M67 E0 Q0.000
M67 E2 Q0.000
G1 C360.000 F1.665278 (RING 23/24 R=78.1250 CSPD=599.50 E0=0.000 E2=0.000 QV=38.50)
M67 E0 Q0.000
M67 E2 Q0.000
G1 X2.5833 C5.000 F112.943680 (HOT LINK 23 CSPD=564.72 E0=0.000 E2=0.000)
M67 E0 Q0.000
M67 E2 Q0.000
G1 C360.000 F1.647313 (RING 24/24 R=80.7083 CSPD=593.03 E0=0.000 E2=0.000 QV=35.42)
(LAYER 10/32 Z=13.8000..15.3333 ZONE=FLANGE_NARROW DIR=inner_to_outer TRACKS=24 PITCH=2.5833 ADEP=3.9004 ACTIVE=14.6112min DWELL=0.0s)
M68 E2 Q0.000 (cold interlayer transition)
M68 E0 Q0.000
G1 X-59.4167 Z1.5333 C17.000 F35.264706
M67 E0 Q0.000 (synchronized layer hot state)
M67 E2 Q0.000
G1 C360.000 F1.665278 (RING 1/24 R=21.2917 CSPD=599.50 E0=0.000 E2=0.000 QV=103.58)
M67 E0 Q0.000
M67 E2 Q0.000
G1 X2.5833 C5.000 F119.900000 (HOT LINK 1 CSPD=599.50 E0=0.000 E2=0.000)
M67 E0 Q0.000
M67 E2 Q0.000
G1 C360.000 F1.665278 (RING 2/24 R=23.8750 CSPD=599.50 E0=0.000 E2=0.000 QV=92.37)
M67 E0 Q0.000
M67 E2 Q0.000
G1 X2.5833 C5.000 F119.900000 (HOT LINK 2 CSPD=599.50 E0=0.000 E2=0.000)
M67 E0 Q0.000
M67 E2 Q0.000
G1 C360.000 F1.665278 (RING 3/24 R=26.4583 CSPD=599.50 E0=0.000 E2=0.000 QV=83.35)
M67 E0 Q0.000
M67 E2 Q0.000
G1 X2.5833 C5.000 F119.900000 (HOT LINK 3 CSPD=599.50 E0=0.000 E2=0.000)
M67 E0 Q0.000
M67 E2 Q0.000
G1 C360.000 F1.665278 (RING 4/24 R=29.0417 CSPD=599.50 E0=0.000 E2=0.000 QV=75.94)
M67 E0 Q0.000
M67 E2 Q0.000
G1 X2.5833 C5.000 F119.900000 (HOT LINK 4 CSPD=599.50 E0=0.000 E2=0.000)
M67 E0 Q0.000
M67 E2 Q0.000
G1 C360.000 F1.665278 (RING 5/24 R=31.6250 CSPD=599.50 E0=0.000 E2=0.000 QV=69.73)
M67 E0 Q0.000
M67 E2 Q0.000
G1 X2.5833 C5.000 F119.900000 (HOT LINK 5 CSPD=599.50 E0=0.000 E2=0.000)
M67 E0 Q0.000
M67 E2 Q0.000
G1 C360.000 F1.665278 (RING 6/24 R=34.2083 CSPD=599.50 E0=0.000 E2=0.000 QV=64.47)
M67 E0 Q0.000
M67 E2 Q0.000
G1 X2.5833 C5.000 F119.900000 (HOT LINK 6 CSPD=599.50 E0=0.000 E2=0.000)
M67 E0 Q0.000
M67 E2 Q0.000
G1 C360.000 F1.665278 (RING 7/24 R=36.7917 CSPD=599.50 E0=0.000 E2=0.000 QV=59.94)
M67 E0 Q0.000
M67 E2 Q0.000
G1 X2.5833 C5.000 F119.900000 (HOT LINK 7 CSPD=599.50 E0=0.000 E2=0.000)
M67 E0 Q0.000
M67 E2 Q0.000
G1 C360.000 F1.665278 (RING 8/24 R=39.3750 CSPD=599.50 E0=0.000 E2=0.000 QV=56.01)
M67 E0 Q0.000
M67 E2 Q0.000
G1 X2.5833 C5.000 F119.900000 (HOT LINK 8 CSPD=599.50 E0=0.000 E2=0.000)
M67 E0 Q0.000
M67 E2 Q0.000
G1 C360.000 F1.665278 (RING 9/24 R=41.9583 CSPD=599.50 E0=0.000 E2=0.000 QV=52.56)
M67 E0 Q0.000
M67 E2 Q0.000
G1 X2.5833 C5.000 F119.900000 (HOT LINK 9 CSPD=599.50 E0=0.000 E2=0.000)
M67 E0 Q0.000
M67 E2 Q0.000
G1 C360.000 F1.665278 (RING 10/24 R=44.5417 CSPD=599.50 E0=0.000 E2=0.000 QV=49.51)
M67 E0 Q0.000
M67 E2 Q0.000
G1 X2.5833 C5.000 F119.900000 (HOT LINK 10 CSPD=599.50 E0=0.000 E2=0.000)
M67 E0 Q0.000
M67 E2 Q0.000
G1 C360.000 F1.665278 (RING 11/24 R=47.1250 CSPD=599.50 E0=0.000 E2=0.000 QV=46.80)
M67 E0 Q0.000
M67 E2 Q0.000
G1 X2.5833 C5.000 F119.900000 (HOT LINK 11 CSPD=599.50 E0=0.000 E2=0.000)
M67 E0 Q0.000
M67 E2 Q0.000
G1 C360.000 F1.665278 (RING 12/24 R=49.7083 CSPD=599.50 E0=0.000 E2=0.000 QV=44.37)
M67 E0 Q0.000
M67 E2 Q0.000
G1 X2.5833 C5.000 F119.900000 (HOT LINK 12 CSPD=599.50 E0=0.000 E2=0.000)
M67 E0 Q0.000
M67 E2 Q0.000
G1 C360.000 F1.665278 (RING 13/24 R=52.2917 CSPD=599.50 E0=0.000 E2=0.000 QV=42.17)
M67 E0 Q0.000
M67 E2 Q0.000
G1 X2.5833 C5.000 F119.900000 (HOT LINK 13 CSPD=599.50 E0=0.000 E2=0.000)
M67 E0 Q0.000
M67 E2 Q0.000
G1 C360.000 F1.665278 (RING 14/24 R=54.8750 CSPD=599.50 E0=0.000 E2=0.000 QV=40.19)
M67 E0 Q0.000
M67 E2 Q0.000
G1 X2.5833 C5.000 F119.900000 (HOT LINK 14 CSPD=599.50 E0=0.000 E2=0.000)
M67 E0 Q0.000
M67 E2 Q0.000
G1 C360.000 F1.665278 (RING 15/24 R=57.4583 CSPD=599.50 E0=0.000 E2=0.000 QV=38.50)
M67 E0 Q0.000
M67 E2 Q0.000
G1 X2.5833 C5.000 F119.900000 (HOT LINK 15 CSPD=599.50 E0=0.000 E2=0.000)
M67 E0 Q0.000
M67 E2 Q0.000
G1 C360.000 F1.665278 (RING 16/24 R=60.0417 CSPD=599.50 E0=0.000 E2=0.000 QV=38.50)
M67 E0 Q0.000
M67 E2 Q0.000
G1 X2.5833 C5.000 F119.900000 (HOT LINK 16 CSPD=599.50 E0=0.000 E2=0.000)
M67 E0 Q0.000
M67 E2 Q0.000
G1 C360.000 F1.665278 (RING 17/24 R=62.6250 CSPD=599.50 E0=0.000 E2=0.000 QV=38.50)
M67 E0 Q0.000
M67 E2 Q0.000
G1 X2.5833 C5.000 F119.900000 (HOT LINK 17 CSPD=599.50 E0=0.000 E2=0.000)
M67 E0 Q0.000
M67 E2 Q0.000
G1 C360.000 F1.665278 (RING 18/24 R=65.2083 CSPD=599.50 E0=0.000 E2=0.000 QV=38.50)
M67 E0 Q0.000
M67 E2 Q0.000
G1 X2.5833 C5.000 F119.900000 (HOT LINK 18 CSPD=599.50 E0=0.000 E2=0.000)
M67 E0 Q0.000
M67 E2 Q0.000
G1 C360.000 F1.665278 (RING 19/24 R=67.7917 CSPD=599.50 E0=0.000 E2=0.000 QV=38.50)
M67 E0 Q0.000
M67 E2 Q0.000
G1 X2.5833 C5.000 F119.900000 (HOT LINK 19 CSPD=599.50 E0=0.000 E2=0.000)
M67 E0 Q0.000
M67 E2 Q0.000
G1 C360.000 F1.665278 (RING 20/24 R=70.3750 CSPD=599.50 E0=0.000 E2=0.000 QV=38.50)
M67 E0 Q0.000
M67 E2 Q0.000
G1 X2.5833 C5.000 F119.900000 (HOT LINK 20 CSPD=599.50 E0=0.000 E2=0.000)
M67 E0 Q0.000
M67 E2 Q0.000
G1 C360.000 F1.665278 (RING 21/24 R=72.9583 CSPD=599.50 E0=0.000 E2=0.000 QV=38.50)
M67 E0 Q0.000
M67 E2 Q0.000
G1 X2.5833 C5.000 F119.755299 (HOT LINK 21 CSPD=598.78 E0=0.000 E2=0.000)
M67 E0 Q0.000
M67 E2 Q0.000
G1 C360.000 F1.665278 (RING 22/24 R=75.5417 CSPD=599.50 E0=0.000 E2=0.000 QV=38.50)
M67 E0 Q0.000
M67 E2 Q0.000
G1 X2.5833 C5.000 F116.257198 (HOT LINK 22 CSPD=581.29 E0=0.000 E2=0.000)
M67 E0 Q0.000
M67 E2 Q0.000
G1 C360.000 F1.665278 (RING 23/24 R=78.1250 CSPD=599.50 E0=0.000 E2=0.000 QV=38.50)
M67 E0 Q0.000
M67 E2 Q0.000
G1 X2.5833 C5.000 F112.943680 (HOT LINK 23 CSPD=564.72 E0=0.000 E2=0.000)
M67 E0 Q0.000
M67 E2 Q0.000
G1 C360.000 F1.647313 (RING 24/24 R=80.7083 CSPD=593.03 E0=0.000 E2=0.000 QV=35.42)
(LAYER 11/32 Z=15.3333..16.8667 ZONE=FLANGE_NARROW DIR=inner_to_outer TRACKS=24 PITCH=2.5833 ADEP=3.9004 ACTIVE=14.6112min DWELL=0.0s)
M68 E2 Q0.000 (cold interlayer transition)
M68 E0 Q0.000
G1 X-59.4167 Z1.5333 C17.000 F35.264706
M67 E0 Q0.000 (synchronized layer hot state)
M67 E2 Q0.000
G1 C360.000 F1.665278 (RING 1/24 R=21.2917 CSPD=599.50 E0=0.000 E2=0.000 QV=103.58)
M67 E0 Q0.000
M67 E2 Q0.000
G1 X2.5833 C5.000 F119.900000 (HOT LINK 1 CSPD=599.50 E0=0.000 E2=0.000)
M67 E0 Q0.000
M67 E2 Q0.000
G1 C360.000 F1.665278 (RING 2/24 R=23.8750 CSPD=599.50 E0=0.000 E2=0.000 QV=92.37)
M67 E0 Q0.000
M67 E2 Q0.000
G1 X2.5833 C5.000 F119.900000 (HOT LINK 2 CSPD=599.50 E0=0.000 E2=0.000)
M67 E0 Q0.000
M67 E2 Q0.000
G1 C360.000 F1.665278 (RING 3/24 R=26.4583 CSPD=599.50 E0=0.000 E2=0.000 QV=83.35)
M67 E0 Q0.000
M67 E2 Q0.000
G1 X2.5833 C5.000 F119.900000 (HOT LINK 3 CSPD=599.50 E0=0.000 E2=0.000)
M67 E0 Q0.000
M67 E2 Q0.000
G1 C360.000 F1.665278 (RING 4/24 R=29.0417 CSPD=599.50 E0=0.000 E2=0.000 QV=75.94)
M67 E0 Q0.000
M67 E2 Q0.000
G1 X2.5833 C5.000 F119.900000 (HOT LINK 4 CSPD=599.50 E0=0.000 E2=0.000)
M67 E0 Q0.000
M67 E2 Q0.000
G1 C360.000 F1.665278 (RING 5/24 R=31.6250 CSPD=599.50 E0=0.000 E2=0.000 QV=69.73)
M67 E0 Q0.000
M67 E2 Q0.000
G1 X2.5833 C5.000 F119.900000 (HOT LINK 5 CSPD=599.50 E0=0.000 E2=0.000)
M67 E0 Q0.000
M67 E2 Q0.000
G1 C360.000 F1.665278 (RING 6/24 R=34.2083 CSPD=599.50 E0=0.000 E2=0.000 QV=64.47)
M67 E0 Q0.000
M67 E2 Q0.000
G1 X2.5833 C5.000 F119.900000 (HOT LINK 6 CSPD=599.50 E0=0.000 E2=0.000)
M67 E0 Q0.000
M67 E2 Q0.000
G1 C360.000 F1.665278 (RING 7/24 R=36.7917 CSPD=599.50 E0=0.000 E2=0.000 QV=59.94)
M67 E0 Q0.000
M67 E2 Q0.000
G1 X2.5833 C5.000 F119.900000 (HOT LINK 7 CSPD=599.50 E0=0.000 E2=0.000)
M67 E0 Q0.000
M67 E2 Q0.000
G1 C360.000 F1.665278 (RING 8/24 R=39.3750 CSPD=599.50 E0=0.000 E2=0.000 QV=56.01)
M67 E0 Q0.000
M67 E2 Q0.000
G1 X2.5833 C5.000 F119.900000 (HOT LINK 8 CSPD=599.50 E0=0.000 E2=0.000)
M67 E0 Q0.000
M67 E2 Q0.000
G1 C360.000 F1.665278 (RING 9/24 R=41.9583 CSPD=599.50 E0=0.000 E2=0.000 QV=52.56)
M67 E0 Q0.000
M67 E2 Q0.000
G1 X2.5833 C5.000 F119.900000 (HOT LINK 9 CSPD=599.50 E0=0.000 E2=0.000)
M67 E0 Q0.000
M67 E2 Q0.000
G1 C360.000 F1.665278 (RING 10/24 R=44.5417 CSPD=599.50 E0=0.000 E2=0.000 QV=49.51)
M67 E0 Q0.000
M67 E2 Q0.000
G1 X2.5833 C5.000 F119.900000 (HOT LINK 10 CSPD=599.50 E0=0.000 E2=0.000)
M67 E0 Q0.000
M67 E2 Q0.000
G1 C360.000 F1.665278 (RING 11/24 R=47.1250 CSPD=599.50 E0=0.000 E2=0.000 QV=46.80)
M67 E0 Q0.000
M67 E2 Q0.000
G1 X2.5833 C5.000 F119.900000 (HOT LINK 11 CSPD=599.50 E0=0.000 E2=0.000)
M67 E0 Q0.000
M67 E2 Q0.000
G1 C360.000 F1.665278 (RING 12/24 R=49.7083 CSPD=599.50 E0=0.000 E2=0.000 QV=44.37)
M67 E0 Q0.000
M67 E2 Q0.000
G1 X2.5833 C5.000 F119.900000 (HOT LINK 12 CSPD=599.50 E0=0.000 E2=0.000)
M67 E0 Q0.000
M67 E2 Q0.000
G1 C360.000 F1.665278 (RING 13/24 R=52.2917 CSPD=599.50 E0=0.000 E2=0.000 QV=42.17)
M67 E0 Q0.000
M67 E2 Q0.000
G1 X2.5833 C5.000 F119.900000 (HOT LINK 13 CSPD=599.50 E0=0.000 E2=0.000)
M67 E0 Q0.000
M67 E2 Q0.000
G1 C360.000 F1.665278 (RING 14/24 R=54.8750 CSPD=599.50 E0=0.000 E2=0.000 QV=40.19)
M67 E0 Q0.000
M67 E2 Q0.000
G1 X2.5833 C5.000 F119.900000 (HOT LINK 14 CSPD=599.50 E0=0.000 E2=0.000)
M67 E0 Q0.000
M67 E2 Q0.000
G1 C360.000 F1.665278 (RING 15/24 R=57.4583 CSPD=599.50 E0=0.000 E2=0.000 QV=38.50)
M67 E0 Q0.000
M67 E2 Q0.000
G1 X2.5833 C5.000 F119.900000 (HOT LINK 15 CSPD=599.50 E0=0.000 E2=0.000)
M67 E0 Q0.000
M67 E2 Q0.000
G1 C360.000 F1.665278 (RING 16/24 R=60.0417 CSPD=599.50 E0=0.000 E2=0.000 QV=38.50)
M67 E0 Q0.000
M67 E2 Q0.000
G1 X2.5833 C5.000 F119.900000 (HOT LINK 16 CSPD=599.50 E0=0.000 E2=0.000)
M67 E0 Q0.000
M67 E2 Q0.000
G1 C360.000 F1.665278 (RING 17/24 R=62.6250 CSPD=599.50 E0=0.000 E2=0.000 QV=38.50)
M67 E0 Q0.000
M67 E2 Q0.000
G1 X2.5833 C5.000 F119.900000 (HOT LINK 17 CSPD=599.50 E0=0.000 E2=0.000)
M67 E0 Q0.000
M67 E2 Q0.000
G1 C360.000 F1.665278 (RING 18/24 R=65.2083 CSPD=599.50 E0=0.000 E2=0.000 QV=38.50)
M67 E0 Q0.000
M67 E2 Q0.000
G1 X2.5833 C5.000 F119.900000 (HOT LINK 18 CSPD=599.50 E0=0.000 E2=0.000)
M67 E0 Q0.000
M67 E2 Q0.000
G1 C360.000 F1.665278 (RING 19/24 R=67.7917 CSPD=599.50 E0=0.000 E2=0.000 QV=38.50)
M67 E0 Q0.000
M67 E2 Q0.000
G1 X2.5833 C5.000 F119.900000 (HOT LINK 19 CSPD=599.50 E0=0.000 E2=0.000)
M67 E0 Q0.000
M67 E2 Q0.000
G1 C360.000 F1.665278 (RING 20/24 R=70.3750 CSPD=599.50 E0=0.000 E2=0.000 QV=38.50)
M67 E0 Q0.000
M67 E2 Q0.000
G1 X2.5833 C5.000 F119.900000 (HOT LINK 20 CSPD=599.50 E0=0.000 E2=0.000)
M67 E0 Q0.000
M67 E2 Q0.000
G1 C360.000 F1.665278 (RING 21/24 R=72.9583 CSPD=599.50 E0=0.000 E2=0.000 QV=38.50)
M67 E0 Q0.000
M67 E2 Q0.000
G1 X2.5833 C5.000 F119.755299 (HOT LINK 21 CSPD=598.78 E0=0.000 E2=0.000)
M67 E0 Q0.000
M67 E2 Q0.000
G1 C360.000 F1.665278 (RING 22/24 R=75.5417 CSPD=599.50 E0=0.000 E2=0.000 QV=38.50)
M67 E0 Q0.000
M67 E2 Q0.000
G1 X2.5833 C5.000 F116.257198 (HOT LINK 22 CSPD=581.29 E0=0.000 E2=0.000)
M67 E0 Q0.000
M67 E2 Q0.000
G1 C360.000 F1.665278 (RING 23/24 R=78.1250 CSPD=599.50 E0=0.000 E2=0.000 QV=38.50)
M67 E0 Q0.000
M67 E2 Q0.000
G1 X2.5833 C5.000 F112.943680 (HOT LINK 23 CSPD=564.72 E0=0.000 E2=0.000)
M67 E0 Q0.000
M67 E2 Q0.000
G1 C360.000 F1.647313 (RING 24/24 R=80.7083 CSPD=593.03 E0=0.000 E2=0.000 QV=35.42)
(LAYER 12/32 Z=16.8667..18.4000 ZONE=FLANGE_NARROW DIR=inner_to_outer TRACKS=24 PITCH=2.5833 ADEP=3.9004 ACTIVE=14.6112min DWELL=0.0s)
M68 E2 Q0.000 (cold interlayer transition)
M68 E0 Q0.000
G1 X-59.4167 Z1.5333 C17.000 F35.264706
M67 E0 Q0.000 (synchronized layer hot state)
M67 E2 Q0.000
G1 C360.000 F1.665278 (RING 1/24 R=21.2917 CSPD=599.50 E0=0.000 E2=0.000 QV=103.58)
M67 E0 Q0.000
M67 E2 Q0.000
G1 X2.5833 C5.000 F119.900000 (HOT LINK 1 CSPD=599.50 E0=0.000 E2=0.000)
M67 E0 Q0.000
M67 E2 Q0.000
G1 C360.000 F1.665278 (RING 2/24 R=23.8750 CSPD=599.50 E0=0.000 E2=0.000 QV=92.37)
M67 E0 Q0.000
M67 E2 Q0.000
G1 X2.5833 C5.000 F119.900000 (HOT LINK 2 CSPD=599.50 E0=0.000 E2=0.000)
M67 E0 Q0.000
M67 E2 Q0.000
G1 C360.000 F1.665278 (RING 3/24 R=26.4583 CSPD=599.50 E0=0.000 E2=0.000 QV=83.35)
M67 E0 Q0.000
M67 E2 Q0.000
G1 X2.5833 C5.000 F119.900000 (HOT LINK 3 CSPD=599.50 E0=0.000 E2=0.000)
M67 E0 Q0.000
M67 E2 Q0.000
G1 C360.000 F1.665278 (RING 4/24 R=29.0417 CSPD=599.50 E0=0.000 E2=0.000 QV=75.94)
M67 E0 Q0.000
M67 E2 Q0.000
G1 X2.5833 C5.000 F119.900000 (HOT LINK 4 CSPD=599.50 E0=0.000 E2=0.000)
M67 E0 Q0.000
M67 E2 Q0.000
G1 C360.000 F1.665278 (RING 5/24 R=31.6250 CSPD=599.50 E0=0.000 E2=0.000 QV=69.73)
M67 E0 Q0.000
M67 E2 Q0.000
G1 X2.5833 C5.000 F119.900000 (HOT LINK 5 CSPD=599.50 E0=0.000 E2=0.000)
M67 E0 Q0.000
M67 E2 Q0.000
G1 C360.000 F1.665278 (RING 6/24 R=34.2083 CSPD=599.50 E0=0.000 E2=0.000 QV=64.47)
M67 E0 Q0.000
M67 E2 Q0.000
G1 X2.5833 C5.000 F119.900000 (HOT LINK 6 CSPD=599.50 E0=0.000 E2=0.000)
M67 E0 Q0.000
M67 E2 Q0.000
G1 C360.000 F1.665278 (RING 7/24 R=36.7917 CSPD=599.50 E0=0.000 E2=0.000 QV=59.94)
M67 E0 Q0.000
M67 E2 Q0.000
G1 X2.5833 C5.000 F119.900000 (HOT LINK 7 CSPD=599.50 E0=0.000 E2=0.000)
M67 E0 Q0.000
M67 E2 Q0.000
G1 C360.000 F1.665278 (RING 8/24 R=39.3750 CSPD=599.50 E0=0.000 E2=0.000 QV=56.01)
M67 E0 Q0.000
M67 E2 Q0.000
G1 X2.5833 C5.000 F119.900000 (HOT LINK 8 CSPD=599.50 E0=0.000 E2=0.000)
M67 E0 Q0.000
M67 E2 Q0.000
G1 C360.000 F1.665278 (RING 9/24 R=41.9583 CSPD=599.50 E0=0.000 E2=0.000 QV=52.56)
M67 E0 Q0.000
M67 E2 Q0.000
G1 X2.5833 C5.000 F119.900000 (HOT LINK 9 CSPD=599.50 E0=0.000 E2=0.000)
M67 E0 Q0.000
M67 E2 Q0.000
G1 C360.000 F1.665278 (RING 10/24 R=44.5417 CSPD=599.50 E0=0.000 E2=0.000 QV=49.51)
M67 E0 Q0.000
M67 E2 Q0.000
G1 X2.5833 C5.000 F119.900000 (HOT LINK 10 CSPD=599.50 E0=0.000 E2=0.000)
M67 E0 Q0.000
M67 E2 Q0.000
G1 C360.000 F1.665278 (RING 11/24 R=47.1250 CSPD=599.50 E0=0.000 E2=0.000 QV=46.80)
M67 E0 Q0.000
M67 E2 Q0.000
G1 X2.5833 C5.000 F119.900000 (HOT LINK 11 CSPD=599.50 E0=0.000 E2=0.000)
M67 E0 Q0.000
M67 E2 Q0.000
G1 C360.000 F1.665278 (RING 12/24 R=49.7083 CSPD=599.50 E0=0.000 E2=0.000 QV=44.37)
M67 E0 Q0.000
M67 E2 Q0.000
G1 X2.5833 C5.000 F119.900000 (HOT LINK 12 CSPD=599.50 E0=0.000 E2=0.000)
M67 E0 Q0.000
M67 E2 Q0.000
G1 C360.000 F1.665278 (RING 13/24 R=52.2917 CSPD=599.50 E0=0.000 E2=0.000 QV=42.17)
M67 E0 Q0.000
M67 E2 Q0.000
G1 X2.5833 C5.000 F119.900000 (HOT LINK 13 CSPD=599.50 E0=0.000 E2=0.000)
M67 E0 Q0.000
M67 E2 Q0.000
G1 C360.000 F1.665278 (RING 14/24 R=54.8750 CSPD=599.50 E0=0.000 E2=0.000 QV=40.19)
M67 E0 Q0.000
M67 E2 Q0.000
G1 X2.5833 C5.000 F119.900000 (HOT LINK 14 CSPD=599.50 E0=0.000 E2=0.000)
M67 E0 Q0.000
M67 E2 Q0.000
G1 C360.000 F1.665278 (RING 15/24 R=57.4583 CSPD=599.50 E0=0.000 E2=0.000 QV=38.50)
M67 E0 Q0.000
M67 E2 Q0.000
G1 X2.5833 C5.000 F119.900000 (HOT LINK 15 CSPD=599.50 E0=0.000 E2=0.000)
M67 E0 Q0.000
M67 E2 Q0.000
G1 C360.000 F1.665278 (RING 16/24 R=60.0417 CSPD=599.50 E0=0.000 E2=0.000 QV=38.50)
M67 E0 Q0.000
M67 E2 Q0.000
G1 X2.5833 C5.000 F119.900000 (HOT LINK 16 CSPD=599.50 E0=0.000 E2=0.000)
M67 E0 Q0.000
M67 E2 Q0.000
G1 C360.000 F1.665278 (RING 17/24 R=62.6250 CSPD=599.50 E0=0.000 E2=0.000 QV=38.50)
M67 E0 Q0.000
M67 E2 Q0.000
G1 X2.5833 C5.000 F119.900000 (HOT LINK 17 CSPD=599.50 E0=0.000 E2=0.000)
M67 E0 Q0.000
M67 E2 Q0.000
G1 C360.000 F1.665278 (RING 18/24 R=65.2083 CSPD=599.50 E0=0.000 E2=0.000 QV=38.50)
M67 E0 Q0.000
M67 E2 Q0.000
G1 X2.5833 C5.000 F119.900000 (HOT LINK 18 CSPD=599.50 E0=0.000 E2=0.000)
M67 E0 Q0.000
M67 E2 Q0.000
G1 C360.000 F1.665278 (RING 19/24 R=67.7917 CSPD=599.50 E0=0.000 E2=0.000 QV=38.50)
M67 E0 Q0.000
M67 E2 Q0.000
G1 X2.5833 C5.000 F119.900000 (HOT LINK 19 CSPD=599.50 E0=0.000 E2=0.000)
M67 E0 Q0.000
M67 E2 Q0.000
G1 C360.000 F1.665278 (RING 20/24 R=70.3750 CSPD=599.50 E0=0.000 E2=0.000 QV=38.50)
M67 E0 Q0.000
M67 E2 Q0.000
G1 X2.5833 C5.000 F119.900000 (HOT LINK 20 CSPD=599.50 E0=0.000 E2=0.000)
M67 E0 Q0.000
M67 E2 Q0.000
G1 C360.000 F1.665278 (RING 21/24 R=72.9583 CSPD=599.50 E0=0.000 E2=0.000 QV=38.50)
M67 E0 Q0.000
M67 E2 Q0.000
G1 X2.5833 C5.000 F119.755299 (HOT LINK 21 CSPD=598.78 E0=0.000 E2=0.000)
M67 E0 Q0.000
M67 E2 Q0.000
G1 C360.000 F1.665278 (RING 22/24 R=75.5417 CSPD=599.50 E0=0.000 E2=0.000 QV=38.50)
M67 E0 Q0.000
M67 E2 Q0.000
G1 X2.5833 C5.000 F116.257198 (HOT LINK 22 CSPD=581.29 E0=0.000 E2=0.000)
M67 E0 Q0.000
M67 E2 Q0.000
G1 C360.000 F1.665278 (RING 23/24 R=78.1250 CSPD=599.50 E0=0.000 E2=0.000 QV=38.50)
M67 E0 Q0.000
M67 E2 Q0.000
G1 X2.5833 C5.000 F112.943680 (HOT LINK 23 CSPD=564.72 E0=0.000 E2=0.000)
M67 E0 Q0.000
M67 E2 Q0.000
G1 C360.000 F1.647313 (RING 24/24 R=80.7083 CSPD=593.03 E0=0.000 E2=0.000 QV=35.42)
(LAYER 13/32 Z=18.4000..19.9333 ZONE=FLANGE_NARROW DIR=inner_to_outer TRACKS=24 PITCH=2.5833 ADEP=3.9004 ACTIVE=14.6112min DWELL=0.0s)
M68 E2 Q0.000 (cold interlayer transition)
M68 E0 Q0.000
G1 X-59.4167 Z1.5333 C17.000 F35.264706
M67 E0 Q0.000 (synchronized layer hot state)
M67 E2 Q0.000
G1 C360.000 F1.665278 (RING 1/24 R=21.2917 CSPD=599.50 E0=0.000 E2=0.000 QV=103.58)
M67 E0 Q0.000
M67 E2 Q0.000
G1 X2.5833 C5.000 F119.900000 (HOT LINK 1 CSPD=599.50 E0=0.000 E2=0.000)
M67 E0 Q0.000
M67 E2 Q0.000
G1 C360.000 F1.665278 (RING 2/24 R=23.8750 CSPD=599.50 E0=0.000 E2=0.000 QV=92.37)
M67 E0 Q0.000
M67 E2 Q0.000
G1 X2.5833 C5.000 F119.900000 (HOT LINK 2 CSPD=599.50 E0=0.000 E2=0.000)
M67 E0 Q0.000
M67 E2 Q0.000
G1 C360.000 F1.665278 (RING 3/24 R=26.4583 CSPD=599.50 E0=0.000 E2=0.000 QV=83.35)
M67 E0 Q0.000
M67 E2 Q0.000
G1 X2.5833 C5.000 F119.900000 (HOT LINK 3 CSPD=599.50 E0=0.000 E2=0.000)
M67 E0 Q0.000
M67 E2 Q0.000
G1 C360.000 F1.665278 (RING 4/24 R=29.0417 CSPD=599.50 E0=0.000 E2=0.000 QV=75.94)
M67 E0 Q0.000
M67 E2 Q0.000
G1 X2.5833 C5.000 F119.900000 (HOT LINK 4 CSPD=599.50 E0=0.000 E2=0.000)
M67 E0 Q0.000
M67 E2 Q0.000
G1 C360.000 F1.665278 (RING 5/24 R=31.6250 CSPD=599.50 E0=0.000 E2=0.000 QV=69.73)
M67 E0 Q0.000
M67 E2 Q0.000
G1 X2.5833 C5.000 F119.900000 (HOT LINK 5 CSPD=599.50 E0=0.000 E2=0.000)
M67 E0 Q0.000
M67 E2 Q0.000
G1 C360.000 F1.665278 (RING 6/24 R=34.2083 CSPD=599.50 E0=0.000 E2=0.000 QV=64.47)
M67 E0 Q0.000
M67 E2 Q0.000
G1 X2.5833 C5.000 F119.900000 (HOT LINK 6 CSPD=599.50 E0=0.000 E2=0.000)
M67 E0 Q0.000
M67 E2 Q0.000
G1 C360.000 F1.665278 (RING 7/24 R=36.7917 CSPD=599.50 E0=0.000 E2=0.000 QV=59.94)
M67 E0 Q0.000
M67 E2 Q0.000
G1 X2.5833 C5.000 F119.900000 (HOT LINK 7 CSPD=599.50 E0=0.000 E2=0.000)
M67 E0 Q0.000
M67 E2 Q0.000
G1 C360.000 F1.665278 (RING 8/24 R=39.3750 CSPD=599.50 E0=0.000 E2=0.000 QV=56.01)
M67 E0 Q0.000
M67 E2 Q0.000
G1 X2.5833 C5.000 F119.900000 (HOT LINK 8 CSPD=599.50 E0=0.000 E2=0.000)
M67 E0 Q0.000
M67 E2 Q0.000
G1 C360.000 F1.665278 (RING 9/24 R=41.9583 CSPD=599.50 E0=0.000 E2=0.000 QV=52.56)
M67 E0 Q0.000
M67 E2 Q0.000
G1 X2.5833 C5.000 F119.900000 (HOT LINK 9 CSPD=599.50 E0=0.000 E2=0.000)
M67 E0 Q0.000
M67 E2 Q0.000
G1 C360.000 F1.665278 (RING 10/24 R=44.5417 CSPD=599.50 E0=0.000 E2=0.000 QV=49.51)
M67 E0 Q0.000
M67 E2 Q0.000
G1 X2.5833 C5.000 F119.900000 (HOT LINK 10 CSPD=599.50 E0=0.000 E2=0.000)
M67 E0 Q0.000
M67 E2 Q0.000
G1 C360.000 F1.665278 (RING 11/24 R=47.1250 CSPD=599.50 E0=0.000 E2=0.000 QV=46.80)
M67 E0 Q0.000
M67 E2 Q0.000
G1 X2.5833 C5.000 F119.900000 (HOT LINK 11 CSPD=599.50 E0=0.000 E2=0.000)
M67 E0 Q0.000
M67 E2 Q0.000
G1 C360.000 F1.665278 (RING 12/24 R=49.7083 CSPD=599.50 E0=0.000 E2=0.000 QV=44.37)
M67 E0 Q0.000
M67 E2 Q0.000
G1 X2.5833 C5.000 F119.900000 (HOT LINK 12 CSPD=599.50 E0=0.000 E2=0.000)
M67 E0 Q0.000
M67 E2 Q0.000
G1 C360.000 F1.665278 (RING 13/24 R=52.2917 CSPD=599.50 E0=0.000 E2=0.000 QV=42.17)
M67 E0 Q0.000
M67 E2 Q0.000
G1 X2.5833 C5.000 F119.900000 (HOT LINK 13 CSPD=599.50 E0=0.000 E2=0.000)
M67 E0 Q0.000
M67 E2 Q0.000
G1 C360.000 F1.665278 (RING 14/24 R=54.8750 CSPD=599.50 E0=0.000 E2=0.000 QV=40.19)
M67 E0 Q0.000
M67 E2 Q0.000
G1 X2.5833 C5.000 F119.900000 (HOT LINK 14 CSPD=599.50 E0=0.000 E2=0.000)
M67 E0 Q0.000
M67 E2 Q0.000
G1 C360.000 F1.665278 (RING 15/24 R=57.4583 CSPD=599.50 E0=0.000 E2=0.000 QV=38.50)
M67 E0 Q0.000
M67 E2 Q0.000
G1 X2.5833 C5.000 F119.900000 (HOT LINK 15 CSPD=599.50 E0=0.000 E2=0.000)
M67 E0 Q0.000
M67 E2 Q0.000
G1 C360.000 F1.665278 (RING 16/24 R=60.0417 CSPD=599.50 E0=0.000 E2=0.000 QV=38.50)
M67 E0 Q0.000
M67 E2 Q0.000
G1 X2.5833 C5.000 F119.900000 (HOT LINK 16 CSPD=599.50 E0=0.000 E2=0.000)
M67 E0 Q0.000
M67 E2 Q0.000
G1 C360.000 F1.665278 (RING 17/24 R=62.6250 CSPD=599.50 E0=0.000 E2=0.000 QV=38.50)
M67 E0 Q0.000
M67 E2 Q0.000
G1 X2.5833 C5.000 F119.900000 (HOT LINK 17 CSPD=599.50 E0=0.000 E2=0.000)
M67 E0 Q0.000
M67 E2 Q0.000
G1 C360.000 F1.665278 (RING 18/24 R=65.2083 CSPD=599.50 E0=0.000 E2=0.000 QV=38.50)
M67 E0 Q0.000
M67 E2 Q0.000
G1 X2.5833 C5.000 F119.900000 (HOT LINK 18 CSPD=599.50 E0=0.000 E2=0.000)
M67 E0 Q0.000
M67 E2 Q0.000
G1 C360.000 F1.665278 (RING 19/24 R=67.7917 CSPD=599.50 E0=0.000 E2=0.000 QV=38.50)
M67 E0 Q0.000
M67 E2 Q0.000
G1 X2.5833 C5.000 F119.900000 (HOT LINK 19 CSPD=599.50 E0=0.000 E2=0.000)
M67 E0 Q0.000
M67 E2 Q0.000
G1 C360.000 F1.665278 (RING 20/24 R=70.3750 CSPD=599.50 E0=0.000 E2=0.000 QV=38.50)
M67 E0 Q0.000
M67 E2 Q0.000
G1 X2.5833 C5.000 F119.900000 (HOT LINK 20 CSPD=599.50 E0=0.000 E2=0.000)
M67 E0 Q0.000
M67 E2 Q0.000
G1 C360.000 F1.665278 (RING 21/24 R=72.9583 CSPD=599.50 E0=0.000 E2=0.000 QV=38.50)
M67 E0 Q0.000
M67 E2 Q0.000
G1 X2.5833 C5.000 F119.755299 (HOT LINK 21 CSPD=598.78 E0=0.000 E2=0.000)
M67 E0 Q0.000
M67 E2 Q0.000
G1 C360.000 F1.665278 (RING 22/24 R=75.5417 CSPD=599.50 E0=0.000 E2=0.000 QV=38.50)
M67 E0 Q0.000
M67 E2 Q0.000
G1 X2.5833 C5.000 F116.257198 (HOT LINK 22 CSPD=581.29 E0=0.000 E2=0.000)
M67 E0 Q0.000
M67 E2 Q0.000
G1 C360.000 F1.665278 (RING 23/24 R=78.1250 CSPD=599.50 E0=0.000 E2=0.000 QV=38.50)
M67 E0 Q0.000
M67 E2 Q0.000
G1 X2.5833 C5.000 F112.943680 (HOT LINK 23 CSPD=564.72 E0=0.000 E2=0.000)
M67 E0 Q0.000
M67 E2 Q0.000
G1 C360.000 F1.647313 (RING 24/24 R=80.7083 CSPD=593.03 E0=0.000 E2=0.000 QV=35.42)
(LAYER 14/32 Z=19.9333..21.4667 ZONE=FLANGE_NARROW DIR=inner_to_outer TRACKS=24 PITCH=2.5833 ADEP=3.9004 ACTIVE=14.6112min DWELL=0.0s)
M68 E2 Q0.000 (cold interlayer transition)
M68 E0 Q0.000
G1 X-59.4167 Z1.5333 C17.000 F35.264706
M67 E0 Q0.000 (synchronized layer hot state)
M67 E2 Q0.000
G1 C360.000 F1.665278 (RING 1/24 R=21.2917 CSPD=599.50 E0=0.000 E2=0.000 QV=103.58)
M67 E0 Q0.000
M67 E2 Q0.000
G1 X2.5833 C5.000 F119.900000 (HOT LINK 1 CSPD=599.50 E0=0.000 E2=0.000)
M67 E0 Q0.000
M67 E2 Q0.000
G1 C360.000 F1.665278 (RING 2/24 R=23.8750 CSPD=599.50 E0=0.000 E2=0.000 QV=92.37)
M67 E0 Q0.000
M67 E2 Q0.000
G1 X2.5833 C5.000 F119.900000 (HOT LINK 2 CSPD=599.50 E0=0.000 E2=0.000)
M67 E0 Q0.000
M67 E2 Q0.000
G1 C360.000 F1.665278 (RING 3/24 R=26.4583 CSPD=599.50 E0=0.000 E2=0.000 QV=83.35)
M67 E0 Q0.000
M67 E2 Q0.000
G1 X2.5833 C5.000 F119.900000 (HOT LINK 3 CSPD=599.50 E0=0.000 E2=0.000)
M67 E0 Q0.000
M67 E2 Q0.000
G1 C360.000 F1.665278 (RING 4/24 R=29.0417 CSPD=599.50 E0=0.000 E2=0.000 QV=75.94)
M67 E0 Q0.000
M67 E2 Q0.000
G1 X2.5833 C5.000 F119.900000 (HOT LINK 4 CSPD=599.50 E0=0.000 E2=0.000)
M67 E0 Q0.000
M67 E2 Q0.000
G1 C360.000 F1.665278 (RING 5/24 R=31.6250 CSPD=599.50 E0=0.000 E2=0.000 QV=69.73)
M67 E0 Q0.000
M67 E2 Q0.000
G1 X2.5833 C5.000 F119.900000 (HOT LINK 5 CSPD=599.50 E0=0.000 E2=0.000)
M67 E0 Q0.000
M67 E2 Q0.000
G1 C360.000 F1.665278 (RING 6/24 R=34.2083 CSPD=599.50 E0=0.000 E2=0.000 QV=64.47)
M67 E0 Q0.000
M67 E2 Q0.000
G1 X2.5833 C5.000 F119.900000 (HOT LINK 6 CSPD=599.50 E0=0.000 E2=0.000)
M67 E0 Q0.000
M67 E2 Q0.000
G1 C360.000 F1.665278 (RING 7/24 R=36.7917 CSPD=599.50 E0=0.000 E2=0.000 QV=59.94)
M67 E0 Q0.000
M67 E2 Q0.000
G1 X2.5833 C5.000 F119.900000 (HOT LINK 7 CSPD=599.50 E0=0.000 E2=0.000)
M67 E0 Q0.000
M67 E2 Q0.000
G1 C360.000 F1.665278 (RING 8/24 R=39.3750 CSPD=599.50 E0=0.000 E2=0.000 QV=56.01)
M67 E0 Q0.000
M67 E2 Q0.000
G1 X2.5833 C5.000 F119.900000 (HOT LINK 8 CSPD=599.50 E0=0.000 E2=0.000)
M67 E0 Q0.000
M67 E2 Q0.000
G1 C360.000 F1.665278 (RING 9/24 R=41.9583 CSPD=599.50 E0=0.000 E2=0.000 QV=52.56)
M67 E0 Q0.000
M67 E2 Q0.000
G1 X2.5833 C5.000 F119.900000 (HOT LINK 9 CSPD=599.50 E0=0.000 E2=0.000)
M67 E0 Q0.000
M67 E2 Q0.000
G1 C360.000 F1.665278 (RING 10/24 R=44.5417 CSPD=599.50 E0=0.000 E2=0.000 QV=49.51)
M67 E0 Q0.000
M67 E2 Q0.000
G1 X2.5833 C5.000 F119.900000 (HOT LINK 10 CSPD=599.50 E0=0.000 E2=0.000)
M67 E0 Q0.000
M67 E2 Q0.000
G1 C360.000 F1.665278 (RING 11/24 R=47.1250 CSPD=599.50 E0=0.000 E2=0.000 QV=46.80)
M67 E0 Q0.000
M67 E2 Q0.000
G1 X2.5833 C5.000 F119.900000 (HOT LINK 11 CSPD=599.50 E0=0.000 E2=0.000)
M67 E0 Q0.000
M67 E2 Q0.000
G1 C360.000 F1.665278 (RING 12/24 R=49.7083 CSPD=599.50 E0=0.000 E2=0.000 QV=44.37)
M67 E0 Q0.000
M67 E2 Q0.000
G1 X2.5833 C5.000 F119.900000 (HOT LINK 12 CSPD=599.50 E0=0.000 E2=0.000)
M67 E0 Q0.000
M67 E2 Q0.000
G1 C360.000 F1.665278 (RING 13/24 R=52.2917 CSPD=599.50 E0=0.000 E2=0.000 QV=42.17)
M67 E0 Q0.000
M67 E2 Q0.000
G1 X2.5833 C5.000 F119.900000 (HOT LINK 13 CSPD=599.50 E0=0.000 E2=0.000)
M67 E0 Q0.000
M67 E2 Q0.000
G1 C360.000 F1.665278 (RING 14/24 R=54.8750 CSPD=599.50 E0=0.000 E2=0.000 QV=40.19)
M67 E0 Q0.000
M67 E2 Q0.000
G1 X2.5833 C5.000 F119.900000 (HOT LINK 14 CSPD=599.50 E0=0.000 E2=0.000)
M67 E0 Q0.000
M67 E2 Q0.000
G1 C360.000 F1.665278 (RING 15/24 R=57.4583 CSPD=599.50 E0=0.000 E2=0.000 QV=38.50)
M67 E0 Q0.000
M67 E2 Q0.000
G1 X2.5833 C5.000 F119.900000 (HOT LINK 15 CSPD=599.50 E0=0.000 E2=0.000)
M67 E0 Q0.000
M67 E2 Q0.000
G1 C360.000 F1.665278 (RING 16/24 R=60.0417 CSPD=599.50 E0=0.000 E2=0.000 QV=38.50)
M67 E0 Q0.000
M67 E2 Q0.000
G1 X2.5833 C5.000 F119.900000 (HOT LINK 16 CSPD=599.50 E0=0.000 E2=0.000)
M67 E0 Q0.000
M67 E2 Q0.000
G1 C360.000 F1.665278 (RING 17/24 R=62.6250 CSPD=599.50 E0=0.000 E2=0.000 QV=38.50)
M67 E0 Q0.000
M67 E2 Q0.000
G1 X2.5833 C5.000 F119.900000 (HOT LINK 17 CSPD=599.50 E0=0.000 E2=0.000)
M67 E0 Q0.000
M67 E2 Q0.000
G1 C360.000 F1.665278 (RING 18/24 R=65.2083 CSPD=599.50 E0=0.000 E2=0.000 QV=38.50)
M67 E0 Q0.000
M67 E2 Q0.000
G1 X2.5833 C5.000 F119.900000 (HOT LINK 18 CSPD=599.50 E0=0.000 E2=0.000)
M67 E0 Q0.000
M67 E2 Q0.000
G1 C360.000 F1.665278 (RING 19/24 R=67.7917 CSPD=599.50 E0=0.000 E2=0.000 QV=38.50)
M67 E0 Q0.000
M67 E2 Q0.000
G1 X2.5833 C5.000 F119.900000 (HOT LINK 19 CSPD=599.50 E0=0.000 E2=0.000)
M67 E0 Q0.000
M67 E2 Q0.000
G1 C360.000 F1.665278 (RING 20/24 R=70.3750 CSPD=599.50 E0=0.000 E2=0.000 QV=38.50)
M67 E0 Q0.000
M67 E2 Q0.000
G1 X2.5833 C5.000 F119.900000 (HOT LINK 20 CSPD=599.50 E0=0.000 E2=0.000)
M67 E0 Q0.000
M67 E2 Q0.000
G1 C360.000 F1.665278 (RING 21/24 R=72.9583 CSPD=599.50 E0=0.000 E2=0.000 QV=38.50)
M67 E0 Q0.000
M67 E2 Q0.000
G1 X2.5833 C5.000 F119.755299 (HOT LINK 21 CSPD=598.78 E0=0.000 E2=0.000)
M67 E0 Q0.000
M67 E2 Q0.000
G1 C360.000 F1.665278 (RING 22/24 R=75.5417 CSPD=599.50 E0=0.000 E2=0.000 QV=38.50)
M67 E0 Q0.000
M67 E2 Q0.000
G1 X2.5833 C5.000 F116.257198 (HOT LINK 22 CSPD=581.29 E0=0.000 E2=0.000)
M67 E0 Q0.000
M67 E2 Q0.000
G1 C360.000 F1.665278 (RING 23/24 R=78.1250 CSPD=599.50 E0=0.000 E2=0.000 QV=38.50)
M67 E0 Q0.000
M67 E2 Q0.000
G1 X2.5833 C5.000 F112.943680 (HOT LINK 23 CSPD=564.72 E0=0.000 E2=0.000)
M67 E0 Q0.000
M67 E2 Q0.000
G1 C360.000 F1.647313 (RING 24/24 R=80.7083 CSPD=593.03 E0=0.000 E2=0.000 QV=35.42)
(LAYER 15/32 Z=21.4667..23.0000 ZONE=FLANGE_NARROW DIR=inner_to_outer TRACKS=24 PITCH=2.5833 ADEP=3.9004 ACTIVE=14.6112min DWELL=0.0s)
M68 E2 Q0.000 (cold interlayer transition)
M68 E0 Q0.000
G1 X-59.4167 Z1.5333 C17.000 F35.264706
M67 E0 Q0.000 (synchronized layer hot state)
M67 E2 Q0.000
G1 C360.000 F1.665278 (RING 1/24 R=21.2917 CSPD=599.50 E0=0.000 E2=0.000 QV=103.58)
M67 E0 Q0.000
M67 E2 Q0.000
G1 X2.5833 C5.000 F119.900000 (HOT LINK 1 CSPD=599.50 E0=0.000 E2=0.000)
M67 E0 Q0.000
M67 E2 Q0.000
G1 C360.000 F1.665278 (RING 2/24 R=23.8750 CSPD=599.50 E0=0.000 E2=0.000 QV=92.37)
M67 E0 Q0.000
M67 E2 Q0.000
G1 X2.5833 C5.000 F119.900000 (HOT LINK 2 CSPD=599.50 E0=0.000 E2=0.000)
M67 E0 Q0.000
M67 E2 Q0.000
G1 C360.000 F1.665278 (RING 3/24 R=26.4583 CSPD=599.50 E0=0.000 E2=0.000 QV=83.35)
M67 E0 Q0.000
M67 E2 Q0.000
G1 X2.5833 C5.000 F119.900000 (HOT LINK 3 CSPD=599.50 E0=0.000 E2=0.000)
M67 E0 Q0.000
M67 E2 Q0.000
G1 C360.000 F1.665278 (RING 4/24 R=29.0417 CSPD=599.50 E0=0.000 E2=0.000 QV=75.94)
M67 E0 Q0.000
M67 E2 Q0.000
G1 X2.5833 C5.000 F119.900000 (HOT LINK 4 CSPD=599.50 E0=0.000 E2=0.000)
M67 E0 Q0.000
M67 E2 Q0.000
G1 C360.000 F1.665278 (RING 5/24 R=31.6250 CSPD=599.50 E0=0.000 E2=0.000 QV=69.73)
M67 E0 Q0.000
M67 E2 Q0.000
G1 X2.5833 C5.000 F119.900000 (HOT LINK 5 CSPD=599.50 E0=0.000 E2=0.000)
M67 E0 Q0.000
M67 E2 Q0.000
G1 C360.000 F1.665278 (RING 6/24 R=34.2083 CSPD=599.50 E0=0.000 E2=0.000 QV=64.47)
M67 E0 Q0.000
M67 E2 Q0.000
G1 X2.5833 C5.000 F119.900000 (HOT LINK 6 CSPD=599.50 E0=0.000 E2=0.000)
M67 E0 Q0.000
M67 E2 Q0.000
G1 C360.000 F1.665278 (RING 7/24 R=36.7917 CSPD=599.50 E0=0.000 E2=0.000 QV=59.94)
M67 E0 Q0.000
M67 E2 Q0.000
G1 X2.5833 C5.000 F119.900000 (HOT LINK 7 CSPD=599.50 E0=0.000 E2=0.000)
M67 E0 Q0.000
M67 E2 Q0.000
G1 C360.000 F1.665278 (RING 8/24 R=39.3750 CSPD=599.50 E0=0.000 E2=0.000 QV=56.01)
M67 E0 Q0.000
M67 E2 Q0.000
G1 X2.5833 C5.000 F119.900000 (HOT LINK 8 CSPD=599.50 E0=0.000 E2=0.000)
M67 E0 Q0.000
M67 E2 Q0.000
G1 C360.000 F1.665278 (RING 9/24 R=41.9583 CSPD=599.50 E0=0.000 E2=0.000 QV=52.56)
M67 E0 Q0.000
M67 E2 Q0.000
G1 X2.5833 C5.000 F119.900000 (HOT LINK 9 CSPD=599.50 E0=0.000 E2=0.000)
M67 E0 Q0.000
M67 E2 Q0.000
G1 C360.000 F1.665278 (RING 10/24 R=44.5417 CSPD=599.50 E0=0.000 E2=0.000 QV=49.51)
M67 E0 Q0.000
M67 E2 Q0.000
G1 X2.5833 C5.000 F119.900000 (HOT LINK 10 CSPD=599.50 E0=0.000 E2=0.000)
M67 E0 Q0.000
M67 E2 Q0.000
G1 C360.000 F1.665278 (RING 11/24 R=47.1250 CSPD=599.50 E0=0.000 E2=0.000 QV=46.80)
M67 E0 Q0.000
M67 E2 Q0.000
G1 X2.5833 C5.000 F119.900000 (HOT LINK 11 CSPD=599.50 E0=0.000 E2=0.000)
M67 E0 Q0.000
M67 E2 Q0.000
G1 C360.000 F1.665278 (RING 12/24 R=49.7083 CSPD=599.50 E0=0.000 E2=0.000 QV=44.37)
M67 E0 Q0.000
M67 E2 Q0.000
G1 X2.5833 C5.000 F119.900000 (HOT LINK 12 CSPD=599.50 E0=0.000 E2=0.000)
M67 E0 Q0.000
M67 E2 Q0.000
G1 C360.000 F1.665278 (RING 13/24 R=52.2917 CSPD=599.50 E0=0.000 E2=0.000 QV=42.17)
M67 E0 Q0.000
M67 E2 Q0.000
G1 X2.5833 C5.000 F119.900000 (HOT LINK 13 CSPD=599.50 E0=0.000 E2=0.000)
M67 E0 Q0.000
M67 E2 Q0.000
G1 C360.000 F1.665278 (RING 14/24 R=54.8750 CSPD=599.50 E0=0.000 E2=0.000 QV=40.19)
M67 E0 Q0.000
M67 E2 Q0.000
G1 X2.5833 C5.000 F119.900000 (HOT LINK 14 CSPD=599.50 E0=0.000 E2=0.000)
M67 E0 Q0.000
M67 E2 Q0.000
G1 C360.000 F1.665278 (RING 15/24 R=57.4583 CSPD=599.50 E0=0.000 E2=0.000 QV=38.50)
M67 E0 Q0.000
M67 E2 Q0.000
G1 X2.5833 C5.000 F119.900000 (HOT LINK 15 CSPD=599.50 E0=0.000 E2=0.000)
M67 E0 Q0.000
M67 E2 Q0.000
G1 C360.000 F1.665278 (RING 16/24 R=60.0417 CSPD=599.50 E0=0.000 E2=0.000 QV=38.50)
M67 E0 Q0.000
M67 E2 Q0.000
G1 X2.5833 C5.000 F119.900000 (HOT LINK 16 CSPD=599.50 E0=0.000 E2=0.000)
M67 E0 Q0.000
M67 E2 Q0.000
G1 C360.000 F1.665278 (RING 17/24 R=62.6250 CSPD=599.50 E0=0.000 E2=0.000 QV=38.50)
M67 E0 Q0.000
M67 E2 Q0.000
G1 X2.5833 C5.000 F119.900000 (HOT LINK 17 CSPD=599.50 E0=0.000 E2=0.000)
M67 E0 Q0.000
M67 E2 Q0.000
G1 C360.000 F1.665278 (RING 18/24 R=65.2083 CSPD=599.50 E0=0.000 E2=0.000 QV=38.50)
M67 E0 Q0.000
M67 E2 Q0.000
G1 X2.5833 C5.000 F119.900000 (HOT LINK 18 CSPD=599.50 E0=0.000 E2=0.000)
M67 E0 Q0.000
M67 E2 Q0.000
G1 C360.000 F1.665278 (RING 19/24 R=67.7917 CSPD=599.50 E0=0.000 E2=0.000 QV=38.50)
M67 E0 Q0.000
M67 E2 Q0.000
G1 X2.5833 C5.000 F119.900000 (HOT LINK 19 CSPD=599.50 E0=0.000 E2=0.000)
M67 E0 Q0.000
M67 E2 Q0.000
G1 C360.000 F1.665278 (RING 20/24 R=70.3750 CSPD=599.50 E0=0.000 E2=0.000 QV=38.50)
M67 E0 Q0.000
M67 E2 Q0.000
G1 X2.5833 C5.000 F119.900000 (HOT LINK 20 CSPD=599.50 E0=0.000 E2=0.000)
M67 E0 Q0.000
M67 E2 Q0.000
G1 C360.000 F1.665278 (RING 21/24 R=72.9583 CSPD=599.50 E0=0.000 E2=0.000 QV=38.50)
M67 E0 Q0.000
M67 E2 Q0.000
G1 X2.5833 C5.000 F119.755299 (HOT LINK 21 CSPD=598.78 E0=0.000 E2=0.000)
M67 E0 Q0.000
M67 E2 Q0.000
G1 C360.000 F1.665278 (RING 22/24 R=75.5417 CSPD=599.50 E0=0.000 E2=0.000 QV=38.50)
M67 E0 Q0.000
M67 E2 Q0.000
G1 X2.5833 C5.000 F116.257198 (HOT LINK 22 CSPD=581.29 E0=0.000 E2=0.000)
M67 E0 Q0.000
M67 E2 Q0.000
G1 C360.000 F1.665278 (RING 23/24 R=78.1250 CSPD=599.50 E0=0.000 E2=0.000 QV=38.50)
M67 E0 Q0.000
M67 E2 Q0.000
G1 X2.5833 C5.000 F112.943680 (HOT LINK 23 CSPD=564.72 E0=0.000 E2=0.000)
M67 E0 Q0.000
M67 E2 Q0.000
G1 C360.000 F1.647313 (RING 24/24 R=80.7083 CSPD=593.03 E0=0.000 E2=0.000 QV=35.42)
(LAYER 16/32 Z=23.0000..24.4412 ZONE=HUB_WIDE DIR=inner_to_outer TRACKS=5 PITCH=3.5471 ADEP=5.0156 ACTIVE=3.0359min DWELL=116.1s)
M68 E2 Q0.000 (cold interlayer transition)
M68 E0 Q0.000
G1 X-58.9348 Z1.5333 C17.000 F35.264706
G90
M0 (MANDATORY PROFILE STEP CHECK AT Z23.000; VERIFY SCAN POOL WIRE FOCUS)
G91
M67 E0 Q0.000 (synchronized layer hot state)
M67 E2 Q0.000
G1 C360.000 F1.665278 (RING 1/5 R=21.7735 CSPD=599.50 E0=0.000 E2=0.000 QV=78.76)
M67 E0 Q0.000
M67 E2 Q0.000
G1 X3.5471 C5.000 F119.900000 (HOT LINK 1 CSPD=599.50 E0=0.000 E2=0.000)
M67 E0 Q0.000
M67 E2 Q0.000
G1 C360.000 F1.665278 (RING 2/5 R=25.3206 CSPD=599.50 E0=0.000 E2=0.000 QV=67.73)
M67 E0 Q0.000
M67 E2 Q0.000
G1 X3.5471 C5.000 F119.900000 (HOT LINK 2 CSPD=599.50 E0=0.000 E2=0.000)
M67 E0 Q0.000
M67 E2 Q0.000
G1 C360.000 F1.665278 (RING 3/5 R=28.8677 CSPD=599.50 E0=0.000 E2=0.000 QV=59.41)
M67 E0 Q0.000
M67 E2 Q0.000
G1 X3.5471 C5.000 F119.900000 (HOT LINK 3 CSPD=599.50 E0=0.000 E2=0.000)
M67 E0 Q0.000
M67 E2 Q0.000
G1 C360.000 F1.665278 (RING 4/5 R=32.4147 CSPD=599.50 E0=0.000 E2=0.000 QV=52.91)
M67 E0 Q0.000
M67 E2 Q0.000
G1 X3.5471 C5.000 F119.900000 (HOT LINK 4 CSPD=599.50 E0=0.000 E2=0.000)
M67 E0 Q0.000
M67 E2 Q0.000
G1 C360.000 F1.665278 (RING 5/5 R=35.9618 CSPD=599.50 E0=0.000 E2=0.000 QV=47.69)
(LAYER 17/32 Z=24.4412..25.8824 ZONE=HUB_WIDE DIR=inner_to_outer TRACKS=5 PITCH=3.4412 ADEP=4.8672 ACTIVE=3.0359min DWELL=116.1s)
M68 E2 Q0.000 (cold interlayer transition)
M68 E0 Q0.000
G1 X-14.2412 Z1.4412 C17.000 F35.264706
G4 P116.147 (calculated thermal dwell beam and wire off)
M67 E0 Q0.000 (synchronized layer hot state)
M67 E2 Q0.000
G1 C360.000 F1.665278 (RING 1/5 R=21.7206 CSPD=599.50 E0=0.000 E2=0.000 QV=81.36)
M67 E0 Q0.000
M67 E2 Q0.000
G1 X3.4412 C5.000 F119.900000 (HOT LINK 1 CSPD=599.50 E0=0.000 E2=0.000)
M67 E0 Q0.000
M67 E2 Q0.000
G1 C360.000 F1.665278 (RING 2/5 R=25.1618 CSPD=599.50 E0=0.000 E2=0.000 QV=70.24)
M67 E0 Q0.000
M67 E2 Q0.000
G1 X3.4412 C5.000 F119.900000 (HOT LINK 2 CSPD=599.50 E0=0.000 E2=0.000)
M67 E0 Q0.000
M67 E2 Q0.000
G1 C360.000 F1.665278 (RING 3/5 R=28.6029 CSPD=599.50 E0=0.000 E2=0.000 QV=61.79)
M67 E0 Q0.000
M67 E2 Q0.000
G1 X3.4412 C5.000 F119.900000 (HOT LINK 3 CSPD=599.50 E0=0.000 E2=0.000)
M67 E0 Q0.000
M67 E2 Q0.000
G1 C360.000 F1.665278 (RING 4/5 R=32.0441 CSPD=599.50 E0=0.000 E2=0.000 QV=55.15)
M67 E0 Q0.000
M67 E2 Q0.000
G1 X3.4412 C5.000 F119.900000 (HOT LINK 4 CSPD=599.50 E0=0.000 E2=0.000)
M67 E0 Q0.000
M67 E2 Q0.000
G1 C360.000 F1.665278 (RING 5/5 R=35.4853 CSPD=599.50 E0=0.000 E2=0.000 QV=49.80)
(LAYER 18/32 Z=25.8824..27.3235 ZONE=HUB_WIDE DIR=inner_to_outer TRACKS=5 PITCH=3.3353 ADEP=4.7187 ACTIVE=3.0359min DWELL=116.1s)
M68 E2 Q0.000 (cold interlayer transition)
M68 E0 Q0.000
G1 X-13.8176 Z1.4412 C17.000 F35.264706
G4 P116.147 (calculated thermal dwell beam and wire off)
M67 E0 Q0.000 (synchronized layer hot state)
M67 E2 Q0.000
G1 C360.000 F1.665278 (RING 1/5 R=21.6677 CSPD=599.50 E0=0.000 E2=0.000 QV=84.13)
M67 E0 Q0.000
M67 E2 Q0.000
G1 X3.3353 C5.000 F119.900000 (HOT LINK 1 CSPD=599.50 E0=0.000 E2=0.000)
M67 E0 Q0.000
M67 E2 Q0.000
G1 C360.000 F1.665278 (RING 2/5 R=25.0029 CSPD=599.50 E0=0.000 E2=0.000 QV=72.91)
M67 E0 Q0.000
M67 E2 Q0.000
G1 X3.3353 C5.000 F119.900000 (HOT LINK 2 CSPD=599.50 E0=0.000 E2=0.000)
M67 E0 Q0.000
M67 E2 Q0.000
G1 C360.000 F1.665278 (RING 3/5 R=28.3382 CSPD=599.50 E0=0.000 E2=0.000 QV=64.33)
M67 E0 Q0.000
M67 E2 Q0.000
G1 X3.3353 C5.000 F119.900000 (HOT LINK 3 CSPD=599.50 E0=0.000 E2=0.000)
M67 E0 Q0.000
M67 E2 Q0.000
G1 C360.000 F1.665278 (RING 4/5 R=31.6735 CSPD=599.50 E0=0.000 E2=0.000 QV=57.55)
M67 E0 Q0.000
M67 E2 Q0.000
G1 X3.3353 C5.000 F119.900000 (HOT LINK 4 CSPD=599.50 E0=0.000 E2=0.000)
M67 E0 Q0.000
M67 E2 Q0.000
G1 C360.000 F1.665278 (RING 5/5 R=35.0088 CSPD=599.50 E0=0.000 E2=0.000 QV=52.07)
(LAYER 19/32 Z=27.3235..28.7647 ZONE=HUB_WIDE DIR=inner_to_outer TRACKS=5 PITCH=3.2294 ADEP=4.5701 ACTIVE=3.0359min DWELL=116.1s)
M68 E2 Q0.000 (cold interlayer transition)
M68 E0 Q0.000
G1 X-13.3941 Z1.4412 C17.000 F35.264706
G4 P116.147 (calculated thermal dwell beam and wire off)
M67 E0 Q0.000 (synchronized layer hot state)
M67 E2 Q0.000
G1 C360.000 F1.665278 (RING 1/5 R=21.6147 CSPD=599.50 E0=0.000 E2=0.000 QV=87.08)
M67 E0 Q0.000
M67 E2 Q0.000
G1 X3.2294 C5.000 F119.900000 (HOT LINK 1 CSPD=599.50 E0=0.000 E2=0.000)
M67 E0 Q0.000
M67 E2 Q0.000
G1 C360.000 F1.665278 (RING 2/5 R=24.8441 CSPD=599.50 E0=0.000 E2=0.000 QV=75.76)
M67 E0 Q0.000
M67 E2 Q0.000
G1 X3.2294 C5.000 F119.900000 (HOT LINK 2 CSPD=599.50 E0=0.000 E2=0.000)
M67 E0 Q0.000
M67 E2 Q0.000
G1 C360.000 F1.665278 (RING 3/5 R=28.0735 CSPD=599.50 E0=0.000 E2=0.000 QV=67.04)
M67 E0 Q0.000
M67 E2 Q0.000
G1 X3.2294 C5.000 F119.900000 (HOT LINK 3 CSPD=599.50 E0=0.000 E2=0.000)
M67 E0 Q0.000
M67 E2 Q0.000
G1 C360.000 F1.665278 (RING 4/5 R=31.3029 CSPD=599.50 E0=0.000 E2=0.000 QV=60.13)
M67 E0 Q0.000
M67 E2 Q0.000
G1 X3.2294 C5.000 F119.900000 (HOT LINK 4 CSPD=599.50 E0=0.000 E2=0.000)
M67 E0 Q0.000
M67 E2 Q0.000
G1 C360.000 F1.665278 (RING 5/5 R=34.5324 CSPD=599.50 E0=0.000 E2=0.000 QV=54.50)
(LAYER 20/32 Z=28.7647..30.2059 ZONE=HUB_WIDE DIR=inner_to_outer TRACKS=4 PITCH=3.9044 ADEP=5.5180 ACTIVE=2.4270min DWELL=152.7s)
M68 E2 Q0.000 (cold interlayer transition)
M68 E0 Q0.000
G1 X-12.5801 Z1.4412 C17.000 F35.264706
G4 P116.147 (calculated thermal dwell beam and wire off)
M67 E0 Q0.000 (synchronized layer hot state)
M67 E2 Q0.000
G1 C360.000 F1.665278 (RING 1/4 R=21.9522 CSPD=599.50 E0=0.000 E2=0.000 QV=71.01)
M67 E0 Q0.000
M67 E2 Q0.000
G1 X3.9044 C5.000 F119.900000 (HOT LINK 1 CSPD=599.50 E0=0.000 E2=0.000)
M67 E0 Q0.000
M67 E2 Q0.000
G1 C360.000 F1.665278 (RING 2/4 R=25.8566 CSPD=599.50 E0=0.000 E2=0.000 QV=60.29)
M67 E0 Q0.000
M67 E2 Q0.000
G1 X3.9044 C5.000 F119.900000 (HOT LINK 2 CSPD=599.50 E0=0.000 E2=0.000)
M67 E0 Q0.000
M67 E2 Q0.000
G1 C360.000 F1.665278 (RING 3/4 R=29.7610 CSPD=599.50 E0=0.000 E2=0.000 QV=52.38)
M67 E0 Q0.000
M67 E2 Q0.000
G1 X3.9044 C5.000 F119.900000 (HOT LINK 3 CSPD=599.50 E0=0.000 E2=0.000)
M67 E0 Q0.000
M67 E2 Q0.000
G1 C360.000 F1.665278 (RING 4/4 R=33.6654 CSPD=599.50 E0=0.000 E2=0.000 QV=46.30)
(LAYER 21/32 Z=30.2059..31.6471 ZONE=HUB_WIDE DIR=inner_to_outer TRACKS=4 PITCH=3.7721 ADEP=5.3328 ACTIVE=2.4270min DWELL=152.7s)
M68 E2 Q0.000 (cold interlayer transition)
M68 E0 Q0.000
G1 X-11.7794 Z1.4412 C17.000 F35.264706
G4 P152.677 (calculated thermal dwell beam and wire off)
M67 E0 Q0.000 (synchronized layer hot state)
M67 E2 Q0.000
G1 C360.000 F1.665278 (RING 1/4 R=21.8860 CSPD=599.50 E0=0.000 E2=0.000 QV=73.70)
M67 E0 Q0.000
M67 E2 Q0.000
G1 X3.7721 C5.000 F119.900000 (HOT LINK 1 CSPD=599.50 E0=0.000 E2=0.000)
M67 E0 Q0.000
M67 E2 Q0.000
G1 C360.000 F1.665278 (RING 2/4 R=25.6581 CSPD=599.50 E0=0.000 E2=0.000 QV=62.86)
M67 E0 Q0.000
M67 E2 Q0.000
G1 X3.7721 C5.000 F119.900000 (HOT LINK 2 CSPD=599.50 E0=0.000 E2=0.000)
M67 E0 Q0.000
M67 E2 Q0.000
G1 C360.000 F1.665278 (RING 3/4 R=29.4302 CSPD=599.50 E0=0.000 E2=0.000 QV=54.81)
M67 E0 Q0.000
M67 E2 Q0.000
G1 X3.7721 C5.000 F119.900000 (HOT LINK 3 CSPD=599.50 E0=0.000 E2=0.000)
M67 E0 Q0.000
M67 E2 Q0.000
G1 C360.000 F1.665278 (RING 4/4 R=33.2022 CSPD=599.50 E0=0.000 E2=0.000 QV=48.58)
(LAYER 22/32 Z=31.6471..33.0882 ZONE=HUB_WIDE DIR=inner_to_outer TRACKS=4 PITCH=3.6397 ADEP=5.1475 ACTIVE=2.4270min DWELL=152.7s)
M68 E2 Q0.000 (cold interlayer transition)
M68 E0 Q0.000
G1 X-11.3824 Z1.4412 C17.000 F35.264706
G4 P152.677 (calculated thermal dwell beam and wire off)
M67 E0 Q0.000 (synchronized layer hot state)
M67 E2 Q0.000
G1 C360.000 F1.665278 (RING 1/4 R=21.8199 CSPD=599.50 E0=0.000 E2=0.000 QV=76.58)
M67 E0 Q0.000
M67 E2 Q0.000
G1 X3.6397 C5.000 F119.900000 (HOT LINK 1 CSPD=599.50 E0=0.000 E2=0.000)
M67 E0 Q0.000
M67 E2 Q0.000
G1 C360.000 F1.665278 (RING 2/4 R=25.4596 CSPD=599.50 E0=0.000 E2=0.000 QV=65.63)
M67 E0 Q0.000
M67 E2 Q0.000
G1 X3.6397 C5.000 F119.900000 (HOT LINK 2 CSPD=599.50 E0=0.000 E2=0.000)
M67 E0 Q0.000
M67 E2 Q0.000
G1 C360.000 F1.665278 (RING 3/4 R=29.0993 CSPD=599.50 E0=0.000 E2=0.000 QV=57.42)
M67 E0 Q0.000
M67 E2 Q0.000
G1 X3.6397 C5.000 F119.900000 (HOT LINK 3 CSPD=599.50 E0=0.000 E2=0.000)
M67 E0 Q0.000
M67 E2 Q0.000
G1 C360.000 F1.665278 (RING 4/4 R=32.7390 CSPD=599.50 E0=0.000 E2=0.000 QV=51.04)
(LAYER 23/32 Z=33.0882..34.5294 ZONE=HUB_WIDE DIR=inner_to_outer TRACKS=4 PITCH=3.5074 ADEP=4.9621 ACTIVE=2.4270min DWELL=152.7s)
M68 E2 Q0.000 (cold interlayer transition)
M68 E0 Q0.000
G1 X-10.9853 Z1.4412 C17.000 F35.264706
G4 P152.677 (calculated thermal dwell beam and wire off)
M67 E0 Q0.000 (synchronized layer hot state)
M67 E2 Q0.000
G1 C360.000 F1.665278 (RING 1/4 R=21.7537 CSPD=599.50 E0=0.000 E2=0.000 QV=79.69)
M67 E0 Q0.000
M67 E2 Q0.000
G1 X3.5074 C5.000 F119.900000 (HOT LINK 1 CSPD=599.50 E0=0.000 E2=0.000)
M67 E0 Q0.000
M67 E2 Q0.000
G1 C360.000 F1.665278 (RING 2/4 R=25.2610 CSPD=599.50 E0=0.000 E2=0.000 QV=68.62)
M67 E0 Q0.000
M67 E2 Q0.000
G1 X3.5074 C5.000 F119.900000 (HOT LINK 2 CSPD=599.50 E0=0.000 E2=0.000)
M67 E0 Q0.000
M67 E2 Q0.000
G1 C360.000 F1.665278 (RING 3/4 R=28.7684 CSPD=599.50 E0=0.000 E2=0.000 QV=60.26)
M67 E0 Q0.000
M67 E2 Q0.000
G1 X3.5074 C5.000 F119.900000 (HOT LINK 3 CSPD=599.50 E0=0.000 E2=0.000)
M67 E0 Q0.000
M67 E2 Q0.000
G1 C360.000 F1.665278 (RING 4/4 R=32.2757 CSPD=599.50 E0=0.000 E2=0.000 QV=53.71)
(LAYER 24/32 Z=34.5294..35.9706 ZONE=HUB_WIDE DIR=inner_to_outer TRACKS=4 PITCH=3.3750 ADEP=4.7765 ACTIVE=2.4270min DWELL=152.7s)
M68 E2 Q0.000 (cold interlayer transition)
M68 E0 Q0.000
G1 X-10.5882 Z1.4412 C17.000 F35.264706
G4 P152.677 (calculated thermal dwell beam and wire off)
M67 E0 Q0.000 (synchronized layer hot state)
M67 E2 Q0.000
G1 C360.000 F1.665278 (RING 1/4 R=21.6875 CSPD=599.50 E0=0.000 E2=0.000 QV=83.03)
M67 E0 Q0.000
M67 E2 Q0.000
G1 X3.3750 C5.000 F119.900000 (HOT LINK 1 CSPD=599.50 E0=0.000 E2=0.000)
M67 E0 Q0.000
M67 E2 Q0.000
G1 C360.000 F1.665278 (RING 2/4 R=25.0625 CSPD=599.50 E0=0.000 E2=0.000 QV=71.85)
M67 E0 Q0.000
M67 E2 Q0.000
G1 X3.3750 C5.000 F119.900000 (HOT LINK 2 CSPD=599.50 E0=0.000 E2=0.000)
M67 E0 Q0.000
M67 E2 Q0.000
G1 C360.000 F1.665278 (RING 3/4 R=28.4375 CSPD=599.50 E0=0.000 E2=0.000 QV=63.32)
M67 E0 Q0.000
M67 E2 Q0.000
G1 X3.3750 C5.000 F119.900000 (HOT LINK 3 CSPD=599.50 E0=0.000 E2=0.000)
M67 E0 Q0.000
M67 E2 Q0.000
G1 C360.000 F1.665278 (RING 4/4 R=31.8125 CSPD=599.50 E0=0.000 E2=0.000 QV=56.61)
(LAYER 25/32 Z=35.9706..37.4118 ZONE=HUB_WIDE DIR=inner_to_outer TRACKS=4 PITCH=3.2426 ADEP=4.5909 ACTIVE=2.4270min DWELL=152.7s)
M68 E2 Q0.000 (cold interlayer transition)
M68 E0 Q0.000
G1 X-10.1912 Z1.4412 C17.000 F35.264706
G4 P152.677 (calculated thermal dwell beam and wire off)
M67 E0 Q0.000 (synchronized layer hot state)
M67 E2 Q0.000
G1 C360.000 F1.665278 (RING 1/4 R=21.6213 CSPD=599.50 E0=0.000 E2=0.000 QV=86.66)
M67 E0 Q0.000
M67 E2 Q0.000
G1 X3.2426 C5.000 F119.900000 (HOT LINK 1 CSPD=599.50 E0=0.000 E2=0.000)
M67 E0 Q0.000
M67 E2 Q0.000
G1 C360.000 F1.665278 (RING 2/4 R=24.8640 CSPD=599.50 E0=0.000 E2=0.000 QV=75.35)
M67 E0 Q0.000
M67 E2 Q0.000
G1 X3.2426 C5.000 F119.900000 (HOT LINK 2 CSPD=599.50 E0=0.000 E2=0.000)
M67 E0 Q0.000
M67 E2 Q0.000
G1 C360.000 F1.665278 (RING 3/4 R=28.1066 CSPD=599.50 E0=0.000 E2=0.000 QV=66.66)
M67 E0 Q0.000
M67 E2 Q0.000
G1 X3.2426 C5.000 F119.900000 (HOT LINK 3 CSPD=599.50 E0=0.000 E2=0.000)
M67 E0 Q0.000
M67 E2 Q0.000
G1 C360.000 F1.665278 (RING 4/4 R=31.3493 CSPD=599.50 E0=0.000 E2=0.000 QV=59.77)
(LAYER 26/32 Z=37.4118..38.8529 ZONE=HUB_WIDE DIR=inner_to_outer TRACKS=4 PITCH=3.1103 ADEP=4.4051 ACTIVE=2.4270min DWELL=152.7s)
M68 E2 Q0.000 (cold interlayer transition)
M68 E0 Q0.000
G1 X-9.7941 Z1.4412 C17.000 F35.264706
G4 P152.677 (calculated thermal dwell beam and wire off)
M67 E0 Q0.000 (synchronized layer hot state)
M67 E2 Q0.000
G1 C360.000 F1.665278 (RING 1/4 R=21.5552 CSPD=599.50 E0=0.000 E2=0.000 QV=90.59)
M67 E0 Q0.000
M67 E2 Q0.000
G1 X3.1103 C5.000 F119.900000 (HOT LINK 1 CSPD=599.50 E0=0.000 E2=0.000)
M67 E0 Q0.000
M67 E2 Q0.000
G1 C360.000 F1.665278 (RING 2/4 R=24.6654 CSPD=599.50 E0=0.000 E2=0.000 QV=79.16)
M67 E0 Q0.000
M67 E2 Q0.000
G1 X3.1103 C5.000 F119.900000 (HOT LINK 2 CSPD=599.50 E0=0.000 E2=0.000)
M67 E0 Q0.000
M67 E2 Q0.000
G1 C360.000 F1.665278 (RING 3/4 R=27.7757 CSPD=599.50 E0=0.000 E2=0.000 QV=70.30)
M67 E0 Q0.000
M67 E2 Q0.000
G1 X3.1103 C5.000 F119.900000 (HOT LINK 3 CSPD=599.50 E0=0.000 E2=0.000)
M67 E0 Q0.000
M67 E2 Q0.000
G1 C360.000 F1.665278 (RING 4/4 R=30.8860 CSPD=599.50 E0=0.000 E2=0.000 QV=63.22)
(LAYER 27/32 Z=38.8529..40.2941 ZONE=HUB_WIDE DIR=inner_to_outer TRACKS=3 PITCH=3.9706 ADEP=5.6175 ACTIVE=1.8182min DWELL=189.2s)
M68 E2 Q0.000 (cold interlayer transition)
M68 E0 Q0.000
G1 X-8.9007 Z1.4412 C17.000 F35.264706
G4 P152.677 (calculated thermal dwell beam and wire off)
M67 E0 Q0.000 (synchronized layer hot state)
M67 E2 Q0.000
G1 C360.000 F1.665278 (RING 1/3 R=21.9853 CSPD=599.50 E0=0.000 E2=0.000 QV=69.65)
M67 E0 Q0.000
M67 E2 Q0.000
G1 X3.9706 C5.000 F119.900000 (HOT LINK 1 CSPD=599.50 E0=0.000 E2=0.000)
M67 E0 Q0.000
M67 E2 Q0.000
G1 C360.000 F1.665278 (RING 2/3 R=25.9559 CSPD=599.50 E0=0.000 E2=0.000 QV=58.99)
M67 E0 Q0.000
M67 E2 Q0.000
G1 X3.9706 C5.000 F119.900000 (HOT LINK 2 CSPD=599.50 E0=0.000 E2=0.000)
M67 E0 Q0.000
M67 E2 Q0.000
G1 C360.000 F1.665278 (RING 3/3 R=29.9265 CSPD=599.50 E0=0.000 E2=0.000 QV=51.17)
(LAYER 28/32 Z=40.2941..41.7353 ZONE=HUB_WIDE DIR=inner_to_outer TRACKS=3 PITCH=3.7941 ADEP=5.3704 ACTIVE=1.8182min DWELL=189.2s)
M68 E2 Q0.000 (cold interlayer transition)
M68 E0 Q0.000
G1 X-8.0294 Z1.4412 C17.000 F35.264706
G4 P189.208 (calculated thermal dwell beam and wire off)
M67 E0 Q0.000 (synchronized layer hot state)
M67 E2 Q0.000
G1 C360.000 F1.665278 (RING 1/3 R=21.8971 CSPD=599.50 E0=0.000 E2=0.000 QV=73.14)
M67 E0 Q0.000
M67 E2 Q0.000
G1 X3.7941 C5.000 F119.900000 (HOT LINK 1 CSPD=599.50 E0=0.000 E2=0.000)
M67 E0 Q0.000
M67 E2 Q0.000
G1 C360.000 F1.665278 (RING 2/3 R=25.6912 CSPD=599.50 E0=0.000 E2=0.000 QV=62.34)
M67 E0 Q0.000
M67 E2 Q0.000
G1 X3.7941 C5.000 F119.900000 (HOT LINK 2 CSPD=599.50 E0=0.000 E2=0.000)
M67 E0 Q0.000
M67 E2 Q0.000
G1 C360.000 F1.665278 (RING 3/3 R=29.4853 CSPD=599.50 E0=0.000 E2=0.000 QV=54.32)
(LAYER 29/32 Z=41.7353..43.1765 ZONE=HUB_WIDE DIR=inner_to_outer TRACKS=3 PITCH=3.6176 ADEP=5.1231 ACTIVE=1.8182min DWELL=189.2s)
M68 E2 Q0.000 (cold interlayer transition)
M68 E0 Q0.000
G1 X-7.6765 Z1.4412 C17.000 F35.264706
G4 P189.208 (calculated thermal dwell beam and wire off)
M67 E0 Q0.000 (synchronized layer hot state)
M67 E2 Q0.000
G1 C360.000 F1.665278 (RING 1/3 R=21.8088 CSPD=599.50 E0=0.000 E2=0.000 QV=76.99)
M67 E0 Q0.000
M67 E2 Q0.000
G1 X3.6176 C5.000 F119.900000 (HOT LINK 1 CSPD=599.50 E0=0.000 E2=0.000)
M67 E0 Q0.000
M67 E2 Q0.000
G1 C360.000 F1.665278 (RING 2/3 R=25.4265 CSPD=599.50 E0=0.000 E2=0.000 QV=66.03)
M67 E0 Q0.000
M67 E2 Q0.000
G1 X3.6176 C5.000 F119.900000 (HOT LINK 2 CSPD=599.50 E0=0.000 E2=0.000)
M67 E0 Q0.000
M67 E2 Q0.000
G1 C360.000 F1.665278 (RING 3/3 R=29.0441 CSPD=599.50 E0=0.000 E2=0.000 QV=57.81)
(LAYER 30/32 Z=43.1765..44.6176 ZONE=HUB_WIDE DIR=inner_to_outer TRACKS=3 PITCH=3.4412 ADEP=4.8756 ACTIVE=1.8182min DWELL=189.2s)
M68 E2 Q0.000 (cold interlayer transition)
M68 E0 Q0.000
G1 X-7.3235 Z1.4412 C17.000 F35.264706
G4 P189.208 (calculated thermal dwell beam and wire off)
M67 E0 Q0.000 (synchronized layer hot state)
M67 E2 Q0.000
G1 C360.000 F1.665278 (RING 1/3 R=21.7206 CSPD=599.50 E0=0.000 E2=0.000 QV=81.22)
M67 E0 Q0.000
M67 E2 Q0.000
G1 X3.4412 C5.000 F119.900000 (HOT LINK 1 CSPD=599.50 E0=0.000 E2=0.000)
M67 E0 Q0.000
M67 E2 Q0.000
G1 C360.000 F1.665278 (RING 2/3 R=25.1618 CSPD=599.50 E0=0.000 E2=0.000 QV=70.11)
M67 E0 Q0.000
M67 E2 Q0.000
G1 X3.4412 C5.000 F119.900000 (HOT LINK 2 CSPD=599.50 E0=0.000 E2=0.000)
M67 E0 Q0.000
M67 E2 Q0.000
G1 C360.000 F1.665278 (RING 3/3 R=28.6029 CSPD=599.50 E0=0.000 E2=0.000 QV=61.68)
(LAYER 31/32 Z=44.6176..46.0588 ZONE=HUB_WIDE DIR=inner_to_outer TRACKS=3 PITCH=3.2647 ADEP=4.6279 ACTIVE=1.8182min DWELL=189.2s)
M68 E2 Q0.000 (cold interlayer transition)
M68 E0 Q0.000
G1 X-6.9706 Z1.4412 C17.000 F35.264706
G4 P189.208 (calculated thermal dwell beam and wire off)
M67 E0 Q0.000 (synchronized layer hot state)
M67 E2 Q0.000
G1 C360.000 F1.665278 (RING 1/3 R=21.6324 CSPD=599.50 E0=0.000 E2=0.000 QV=85.92)
M67 E0 Q0.000
M67 E2 Q0.000
G1 X3.2647 C5.000 F119.900000 (HOT LINK 1 CSPD=599.50 E0=0.000 E2=0.000)
M67 E0 Q0.000
M67 E2 Q0.000
G1 C360.000 F1.665278 (RING 2/3 R=24.8971 CSPD=599.50 E0=0.000 E2=0.000 QV=74.65)
M67 E0 Q0.000
M67 E2 Q0.000
G1 X3.2647 C5.000 F119.900000 (HOT LINK 2 CSPD=599.50 E0=0.000 E2=0.000)
M67 E0 Q0.000
M67 E2 Q0.000
G1 C360.000 F1.665278 (RING 3/3 R=28.1618 CSPD=599.50 E0=0.000 E2=0.000 QV=66.00)
(LAYER 32/32 Z=46.0588..47.5000 ZONE=HUB_WIDE DIR=inner_to_outer TRACKS=3 PITCH=3.0882 ADEP=4.3799 ACTIVE=1.8182min DWELL=0.0s)
M68 E2 Q0.000 (cold interlayer transition)
M68 E0 Q0.000
G1 X-6.6176 Z1.4412 C17.000 F35.264706
G4 P189.208 (calculated thermal dwell beam and wire off)
M67 E0 Q0.000 (synchronized layer hot state)
M67 E2 Q0.000
G1 C360.000 F1.665278 (RING 1/3 R=21.5441 CSPD=599.50 E0=0.000 E2=0.000 QV=91.16)
M67 E0 Q0.000
M67 E2 Q0.000
G1 X3.0882 C5.000 F119.900000 (HOT LINK 1 CSPD=599.50 E0=0.000 E2=0.000)
M67 E0 Q0.000
M67 E2 Q0.000
G1 C360.000 F1.665278 (RING 2/3 R=24.6324 CSPD=599.50 E0=0.000 E2=0.000 QV=79.73)
M67 E0 Q0.000
M67 E2 Q0.000
G1 X3.0882 C5.000 F119.900000 (HOT LINK 2 CSPD=599.50 E0=0.000 E2=0.000)
M67 E0 Q0.000
M67 E2 Q0.000
G1 C360.000 F1.665278 (RING 3/3 R=27.7206 CSPD=599.50 E0=0.000 E2=0.000 QV=70.84)
M68 E2 Q0.000 (wire OFF)
M68 E0 Q0.000 (beam OFF)
G90
G94
G0 Z50.5000 (safe retract)
M2
